{"type":"FeatureCollection","features":[{"type":"Feature","id":1,"geometry":null,"properties":{"LAD24CD":"E06000001","LAD24NM":"Hartlepool","LAD24NMW":null,"LAD25CD":"E06000001","LAD25NM":"Hartlepool","LAD25NMW":null,"ObjectId":1}},{"type":"Feature","id":2,"geometry":null,"properties":{"LAD24CD":"E06000002","LAD24NM":"Middlesbrough","LAD24NMW":null,"LAD25CD":"E06000002","LAD25NM":"Middlesbrough","LAD25NMW":null,"ObjectId":2}},{"type":"Feature","id":3,"geometry":null,"properties":{"LAD24CD":"E06000003","LAD24NM":"Redcar and Cleveland","LAD24NMW":null,"LAD25CD":"E06000003","LAD25NM":"Redcar and Cleveland","LAD25NMW":null,"ObjectId":3}},{"type":"Feature","id":4,"geometry":null,"properties":{"LAD24CD":"E06000004","LAD24NM":"Stockton-on-Tees","LAD24NMW":null,"LAD25CD":"E06000004","LAD25NM":"Stockton-on-Tees","LAD25NMW":null,"ObjectId":4}},{"type":"Feature","id":5,"geometry":null,"properties":{"LAD24CD":"E06000005","LAD24NM":"Darlington","LAD24NMW":null,"LAD25CD":"E06000005","LAD25NM":"Darlington","LAD25NMW":null,"ObjectId":5}},{"type":"Feature","id":6,"geometry":null,"properties":{"LAD24CD":"E06000006","LAD24NM":"Halton","LAD24NMW":null,"LAD25CD":"E06000006","LAD25NM":"Halton","LAD25NMW":null,"ObjectId":6}},{"type":"Feature","id":7,"geometry":null,"properties":{"LAD24CD":"E06000007","LAD24NM":"Warrington","LAD24NMW":null,"LAD25CD":"E06000007","LAD25NM":"Warrington","LAD25NMW":null,"ObjectId":7}},{"type":"Feature","id":8,"geometry":null,"properties":{"LAD24CD":"E06000008","LAD24NM":"Blackburn with Darwen","LAD24NMW":null,"LAD25CD":"E06000008","LAD25NM":"Blackburn with Darwen","LAD25NMW":null,"ObjectId":8}},{"type":"Feature","id":9,"geometry":null,"properties":{"LAD24CD":"E06000009","LAD24NM":"Blackpool","LAD24NMW":null,"LAD25CD":"E06000009","LAD25NM":"Blackpool","LAD25NMW":null,"ObjectId":9}},{"type":"Feature","id":10,"geometry":null,"properties":{"LAD24CD":"E06000010","LAD24NM":"Kingston upon Hull, City of","LAD24NMW":null,"LAD25CD":"E06000010","LAD25NM":"Kingston upon Hull, City of","LAD25NMW":null,"ObjectId":10}},{"type":"Feature","id":11,"geometry":null,"properties":{"LAD24CD":"E06000011","LAD24NM":"East Riding of Yorkshire","LAD24NMW":null,"LAD25CD":"E06000011","LAD25NM":"East Riding of Yorkshire","LAD25NMW":null,"ObjectId":11}},{"type":"Feature","id":12,"geometry":null,"properties":{"LAD24CD":"E06000012","LAD24NM":"North East Lincolnshire","LAD24NMW":null,"LAD25CD":"E06000012","LAD25NM":"North East Lincolnshire","LAD25NMW":null,"ObjectId":12}},{"type":"Feature","id":13,"geometry":null,"properties":{"LAD24CD":"E06000013","LAD24NM":"North Lincolnshire","LAD24NMW":null,"LAD25CD":"E06000013","LAD25NM":"North Lincolnshire","LAD25NMW":null,"ObjectId":13}},{"type":"Feature","id":14,"geometry":null,"properties":{"LAD24CD":"E06000014","LAD24NM":"York","LAD24NMW":null,"LAD25CD":"E06000014","LAD25NM":"York","LAD25NMW":null,"ObjectId":14}},{"type":"Feature","id":15,"geometry":null,"properties":{"LAD24CD":"E06000015","LAD24NM":"Derby","LAD24NMW":null,"LAD25CD":"E06000015","LAD25NM":"Derby","LAD25NMW":null,"ObjectId":15}},{"type":"Feature","id":16,"geometry":null,"properties":{"LAD24CD":"E06000016","LAD24NM":"Leicester","LAD24NMW":null,"LAD25CD":"E06000016","LAD25NM":"Leicester","LAD25NMW":null,"ObjectId":16}},{"type":"Feature","id":17,"geometry":null,"properties":{"LAD24CD":"E06000017","LAD24NM":"Rutland","LAD24NMW":null,"LAD25CD":"E06000017","LAD25NM":"Rutland","LAD25NMW":null,"ObjectId":17}},{"type":"Feature","id":18,"geometry":null,"properties":{"LAD24CD":"E06000018","LAD24NM":"Nottingham","LAD24NMW":null,"LAD25CD":"E06000018","LAD25NM":"Nottingham","LAD25NMW":null,"ObjectId":18}},{"type":"Feature","id":19,"geometry":null,"properties":{"LAD24CD":"E06000019","LAD24NM":"Herefordshire, County of","LAD24NMW":null,"LAD25CD":"E06000019","LAD25NM":"Herefordshire, County of","LAD25NMW":null,"ObjectId":19}},{"type":"Feature","id":20,"geometry":null,"properties":{"LAD24CD":"E06000020","LAD24NM":"Telford and Wrekin","LAD24NMW":null,"LAD25CD":"E06000020","LAD25NM":"Telford and Wrekin","LAD25NMW":null,"ObjectId":20}},{"type":"Feature","id":21,"geometry":null,"properties":{"LAD24CD":"E06000021","LAD24NM":"Stoke-on-Trent","LAD24NMW":null,"LAD25CD":"E06000021","LAD25NM":"Stoke-on-Trent","LAD25NMW":null,"ObjectId":21}},{"type":"Feature","id":22,"geometry":null,"properties":{"LAD24CD":"E06000022","LAD24NM":"Bath and North East Somerset","LAD24NMW":null,"LAD25CD":"E06000022","LAD25NM":"Bath and North East Somerset","LAD25NMW":null,"ObjectId":22}},{"type":"Feature","id":23,"geometry":null,"properties":{"LAD24CD":"E06000023","LAD24NM":"Bristol, City of","LAD24NMW":null,"LAD25CD":"E06000023","LAD25NM":"Bristol, City of","LAD25NMW":null,"ObjectId":23}},{"type":"Feature","id":24,"geometry":null,"properties":{"LAD24CD":"E06000024","LAD24NM":"North Somerset","LAD24NMW":null,"LAD25CD":"E06000024","LAD25NM":"North Somerset","LAD25NMW":null,"ObjectId":24}},{"type":"Feature","id":25,"geometry":null,"properties":{"LAD24CD":"E06000025","LAD24NM":"South Gloucestershire","LAD24NMW":null,"LAD25CD":"E06000025","LAD25NM":"South Gloucestershire","LAD25NMW":null,"ObjectId":25}},{"type":"Feature","id":26,"geometry":null,"properties":{"LAD24CD":"E06000026","LAD24NM":"Plymouth","LAD24NMW":null,"LAD25CD":"E06000026","LAD25NM":"Plymouth","LAD25NMW":null,"ObjectId":26}},{"type":"Feature","id":27,"geometry":null,"properties":{"LAD24CD":"E06000027","LAD24NM":"Torbay","LAD24NMW":null,"LAD25CD":"E06000027","LAD25NM":"Torbay","LAD25NMW":null,"ObjectId":27}},{"type":"Feature","id":28,"geometry":null,"properties":{"LAD24CD":"E06000030","LAD24NM":"Swindon","LAD24NMW":null,"LAD25CD":"E06000030","LAD25NM":"Swindon","LAD25NMW":null,"ObjectId":28}},{"type":"Feature","id":29,"geometry":null,"properties":{"LAD24CD":"E06000031","LAD24NM":"Peterborough","LAD24NMW":null,"LAD25CD":"E06000031","LAD25NM":"Peterborough","LAD25NMW":null,"ObjectId":29}},{"type":"Feature","id":30,"geometry":null,"properties":{"LAD24CD":"E06000032","LAD24NM":"Luton","LAD24NMW":null,"LAD25CD":"E06000032","LAD25NM":"Luton","LAD25NMW":null,"ObjectId":30}},{"type":"Feature","id":31,"geometry":null,"properties":{"LAD24CD":"E06000033","LAD24NM":"Southend-on-Sea","LAD24NMW":null,"LAD25CD":"E06000033","LAD25NM":"Southend-on-Sea","LAD25NMW":null,"ObjectId":31}},{"type":"Feature","id":32,"geometry":null,"properties":{"LAD24CD":"E06000034","LAD24NM":"Thurrock","LAD24NMW":null,"LAD25CD":"E06000034","LAD25NM":"Thurrock","LAD25NMW":null,"ObjectId":32}},{"type":"Feature","id":33,"geometry":null,"properties":{"LAD24CD":"E06000035","LAD24NM":"Medway","LAD24NMW":null,"LAD25CD":"E06000035","LAD25NM":"Medway","LAD25NMW":null,"ObjectId":33}},{"type":"Feature","id":34,"geometry":null,"properties":{"LAD24CD":"E06000036","LAD24NM":"Bracknell Forest","LAD24NMW":null,"LAD25CD":"E06000036","LAD25NM":"Bracknell Forest","LAD25NMW":null,"ObjectId":34}},{"type":"Feature","id":35,"geometry":null,"properties":{"LAD24CD":"E06000037","LAD24NM":"West Berkshire","LAD24NMW":null,"LAD25CD":"E06000037","LAD25NM":"West Berkshire","LAD25NMW":null,"ObjectId":35}},{"type":"Feature","id":36,"geometry":null,"properties":{"LAD24CD":"E06000038","LAD24NM":"Reading","LAD24NMW":null,"LAD25CD":"E06000038","LAD25NM":"Reading","LAD25NMW":null,"ObjectId":36}},{"type":"Feature","id":37,"geometry":null,"properties":{"LAD24CD":"E06000039","LAD24NM":"Slough","LAD24NMW":null,"LAD25CD":"E06000039","LAD25NM":"Slough","LAD25NMW":null,"ObjectId":37}},{"type":"Feature","id":38,"geometry":null,"properties":{"LAD24CD":"E06000040","LAD24NM":"Windsor and Maidenhead","LAD24NMW":null,"LAD25CD":"E06000040","LAD25NM":"Windsor and Maidenhead","LAD25NMW":null,"ObjectId":38}},{"type":"Feature","id":39,"geometry":null,"properties":{"LAD24CD":"E06000041","LAD24NM":"Wokingham","LAD24NMW":null,"LAD25CD":"E06000041","LAD25NM":"Wokingham","LAD25NMW":null,"ObjectId":39}},{"type":"Feature","id":40,"geometry":null,"properties":{"LAD24CD":"E06000042","LAD24NM":"Milton Keynes","LAD24NMW":null,"LAD25CD":"E06000042","LAD25NM":"Milton Keynes","LAD25NMW":null,"ObjectId":40}},{"type":"Feature","id":41,"geometry":null,"properties":{"LAD24CD":"E06000043","LAD24NM":"Brighton and Hove","LAD24NMW":null,"LAD25CD":"E06000043","LAD25NM":"Brighton and Hove","LAD25NMW":null,"ObjectId":41}},{"type":"Feature","id":42,"geometry":null,"properties":{"LAD24CD":"E06000044","LAD24NM":"Portsmouth","LAD24NMW":null,"LAD25CD":"E06000044","LAD25NM":"Portsmouth","LAD25NMW":null,"ObjectId":42}},{"type":"Feature","id":43,"geometry":null,"properties":{"LAD24CD":"E06000045","LAD24NM":"Southampton","LAD24NMW":null,"LAD25CD":"E06000045","LAD25NM":"Southampton","LAD25NMW":null,"ObjectId":43}},{"type":"Feature","id":44,"geometry":null,"properties":{"LAD24CD":"E06000046","LAD24NM":"Isle of Wight","LAD24NMW":null,"LAD25CD":"E06000046","LAD25NM":"Isle of Wight","LAD25NMW":null,"ObjectId":44}},{"type":"Feature","id":45,"geometry":null,"properties":{"LAD24CD":"E06000047","LAD24NM":"County Durham","LAD24NMW":null,"LAD25CD":"E06000047","LAD25NM":"County Durham","LAD25NMW":null,"ObjectId":45}},{"type":"Feature","id":46,"geometry":null,"properties":{"LAD24CD":"E06000049","LAD24NM":"Cheshire East","LAD24NMW":null,"LAD25CD":"E06000049","LAD25NM":"Cheshire East","LAD25NMW":null,"ObjectId":46}},{"type":"Feature","id":47,"geometry":null,"properties":{"LAD24CD":"E06000050","LAD24NM":"Cheshire West and Chester","LAD24NMW":null,"LAD25CD":"E06000050","LAD25NM":"Cheshire West and Chester","LAD25NMW":null,"ObjectId":47}},{"type":"Feature","id":48,"geometry":null,"properties":{"LAD24CD":"E06000051","LAD24NM":"Shropshire","LAD24NMW":null,"LAD25CD":"E06000051","LAD25NM":"Shropshire","LAD25NMW":null,"ObjectId":48}},{"type":"Feature","id":49,"geometry":null,"properties":{"LAD24CD":"E06000052","LAD24NM":"Cornwall","LAD24NMW":null,"LAD25CD":"E06000052","LAD25NM":"Cornwall","LAD25NMW":null,"ObjectId":49}},{"type":"Feature","id":50,"geometry":null,"properties":{"LAD24CD":"E06000053","LAD24NM":"Isles of Scilly","LAD24NMW":null,"LAD25CD":"E06000053","LAD25NM":"Isles of Scilly","LAD25NMW":null,"ObjectId":50}},{"type":"Feature","id":51,"geometry":null,"properties":{"LAD24CD":"E06000054","LAD24NM":"Wiltshire","LAD24NMW":null,"LAD25CD":"E06000054","LAD25NM":"Wiltshire","LAD25NMW":null,"ObjectId":51}},{"type":"Feature","id":52,"geometry":null,"properties":{"LAD24CD":"E06000055","LAD24NM":"Bedford","LAD24NMW":null,"LAD25CD":"E06000055","LAD25NM":"Bedford","LAD25NMW":null,"ObjectId":52}},{"type":"Feature","id":53,"geometry":null,"properties":{"LAD24CD":"E07000137","LAD24NM":"East Lindsey","LAD24NMW":null,"LAD25CD":"E07000137","LAD25NM":"East Lindsey","LAD25NMW":null,"ObjectId":53}},{"type":"Feature","id":54,"geometry":null,"properties":{"LAD24CD":"E07000138","LAD24NM":"Lincoln","LAD24NMW":null,"LAD25CD":"E07000138","LAD25NM":"Lincoln","LAD25NMW":null,"ObjectId":54}},{"type":"Feature","id":55,"geometry":null,"properties":{"LAD24CD":"E07000139","LAD24NM":"North Kesteven","LAD24NMW":null,"LAD25CD":"E07000139","LAD25NM":"North Kesteven","LAD25NMW":null,"ObjectId":55}},{"type":"Feature","id":56,"geometry":null,"properties":{"LAD24CD":"E07000140","LAD24NM":"South Holland","LAD24NMW":null,"LAD25CD":"E07000140","LAD25NM":"South Holland","LAD25NMW":null,"ObjectId":56}},{"type":"Feature","id":57,"geometry":null,"properties":{"LAD24CD":"E07000141","LAD24NM":"South Kesteven","LAD24NMW":null,"LAD25CD":"E07000141","LAD25NM":"South Kesteven","LAD25NMW":null,"ObjectId":57}},{"type":"Feature","id":58,"geometry":null,"properties":{"LAD24CD":"E07000142","LAD24NM":"West Lindsey","LAD24NMW":null,"LAD25CD":"E07000142","LAD25NM":"West Lindsey","LAD25NMW":null,"ObjectId":58}},{"type":"Feature","id":59,"geometry":null,"properties":{"LAD24CD":"E07000143","LAD24NM":"Breckland","LAD24NMW":null,"LAD25CD":"E07000143","LAD25NM":"Breckland","LAD25NMW":null,"ObjectId":59}},{"type":"Feature","id":60,"geometry":null,"properties":{"LAD24CD":"E07000144","LAD24NM":"Broadland","LAD24NMW":null,"LAD25CD":"E07000144","LAD25NM":"Broadland","LAD25NMW":null,"ObjectId":60}},{"type":"Feature","id":61,"geometry":null,"properties":{"LAD24CD":"E07000145","LAD24NM":"Great Yarmouth","LAD24NMW":null,"LAD25CD":"E07000145","LAD25NM":"Great Yarmouth","LAD25NMW":null,"ObjectId":61}},{"type":"Feature","id":62,"geometry":null,"properties":{"LAD24CD":"E07000146","LAD24NM":"King's Lynn and West Norfolk","LAD24NMW":null,"LAD25CD":"E07000146","LAD25NM":"King's Lynn and West Norfolk","LAD25NMW":null,"ObjectId":62}},{"type":"Feature","id":63,"geometry":null,"properties":{"LAD24CD":"E07000147","LAD24NM":"North Norfolk","LAD24NMW":null,"LAD25CD":"E07000147","LAD25NM":"North Norfolk","LAD25NMW":null,"ObjectId":63}},{"type":"Feature","id":64,"geometry":null,"properties":{"LAD24CD":"E07000148","LAD24NM":"Norwich","LAD24NMW":null,"LAD25CD":"E07000148","LAD25NM":"Norwich","LAD25NMW":null,"ObjectId":64}},{"type":"Feature","id":65,"geometry":null,"properties":{"LAD24CD":"E07000149","LAD24NM":"South Norfolk","LAD24NMW":null,"LAD25CD":"E07000149","LAD25NM":"South Norfolk","LAD25NMW":null,"ObjectId":65}},{"type":"Feature","id":66,"geometry":null,"properties":{"LAD24CD":"E07000170","LAD24NM":"Ashfield","LAD24NMW":null,"LAD25CD":"E07000170","LAD25NM":"Ashfield","LAD25NMW":null,"ObjectId":66}},{"type":"Feature","id":67,"geometry":null,"properties":{"LAD24CD":"E07000171","LAD24NM":"Bassetlaw","LAD24NMW":null,"LAD25CD":"E07000171","LAD25NM":"Bassetlaw","LAD25NMW":null,"ObjectId":67}},{"type":"Feature","id":68,"geometry":null,"properties":{"LAD24CD":"E07000172","LAD24NM":"Broxtowe","LAD24NMW":null,"LAD25CD":"E07000172","LAD25NM":"Broxtowe","LAD25NMW":null,"ObjectId":68}},{"type":"Feature","id":69,"geometry":null,"properties":{"LAD24CD":"E07000173","LAD24NM":"Gedling","LAD24NMW":null,"LAD25CD":"E07000173","LAD25NM":"Gedling","LAD25NMW":null,"ObjectId":69}},{"type":"Feature","id":70,"geometry":null,"properties":{"LAD24CD":"E07000174","LAD24NM":"Mansfield","LAD24NMW":null,"LAD25CD":"E07000174","LAD25NM":"Mansfield","LAD25NMW":null,"ObjectId":70}},{"type":"Feature","id":71,"geometry":null,"properties":{"LAD24CD":"E07000175","LAD24NM":"Newark and Sherwood","LAD24NMW":null,"LAD25CD":"E07000175","LAD25NM":"Newark and Sherwood","LAD25NMW":null,"ObjectId":71}},{"type":"Feature","id":72,"geometry":null,"properties":{"LAD24CD":"E07000176","LAD24NM":"Rushcliffe","LAD24NMW":null,"LAD25CD":"E07000176","LAD25NM":"Rushcliffe","LAD25NMW":null,"ObjectId":72}},{"type":"Feature","id":73,"geometry":null,"properties":{"LAD24CD":"E07000177","LAD24NM":"Cherwell","LAD24NMW":null,"LAD25CD":"E07000177","LAD25NM":"Cherwell","LAD25NMW":null,"ObjectId":73}},{"type":"Feature","id":74,"geometry":null,"properties":{"LAD24CD":"E07000178","LAD24NM":"Oxford","LAD24NMW":null,"LAD25CD":"E07000178","LAD25NM":"Oxford","LAD25NMW":null,"ObjectId":74}},{"type":"Feature","id":75,"geometry":null,"properties":{"LAD24CD":"E07000179","LAD24NM":"South Oxfordshire","LAD24NMW":null,"LAD25CD":"E07000179","LAD25NM":"South Oxfordshire","LAD25NMW":null,"ObjectId":75}},{"type":"Feature","id":76,"geometry":null,"properties":{"LAD24CD":"E07000180","LAD24NM":"Vale of White Horse","LAD24NMW":null,"LAD25CD":"E07000180","LAD25NM":"Vale of White Horse","LAD25NMW":null,"ObjectId":76}},{"type":"Feature","id":77,"geometry":null,"properties":{"LAD24CD":"E07000181","LAD24NM":"West Oxfordshire","LAD24NMW":null,"LAD25CD":"E07000181","LAD25NM":"West Oxfordshire","LAD25NMW":null,"ObjectId":77}},{"type":"Feature","id":78,"geometry":null,"properties":{"LAD24CD":"E07000192","LAD24NM":"Cannock Chase","LAD24NMW":null,"LAD25CD":"E07000192","LAD25NM":"Cannock Chase","LAD25NMW":null,"ObjectId":78}},{"type":"Feature","id":79,"geometry":null,"properties":{"LAD24CD":"E07000193","LAD24NM":"East Staffordshire","LAD24NMW":null,"LAD25CD":"E07000193","LAD25NM":"East Staffordshire","LAD25NMW":null,"ObjectId":79}},{"type":"Feature","id":80,"geometry":null,"properties":{"LAD24CD":"E07000194","LAD24NM":"Lichfield","LAD24NMW":null,"LAD25CD":"E07000194","LAD25NM":"Lichfield","LAD25NMW":null,"ObjectId":80}},{"type":"Feature","id":81,"geometry":null,"properties":{"LAD24CD":"E07000195","LAD24NM":"Newcastle-under-Lyme","LAD24NMW":null,"LAD25CD":"E07000195","LAD25NM":"Newcastle-under-Lyme","LAD25NMW":null,"ObjectId":81}},{"type":"Feature","id":82,"geometry":null,"properties":{"LAD24CD":"E07000196","LAD24NM":"South Staffordshire","LAD24NMW":null,"LAD25CD":"E07000196","LAD25NM":"South Staffordshire","LAD25NMW":null,"ObjectId":82}},{"type":"Feature","id":83,"geometry":null,"properties":{"LAD24CD":"E07000197","LAD24NM":"Stafford","LAD24NMW":null,"LAD25CD":"E07000197","LAD25NM":"Stafford","LAD25NMW":null,"ObjectId":83}},{"type":"Feature","id":84,"geometry":null,"properties":{"LAD24CD":"E07000198","LAD24NM":"Staffordshire Moorlands","LAD24NMW":null,"LAD25CD":"E07000198","LAD25NM":"Staffordshire Moorlands","LAD25NMW":null,"ObjectId":84}},{"type":"Feature","id":85,"geometry":null,"properties":{"LAD24CD":"E07000199","LAD24NM":"Tamworth","LAD24NMW":null,"LAD25CD":"E07000199","LAD25NM":"Tamworth","LAD25NMW":null,"ObjectId":85}},{"type":"Feature","id":86,"geometry":null,"properties":{"LAD24CD":"E07000200","LAD24NM":"Babergh","LAD24NMW":null,"LAD25CD":"E07000200","LAD25NM":"Babergh","LAD25NMW":null,"ObjectId":86}},{"type":"Feature","id":87,"geometry":null,"properties":{"LAD24CD":"E07000202","LAD24NM":"Ipswich","LAD24NMW":null,"LAD25CD":"E07000202","LAD25NM":"Ipswich","LAD25NMW":null,"ObjectId":87}},{"type":"Feature","id":88,"geometry":null,"properties":{"LAD24CD":"E07000203","LAD24NM":"Mid Suffolk","LAD24NMW":null,"LAD25CD":"E07000203","LAD25NM":"Mid Suffolk","LAD25NMW":null,"ObjectId":88}},{"type":"Feature","id":89,"geometry":null,"properties":{"LAD24CD":"E07000207","LAD24NM":"Elmbridge","LAD24NMW":null,"LAD25CD":"E07000207","LAD25NM":"Elmbridge","LAD25NMW":null,"ObjectId":89}},{"type":"Feature","id":90,"geometry":null,"properties":{"LAD24CD":"E07000208","LAD24NM":"Epsom and Ewell","LAD24NMW":null,"LAD25CD":"E07000208","LAD25NM":"Epsom and Ewell","LAD25NMW":null,"ObjectId":90}},{"type":"Feature","id":91,"geometry":null,"properties":{"LAD24CD":"E07000209","LAD24NM":"Guildford","LAD24NMW":null,"LAD25CD":"E07000209","LAD25NM":"Guildford","LAD25NMW":null,"ObjectId":91}},{"type":"Feature","id":92,"geometry":null,"properties":{"LAD24CD":"E07000210","LAD24NM":"Mole Valley","LAD24NMW":null,"LAD25CD":"E07000210","LAD25NM":"Mole Valley","LAD25NMW":null,"ObjectId":92}},{"type":"Feature","id":93,"geometry":null,"properties":{"LAD24CD":"E07000211","LAD24NM":"Reigate and Banstead","LAD24NMW":null,"LAD25CD":"E07000211","LAD25NM":"Reigate and Banstead","LAD25NMW":null,"ObjectId":93}},{"type":"Feature","id":94,"geometry":null,"properties":{"LAD24CD":"E07000212","LAD24NM":"Runnymede","LAD24NMW":null,"LAD25CD":"E07000212","LAD25NM":"Runnymede","LAD25NMW":null,"ObjectId":94}},{"type":"Feature","id":95,"geometry":null,"properties":{"LAD24CD":"E07000213","LAD24NM":"Spelthorne","LAD24NMW":null,"LAD25CD":"E07000213","LAD25NM":"Spelthorne","LAD25NMW":null,"ObjectId":95}},{"type":"Feature","id":96,"geometry":null,"properties":{"LAD24CD":"E07000214","LAD24NM":"Surrey Heath","LAD24NMW":null,"LAD25CD":"E07000214","LAD25NM":"Surrey Heath","LAD25NMW":null,"ObjectId":96}},{"type":"Feature","id":97,"geometry":null,"properties":{"LAD24CD":"E07000215","LAD24NM":"Tandridge","LAD24NMW":null,"LAD25CD":"E07000215","LAD25NM":"Tandridge","LAD25NMW":null,"ObjectId":97}},{"type":"Feature","id":98,"geometry":null,"properties":{"LAD24CD":"E07000216","LAD24NM":"Waverley","LAD24NMW":null,"LAD25CD":"E07000216","LAD25NM":"Waverley","LAD25NMW":null,"ObjectId":98}},{"type":"Feature","id":99,"geometry":null,"properties":{"LAD24CD":"E07000217","LAD24NM":"Woking","LAD24NMW":null,"LAD25CD":"E07000217","LAD25NM":"Woking","LAD25NMW":null,"ObjectId":99}},{"type":"Feature","id":100,"geometry":null,"properties":{"LAD24CD":"E07000218","LAD24NM":"North Warwickshire","LAD24NMW":null,"LAD25CD":"E07000218","LAD25NM":"North Warwickshire","LAD25NMW":null,"ObjectId":100}},{"type":"Feature","id":101,"geometry":null,"properties":{"LAD24CD":"E07000219","LAD24NM":"Nuneaton and Bedworth","LAD24NMW":null,"LAD25CD":"E07000219","LAD25NM":"Nuneaton and Bedworth","LAD25NMW":null,"ObjectId":101}},{"type":"Feature","id":102,"geometry":null,"properties":{"LAD24CD":"E07000220","LAD24NM":"Rugby","LAD24NMW":null,"LAD25CD":"E07000220","LAD25NM":"Rugby","LAD25NMW":null,"ObjectId":102}},{"type":"Feature","id":103,"geometry":null,"properties":{"LAD24CD":"E07000221","LAD24NM":"Stratford-on-Avon","LAD24NMW":null,"LAD25CD":"E07000221","LAD25NM":"Stratford-on-Avon","LAD25NMW":null,"ObjectId":103}},{"type":"Feature","id":104,"geometry":null,"properties":{"LAD24CD":"E07000222","LAD24NM":"Warwick","LAD24NMW":null,"LAD25CD":"E07000222","LAD25NM":"Warwick","LAD25NMW":null,"ObjectId":104}},{"type":"Feature","id":105,"geometry":null,"properties":{"LAD24CD":"E08000035","LAD24NM":"Leeds","LAD24NMW":null,"LAD25CD":"E08000035","LAD25NM":"Leeds","LAD25NMW":null,"ObjectId":105}},{"type":"Feature","id":106,"geometry":null,"properties":{"LAD24CD":"E08000036","LAD24NM":"Wakefield","LAD24NMW":null,"LAD25CD":"E08000036","LAD25NM":"Wakefield","LAD25NMW":null,"ObjectId":106}},{"type":"Feature","id":107,"geometry":null,"properties":{"LAD24CD":"E08000037","LAD24NM":"Gateshead","LAD24NMW":null,"LAD25CD":"E08000037","LAD25NM":"Gateshead","LAD25NMW":null,"ObjectId":107}},{"type":"Feature","id":108,"geometry":null,"properties":{"LAD24CD":"E09000001","LAD24NM":"City of London","LAD24NMW":null,"LAD25CD":"E09000001","LAD25NM":"City of London","LAD25NMW":null,"ObjectId":108}},{"type":"Feature","id":109,"geometry":null,"properties":{"LAD24CD":"E09000002","LAD24NM":"Barking and Dagenham","LAD24NMW":null,"LAD25CD":"E09000002","LAD25NM":"Barking and Dagenham","LAD25NMW":null,"ObjectId":109}},{"type":"Feature","id":110,"geometry":null,"properties":{"LAD24CD":"E09000003","LAD24NM":"Barnet","LAD24NMW":null,"LAD25CD":"E09000003","LAD25NM":"Barnet","LAD25NMW":null,"ObjectId":110}},{"type":"Feature","id":111,"geometry":null,"properties":{"LAD24CD":"E09000004","LAD24NM":"Bexley","LAD24NMW":null,"LAD25CD":"E09000004","LAD25NM":"Bexley","LAD25NMW":null,"ObjectId":111}},{"type":"Feature","id":112,"geometry":null,"properties":{"LAD24CD":"E09000005","LAD24NM":"Brent","LAD24NMW":null,"LAD25CD":"E09000005","LAD25NM":"Brent","LAD25NMW":null,"ObjectId":112}},{"type":"Feature","id":113,"geometry":null,"properties":{"LAD24CD":"E09000006","LAD24NM":"Bromley","LAD24NMW":null,"LAD25CD":"E09000006","LAD25NM":"Bromley","LAD25NMW":null,"ObjectId":113}},{"type":"Feature","id":114,"geometry":null,"properties":{"LAD24CD":"E09000007","LAD24NM":"Camden","LAD24NMW":null,"LAD25CD":"E09000007","LAD25NM":"Camden","LAD25NMW":null,"ObjectId":114}},{"type":"Feature","id":115,"geometry":null,"properties":{"LAD24CD":"E09000008","LAD24NM":"Croydon","LAD24NMW":null,"LAD25CD":"E09000008","LAD25NM":"Croydon","LAD25NMW":null,"ObjectId":115}},{"type":"Feature","id":116,"geometry":null,"properties":{"LAD24CD":"E09000009","LAD24NM":"Ealing","LAD24NMW":null,"LAD25CD":"E09000009","LAD25NM":"Ealing","LAD25NMW":null,"ObjectId":116}},{"type":"Feature","id":117,"geometry":null,"properties":{"LAD24CD":"E09000010","LAD24NM":"Enfield","LAD24NMW":null,"LAD25CD":"E09000010","LAD25NM":"Enfield","LAD25NMW":null,"ObjectId":117}},{"type":"Feature","id":118,"geometry":null,"properties":{"LAD24CD":"E09000011","LAD24NM":"Greenwich","LAD24NMW":null,"LAD25CD":"E09000011","LAD25NM":"Greenwich","LAD25NMW":null,"ObjectId":118}},{"type":"Feature","id":119,"geometry":null,"properties":{"LAD24CD":"E09000012","LAD24NM":"Hackney","LAD24NMW":null,"LAD25CD":"E09000012","LAD25NM":"Hackney","LAD25NMW":null,"ObjectId":119}},{"type":"Feature","id":120,"geometry":null,"properties":{"LAD24CD":"E09000013","LAD24NM":"Hammersmith and Fulham","LAD24NMW":null,"LAD25CD":"E09000013","LAD25NM":"Hammersmith and Fulham","LAD25NMW":null,"ObjectId":120}},{"type":"Feature","id":121,"geometry":null,"properties":{"LAD24CD":"E09000014","LAD24NM":"Haringey","LAD24NMW":null,"LAD25CD":"E09000014","LAD25NM":"Haringey","LAD25NMW":null,"ObjectId":121}},{"type":"Feature","id":122,"geometry":null,"properties":{"LAD24CD":"E09000015","LAD24NM":"Harrow","LAD24NMW":null,"LAD25CD":"E09000015","LAD25NM":"Harrow","LAD25NMW":null,"ObjectId":122}},{"type":"Feature","id":123,"geometry":null,"properties":{"LAD24CD":"E09000016","LAD24NM":"Havering","LAD24NMW":null,"LAD25CD":"E09000016","LAD25NM":"Havering","LAD25NMW":null,"ObjectId":123}},{"type":"Feature","id":124,"geometry":null,"properties":{"LAD24CD":"E09000017","LAD24NM":"Hillingdon","LAD24NMW":null,"LAD25CD":"E09000017","LAD25NM":"Hillingdon","LAD25NMW":null,"ObjectId":124}},{"type":"Feature","id":125,"geometry":null,"properties":{"LAD24CD":"E09000018","LAD24NM":"Hounslow","LAD24NMW":null,"LAD25CD":"E09000018","LAD25NM":"Hounslow","LAD25NMW":null,"ObjectId":125}},{"type":"Feature","id":126,"geometry":null,"properties":{"LAD24CD":"E09000019","LAD24NM":"Islington","LAD24NMW":null,"LAD25CD":"E09000019","LAD25NM":"Islington","LAD25NMW":null,"ObjectId":126}},{"type":"Feature","id":127,"geometry":null,"properties":{"LAD24CD":"E09000020","LAD24NM":"Kensington and Chelsea","LAD24NMW":null,"LAD25CD":"E09000020","LAD25NM":"Kensington and Chelsea","LAD25NMW":null,"ObjectId":127}},{"type":"Feature","id":128,"geometry":null,"properties":{"LAD24CD":"E09000021","LAD24NM":"Kingston upon Thames","LAD24NMW":null,"LAD25CD":"E09000021","LAD25NM":"Kingston upon Thames","LAD25NMW":null,"ObjectId":128}},{"type":"Feature","id":129,"geometry":null,"properties":{"LAD24CD":"E09000022","LAD24NM":"Lambeth","LAD24NMW":null,"LAD25CD":"E09000022","LAD25NM":"Lambeth","LAD25NMW":null,"ObjectId":129}},{"type":"Feature","id":130,"geometry":null,"properties":{"LAD24CD":"E09000023","LAD24NM":"Lewisham","LAD24NMW":null,"LAD25CD":"E09000023","LAD25NM":"Lewisham","LAD25NMW":null,"ObjectId":130}},{"type":"Feature","id":131,"geometry":null,"properties":{"LAD24CD":"E09000024","LAD24NM":"Merton","LAD24NMW":null,"LAD25CD":"E09000024","LAD25NM":"Merton","LAD25NMW":null,"ObjectId":131}},{"type":"Feature","id":132,"geometry":null,"properties":{"LAD24CD":"E09000025","LAD24NM":"Newham","LAD24NMW":null,"LAD25CD":"E09000025","LAD25NM":"Newham","LAD25NMW":null,"ObjectId":132}},{"type":"Feature","id":133,"geometry":null,"properties":{"LAD24CD":"E09000026","LAD24NM":"Redbridge","LAD24NMW":null,"LAD25CD":"E09000026","LAD25NM":"Redbridge","LAD25NMW":null,"ObjectId":133}},{"type":"Feature","id":134,"geometry":null,"properties":{"LAD24CD":"E09000027","LAD24NM":"Richmond upon Thames","LAD24NMW":null,"LAD25CD":"E09000027","LAD25NM":"Richmond upon Thames","LAD25NMW":null,"ObjectId":134}},{"type":"Feature","id":135,"geometry":null,"properties":{"LAD24CD":"E09000028","LAD24NM":"Southwark","LAD24NMW":null,"LAD25CD":"E09000028","LAD25NM":"Southwark","LAD25NMW":null,"ObjectId":135}},{"type":"Feature","id":136,"geometry":null,"properties":{"LAD24CD":"E09000029","LAD24NM":"Sutton","LAD24NMW":null,"LAD25CD":"E09000029","LAD25NM":"Sutton","LAD25NMW":null,"ObjectId":136}},{"type":"Feature","id":137,"geometry":null,"properties":{"LAD24CD":"E09000030","LAD24NM":"Tower Hamlets","LAD24NMW":null,"LAD25CD":"E09000030","LAD25NM":"Tower Hamlets","LAD25NMW":null,"ObjectId":137}},{"type":"Feature","id":138,"geometry":null,"properties":{"LAD24CD":"E09000031","LAD24NM":"Waltham Forest","LAD24NMW":null,"LAD25CD":"E09000031","LAD25NM":"Waltham Forest","LAD25NMW":null,"ObjectId":138}},{"type":"Feature","id":139,"geometry":null,"properties":{"LAD24CD":"E09000032","LAD24NM":"Wandsworth","LAD24NMW":null,"LAD25CD":"E09000032","LAD25NM":"Wandsworth","LAD25NMW":null,"ObjectId":139}},{"type":"Feature","id":140,"geometry":null,"properties":{"LAD24CD":"E09000033","LAD24NM":"Westminster","LAD24NMW":null,"LAD25CD":"E09000033","LAD25NM":"Westminster","LAD25NMW":null,"ObjectId":140}},{"type":"Feature","id":141,"geometry":null,"properties":{"LAD24CD":"N09000001","LAD24NM":"Antrim and Newtownabbey","LAD24NMW":null,"LAD25CD":"N09000001","LAD25NM":"Antrim and Newtownabbey","LAD25NMW":null,"ObjectId":141}},{"type":"Feature","id":142,"geometry":null,"properties":{"LAD24CD":"N09000002","LAD24NM":"Armagh City, Banbridge and Craigavon","LAD24NMW":null,"LAD25CD":"N09000002","LAD25NM":"Armagh City, Banbridge and Craigavon","LAD25NMW":null,"ObjectId":142}},{"type":"Feature","id":143,"geometry":null,"properties":{"LAD24CD":"N09000003","LAD24NM":"Belfast","LAD24NMW":null,"LAD25CD":"N09000003","LAD25NM":"Belfast","LAD25NMW":null,"ObjectId":143}},{"type":"Feature","id":144,"geometry":null,"properties":{"LAD24CD":"N09000004","LAD24NM":"Causeway Coast and Glens","LAD24NMW":null,"LAD25CD":"N09000004","LAD25NM":"Causeway Coast and Glens","LAD25NMW":null,"ObjectId":144}},{"type":"Feature","id":145,"geometry":null,"properties":{"LAD24CD":"N09000005","LAD24NM":"Derry City and Strabane","LAD24NMW":null,"LAD25CD":"N09000005","LAD25NM":"Derry City and Strabane","LAD25NMW":null,"ObjectId":145}},{"type":"Feature","id":146,"geometry":null,"properties":{"LAD24CD":"N09000006","LAD24NM":"Fermanagh and Omagh","LAD24NMW":null,"LAD25CD":"N09000006","LAD25NM":"Fermanagh and Omagh","LAD25NMW":null,"ObjectId":146}},{"type":"Feature","id":147,"geometry":null,"properties":{"LAD24CD":"N09000007","LAD24NM":"Lisburn and Castlereagh","LAD24NMW":null,"LAD25CD":"N09000007","LAD25NM":"Lisburn and Castlereagh","LAD25NMW":null,"ObjectId":147}},{"type":"Feature","id":148,"geometry":null,"properties":{"LAD24CD":"N09000008","LAD24NM":"Mid and East Antrim","LAD24NMW":null,"LAD25CD":"N09000008","LAD25NM":"Mid and East Antrim","LAD25NMW":null,"ObjectId":148}},{"type":"Feature","id":149,"geometry":null,"properties":{"LAD24CD":"N09000009","LAD24NM":"Mid Ulster","LAD24NMW":null,"LAD25CD":"N09000009","LAD25NM":"Mid Ulster","LAD25NMW":null,"ObjectId":149}},{"type":"Feature","id":150,"geometry":null,"properties":{"LAD24CD":"N09000010","LAD24NM":"Newry, Mourne and Down","LAD24NMW":null,"LAD25CD":"N09000010","LAD25NM":"Newry, Mourne and Down","LAD25NMW":null,"ObjectId":150}},{"type":"Feature","id":151,"geometry":null,"properties":{"LAD24CD":"N09000011","LAD24NM":"Ards and North Down","LAD24NMW":null,"LAD25CD":"N09000011","LAD25NM":"Ards and North Down","LAD25NMW":null,"ObjectId":151}},{"type":"Feature","id":152,"geometry":null,"properties":{"LAD24CD":"S12000005","LAD24NM":"Clackmannanshire","LAD24NMW":null,"LAD25CD":"S12000005","LAD25NM":"Clackmannanshire","LAD25NMW":null,"ObjectId":152}},{"type":"Feature","id":153,"geometry":null,"properties":{"LAD24CD":"S12000006","LAD24NM":"Dumfries and Galloway","LAD24NMW":null,"LAD25CD":"S12000006","LAD25NM":"Dumfries and Galloway","LAD25NMW":null,"ObjectId":153}},{"type":"Feature","id":154,"geometry":null,"properties":{"LAD24CD":"S12000008","LAD24NM":"East Ayrshire","LAD24NMW":null,"LAD25CD":"S12000008","LAD25NM":"East Ayrshire","LAD25NMW":null,"ObjectId":154}},{"type":"Feature","id":155,"geometry":null,"properties":{"LAD24CD":"S12000010","LAD24NM":"East Lothian","LAD24NMW":null,"LAD25CD":"S12000010","LAD25NM":"East Lothian","LAD25NMW":null,"ObjectId":155}},{"type":"Feature","id":156,"geometry":null,"properties":{"LAD24CD":"S12000011","LAD24NM":"East Renfrewshire","LAD24NMW":null,"LAD25CD":"S12000011","LAD25NM":"East Renfrewshire","LAD25NMW":null,"ObjectId":156}},{"type":"Feature","id":157,"geometry":null,"properties":{"LAD24CD":"E07000223","LAD24NM":"Adur","LAD24NMW":null,"LAD25CD":"E07000223","LAD25NM":"Adur","LAD25NMW":null,"ObjectId":157}},{"type":"Feature","id":158,"geometry":null,"properties":{"LAD24CD":"E07000224","LAD24NM":"Arun","LAD24NMW":null,"LAD25CD":"E07000224","LAD25NM":"Arun","LAD25NMW":null,"ObjectId":158}},{"type":"Feature","id":159,"geometry":null,"properties":{"LAD24CD":"E07000225","LAD24NM":"Chichester","LAD24NMW":null,"LAD25CD":"E07000225","LAD25NM":"Chichester","LAD25NMW":null,"ObjectId":159}},{"type":"Feature","id":160,"geometry":null,"properties":{"LAD24CD":"E07000226","LAD24NM":"Crawley","LAD24NMW":null,"LAD25CD":"E07000226","LAD25NM":"Crawley","LAD25NMW":null,"ObjectId":160}},{"type":"Feature","id":161,"geometry":null,"properties":{"LAD24CD":"E07000227","LAD24NM":"Horsham","LAD24NMW":null,"LAD25CD":"E07000227","LAD25NM":"Horsham","LAD25NMW":null,"ObjectId":161}},{"type":"Feature","id":162,"geometry":null,"properties":{"LAD24CD":"E07000228","LAD24NM":"Mid Sussex","LAD24NMW":null,"LAD25CD":"E07000228","LAD25NM":"Mid Sussex","LAD25NMW":null,"ObjectId":162}},{"type":"Feature","id":163,"geometry":null,"properties":{"LAD24CD":"E07000229","LAD24NM":"Worthing","LAD24NMW":null,"LAD25CD":"E07000229","LAD25NM":"Worthing","LAD25NMW":null,"ObjectId":163}},{"type":"Feature","id":164,"geometry":null,"properties":{"LAD24CD":"E07000234","LAD24NM":"Bromsgrove","LAD24NMW":null,"LAD25CD":"E07000234","LAD25NM":"Bromsgrove","LAD25NMW":null,"ObjectId":164}},{"type":"Feature","id":165,"geometry":null,"properties":{"LAD24CD":"E07000235","LAD24NM":"Malvern Hills","LAD24NMW":null,"LAD25CD":"E07000235","LAD25NM":"Malvern Hills","LAD25NMW":null,"ObjectId":165}},{"type":"Feature","id":166,"geometry":null,"properties":{"LAD24CD":"E07000236","LAD24NM":"Redditch","LAD24NMW":null,"LAD25CD":"E07000236","LAD25NM":"Redditch","LAD25NMW":null,"ObjectId":166}},{"type":"Feature","id":167,"geometry":null,"properties":{"LAD24CD":"E07000237","LAD24NM":"Worcester","LAD24NMW":null,"LAD25CD":"E07000237","LAD25NM":"Worcester","LAD25NMW":null,"ObjectId":167}},{"type":"Feature","id":168,"geometry":null,"properties":{"LAD24CD":"E07000238","LAD24NM":"Wychavon","LAD24NMW":null,"LAD25CD":"E07000238","LAD25NM":"Wychavon","LAD25NMW":null,"ObjectId":168}},{"type":"Feature","id":169,"geometry":null,"properties":{"LAD24CD":"E07000239","LAD24NM":"Wyre Forest","LAD24NMW":null,"LAD25CD":"E07000239","LAD25NM":"Wyre Forest","LAD25NMW":null,"ObjectId":169}},{"type":"Feature","id":170,"geometry":null,"properties":{"LAD24CD":"E07000240","LAD24NM":"St Albans","LAD24NMW":null,"LAD25CD":"E07000240","LAD25NM":"St Albans","LAD25NMW":null,"ObjectId":170}},{"type":"Feature","id":171,"geometry":null,"properties":{"LAD24CD":"E07000241","LAD24NM":"Welwyn Hatfield","LAD24NMW":null,"LAD25CD":"E07000241","LAD25NM":"Welwyn Hatfield","LAD25NMW":null,"ObjectId":171}},{"type":"Feature","id":172,"geometry":null,"properties":{"LAD24CD":"E07000242","LAD24NM":"East Hertfordshire","LAD24NMW":null,"LAD25CD":"E07000242","LAD25NM":"East Hertfordshire","LAD25NMW":null,"ObjectId":172}},{"type":"Feature","id":173,"geometry":null,"properties":{"LAD24CD":"E07000243","LAD24NM":"Stevenage","LAD24NMW":null,"LAD25CD":"E07000243","LAD25NM":"Stevenage","LAD25NMW":null,"ObjectId":173}},{"type":"Feature","id":174,"geometry":null,"properties":{"LAD24CD":"E07000244","LAD24NM":"East Suffolk","LAD24NMW":null,"LAD25CD":"E07000244","LAD25NM":"East Suffolk","LAD25NMW":null,"ObjectId":174}},{"type":"Feature","id":175,"geometry":null,"properties":{"LAD24CD":"E07000245","LAD24NM":"West Suffolk","LAD24NMW":null,"LAD25CD":"E07000245","LAD25NM":"West Suffolk","LAD25NMW":null,"ObjectId":175}},{"type":"Feature","id":176,"geometry":null,"properties":{"LAD24CD":"E08000001","LAD24NM":"Bolton","LAD24NMW":null,"LAD25CD":"E08000001","LAD25NM":"Bolton","LAD25NMW":null,"ObjectId":176}},{"type":"Feature","id":177,"geometry":null,"properties":{"LAD24CD":"E08000002","LAD24NM":"Bury","LAD24NMW":null,"LAD25CD":"E08000002","LAD25NM":"Bury","LAD25NMW":null,"ObjectId":177}},{"type":"Feature","id":178,"geometry":null,"properties":{"LAD24CD":"E08000003","LAD24NM":"Manchester","LAD24NMW":null,"LAD25CD":"E08000003","LAD25NM":"Manchester","LAD25NMW":null,"ObjectId":178}},{"type":"Feature","id":179,"geometry":null,"properties":{"LAD24CD":"E08000004","LAD24NM":"Oldham","LAD24NMW":null,"LAD25CD":"E08000004","LAD25NM":"Oldham","LAD25NMW":null,"ObjectId":179}},{"type":"Feature","id":180,"geometry":null,"properties":{"LAD24CD":"E08000005","LAD24NM":"Rochdale","LAD24NMW":null,"LAD25CD":"E08000005","LAD25NM":"Rochdale","LAD25NMW":null,"ObjectId":180}},{"type":"Feature","id":181,"geometry":null,"properties":{"LAD24CD":"E08000006","LAD24NM":"Salford","LAD24NMW":null,"LAD25CD":"E08000006","LAD25NM":"Salford","LAD25NMW":null,"ObjectId":181}},{"type":"Feature","id":182,"geometry":null,"properties":{"LAD24CD":"E08000007","LAD24NM":"Stockport","LAD24NMW":null,"LAD25CD":"E08000007","LAD25NM":"Stockport","LAD25NMW":null,"ObjectId":182}},{"type":"Feature","id":183,"geometry":null,"properties":{"LAD24CD":"E08000008","LAD24NM":"Tameside","LAD24NMW":null,"LAD25CD":"E08000008","LAD25NM":"Tameside","LAD25NMW":null,"ObjectId":183}},{"type":"Feature","id":184,"geometry":null,"properties":{"LAD24CD":"E08000009","LAD24NM":"Trafford","LAD24NMW":null,"LAD25CD":"E08000009","LAD25NM":"Trafford","LAD25NMW":null,"ObjectId":184}},{"type":"Feature","id":185,"geometry":null,"properties":{"LAD24CD":"E08000010","LAD24NM":"Wigan","LAD24NMW":null,"LAD25CD":"E08000010","LAD25NM":"Wigan","LAD25NMW":null,"ObjectId":185}},{"type":"Feature","id":186,"geometry":null,"properties":{"LAD24CD":"E08000011","LAD24NM":"Knowsley","LAD24NMW":null,"LAD25CD":"E08000011","LAD25NM":"Knowsley","LAD25NMW":null,"ObjectId":186}},{"type":"Feature","id":187,"geometry":null,"properties":{"LAD24CD":"E08000012","LAD24NM":"Liverpool","LAD24NMW":null,"LAD25CD":"E08000012","LAD25NM":"Liverpool","LAD25NMW":null,"ObjectId":187}},{"type":"Feature","id":188,"geometry":null,"properties":{"LAD24CD":"E08000013","LAD24NM":"St. Helens","LAD24NMW":null,"LAD25CD":"E08000013","LAD25NM":"St. Helens","LAD25NMW":null,"ObjectId":188}},{"type":"Feature","id":189,"geometry":null,"properties":{"LAD24CD":"E08000014","LAD24NM":"Sefton","LAD24NMW":null,"LAD25CD":"E08000014","LAD25NM":"Sefton","LAD25NMW":null,"ObjectId":189}},{"type":"Feature","id":190,"geometry":null,"properties":{"LAD24CD":"E08000015","LAD24NM":"Wirral","LAD24NMW":null,"LAD25CD":"E08000015","LAD25NM":"Wirral","LAD25NMW":null,"ObjectId":190}},{"type":"Feature","id":191,"geometry":null,"properties":{"LAD24CD":"E08000016","LAD24NM":"Barnsley","LAD24NMW":null,"LAD25CD":"E08000038","LAD25NM":"Barnsley","LAD25NMW":null,"ObjectId":191}},{"type":"Feature","id":192,"geometry":null,"properties":{"LAD24CD":"E08000017","LAD24NM":"Doncaster","LAD24NMW":null,"LAD25CD":"E08000017","LAD25NM":"Doncaster","LAD25NMW":null,"ObjectId":192}},{"type":"Feature","id":193,"geometry":null,"properties":{"LAD24CD":"E08000018","LAD24NM":"Rotherham","LAD24NMW":null,"LAD25CD":"E08000018","LAD25NM":"Rotherham","LAD25NMW":null,"ObjectId":193}},{"type":"Feature","id":194,"geometry":null,"properties":{"LAD24CD":"E08000019","LAD24NM":"Sheffield","LAD24NMW":null,"LAD25CD":"E08000039","LAD25NM":"Sheffield","LAD25NMW":null,"ObjectId":194}},{"type":"Feature","id":195,"geometry":null,"properties":{"LAD24CD":"E08000021","LAD24NM":"Newcastle upon Tyne","LAD24NMW":null,"LAD25CD":"E08000021","LAD25NM":"Newcastle upon Tyne","LAD25NMW":null,"ObjectId":195}},{"type":"Feature","id":196,"geometry":null,"properties":{"LAD24CD":"E08000022","LAD24NM":"North Tyneside","LAD24NMW":null,"LAD25CD":"E08000022","LAD25NM":"North Tyneside","LAD25NMW":null,"ObjectId":196}},{"type":"Feature","id":197,"geometry":null,"properties":{"LAD24CD":"E08000023","LAD24NM":"South Tyneside","LAD24NMW":null,"LAD25CD":"E08000023","LAD25NM":"South Tyneside","LAD25NMW":null,"ObjectId":197}},{"type":"Feature","id":198,"geometry":null,"properties":{"LAD24CD":"E08000024","LAD24NM":"Sunderland","LAD24NMW":null,"LAD25CD":"E08000024","LAD25NM":"Sunderland","LAD25NMW":null,"ObjectId":198}},{"type":"Feature","id":199,"geometry":null,"properties":{"LAD24CD":"E08000025","LAD24NM":"Birmingham","LAD24NMW":null,"LAD25CD":"E08000025","LAD25NM":"Birmingham","LAD25NMW":null,"ObjectId":199}},{"type":"Feature","id":200,"geometry":null,"properties":{"LAD24CD":"E08000026","LAD24NM":"Coventry","LAD24NMW":null,"LAD25CD":"E08000026","LAD25NM":"Coventry","LAD25NMW":null,"ObjectId":200}},{"type":"Feature","id":201,"geometry":null,"properties":{"LAD24CD":"E08000027","LAD24NM":"Dudley","LAD24NMW":null,"LAD25CD":"E08000027","LAD25NM":"Dudley","LAD25NMW":null,"ObjectId":201}},{"type":"Feature","id":202,"geometry":null,"properties":{"LAD24CD":"E08000028","LAD24NM":"Sandwell","LAD24NMW":null,"LAD25CD":"E08000028","LAD25NM":"Sandwell","LAD25NMW":null,"ObjectId":202}},{"type":"Feature","id":203,"geometry":null,"properties":{"LAD24CD":"E08000029","LAD24NM":"Solihull","LAD24NMW":null,"LAD25CD":"E08000029","LAD25NM":"Solihull","LAD25NMW":null,"ObjectId":203}},{"type":"Feature","id":204,"geometry":null,"properties":{"LAD24CD":"E08000030","LAD24NM":"Walsall","LAD24NMW":null,"LAD25CD":"E08000030","LAD25NM":"Walsall","LAD25NMW":null,"ObjectId":204}},{"type":"Feature","id":205,"geometry":null,"properties":{"LAD24CD":"E08000031","LAD24NM":"Wolverhampton","LAD24NMW":null,"LAD25CD":"E08000031","LAD25NM":"Wolverhampton","LAD25NMW":null,"ObjectId":205}},{"type":"Feature","id":206,"geometry":null,"properties":{"LAD24CD":"E08000032","LAD24NM":"Bradford","LAD24NMW":null,"LAD25CD":"E08000032","LAD25NM":"Bradford","LAD25NMW":null,"ObjectId":206}},{"type":"Feature","id":207,"geometry":null,"properties":{"LAD24CD":"E08000033","LAD24NM":"Calderdale","LAD24NMW":null,"LAD25CD":"E08000033","LAD25NM":"Calderdale","LAD25NMW":null,"ObjectId":207}},{"type":"Feature","id":208,"geometry":null,"properties":{"LAD24CD":"E08000034","LAD24NM":"Kirklees","LAD24NMW":null,"LAD25CD":"E08000034","LAD25NM":"Kirklees","LAD25NMW":null,"ObjectId":208}},{"type":"Feature","id":209,"geometry":null,"properties":{"LAD24CD":"E06000056","LAD24NM":"Central Bedfordshire","LAD24NMW":null,"LAD25CD":"E06000056","LAD25NM":"Central Bedfordshire","LAD25NMW":null,"ObjectId":209}},{"type":"Feature","id":210,"geometry":null,"properties":{"LAD24CD":"E06000057","LAD24NM":"Northumberland","LAD24NMW":null,"LAD25CD":"E06000057","LAD25NM":"Northumberland","LAD25NMW":null,"ObjectId":210}},{"type":"Feature","id":211,"geometry":null,"properties":{"LAD24CD":"E06000058","LAD24NM":"Bournemouth, Christchurch and Poole","LAD24NMW":null,"LAD25CD":"E06000058","LAD25NM":"Bournemouth, Christchurch and Poole","LAD25NMW":null,"ObjectId":211}},{"type":"Feature","id":212,"geometry":null,"properties":{"LAD24CD":"E06000059","LAD24NM":"Dorset","LAD24NMW":null,"LAD25CD":"E06000059","LAD25NM":"Dorset","LAD25NMW":null,"ObjectId":212}},{"type":"Feature","id":213,"geometry":null,"properties":{"LAD24CD":"E06000060","LAD24NM":"Buckinghamshire","LAD24NMW":null,"LAD25CD":"E06000060","LAD25NM":"Buckinghamshire","LAD25NMW":null,"ObjectId":213}},{"type":"Feature","id":214,"geometry":null,"properties":{"LAD24CD":"E06000061","LAD24NM":"North Northamptonshire","LAD24NMW":null,"LAD25CD":"E06000061","LAD25NM":"North Northamptonshire","LAD25NMW":null,"ObjectId":214}},{"type":"Feature","id":215,"geometry":null,"properties":{"LAD24CD":"E06000062","LAD24NM":"West Northamptonshire","LAD24NMW":null,"LAD25CD":"E06000062","LAD25NM":"West Northamptonshire","LAD25NMW":null,"ObjectId":215}},{"type":"Feature","id":216,"geometry":null,"properties":{"LAD24CD":"E06000063","LAD24NM":"Cumberland","LAD24NMW":null,"LAD25CD":"E06000063","LAD25NM":"Cumberland","LAD25NMW":null,"ObjectId":216}},{"type":"Feature","id":217,"geometry":null,"properties":{"LAD24CD":"E06000064","LAD24NM":"Westmorland and Furness","LAD24NMW":null,"LAD25CD":"E06000064","LAD25NM":"Westmorland and Furness","LAD25NMW":null,"ObjectId":217}},{"type":"Feature","id":218,"geometry":null,"properties":{"LAD24CD":"E06000065","LAD24NM":"North Yorkshire","LAD24NMW":null,"LAD25CD":"E06000065","LAD25NM":"North Yorkshire","LAD25NMW":null,"ObjectId":218}},{"type":"Feature","id":219,"geometry":null,"properties":{"LAD24CD":"E06000066","LAD24NM":"Somerset","LAD24NMW":null,"LAD25CD":"E06000066","LAD25NM":"Somerset","LAD25NMW":null,"ObjectId":219}},{"type":"Feature","id":220,"geometry":null,"properties":{"LAD24CD":"E07000008","LAD24NM":"Cambridge","LAD24NMW":null,"LAD25CD":"E07000008","LAD25NM":"Cambridge","LAD25NMW":null,"ObjectId":220}},{"type":"Feature","id":221,"geometry":null,"properties":{"LAD24CD":"E07000009","LAD24NM":"East Cambridgeshire","LAD24NMW":null,"LAD25CD":"E07000009","LAD25NM":"East Cambridgeshire","LAD25NMW":null,"ObjectId":221}},{"type":"Feature","id":222,"geometry":null,"properties":{"LAD24CD":"E07000010","LAD24NM":"Fenland","LAD24NMW":null,"LAD25CD":"E07000010","LAD25NM":"Fenland","LAD25NMW":null,"ObjectId":222}},{"type":"Feature","id":223,"geometry":null,"properties":{"LAD24CD":"E07000011","LAD24NM":"Huntingdonshire","LAD24NMW":null,"LAD25CD":"E07000011","LAD25NM":"Huntingdonshire","LAD25NMW":null,"ObjectId":223}},{"type":"Feature","id":224,"geometry":null,"properties":{"LAD24CD":"E07000012","LAD24NM":"South Cambridgeshire","LAD24NMW":null,"LAD25CD":"E07000012","LAD25NM":"South Cambridgeshire","LAD25NMW":null,"ObjectId":224}},{"type":"Feature","id":225,"geometry":null,"properties":{"LAD24CD":"E07000032","LAD24NM":"Amber Valley","LAD24NMW":null,"LAD25CD":"E07000032","LAD25NM":"Amber Valley","LAD25NMW":null,"ObjectId":225}},{"type":"Feature","id":226,"geometry":null,"properties":{"LAD24CD":"E07000033","LAD24NM":"Bolsover","LAD24NMW":null,"LAD25CD":"E07000033","LAD25NM":"Bolsover","LAD25NMW":null,"ObjectId":226}},{"type":"Feature","id":227,"geometry":null,"properties":{"LAD24CD":"E07000034","LAD24NM":"Chesterfield","LAD24NMW":null,"LAD25CD":"E07000034","LAD25NM":"Chesterfield","LAD25NMW":null,"ObjectId":227}},{"type":"Feature","id":228,"geometry":null,"properties":{"LAD24CD":"E07000035","LAD24NM":"Derbyshire Dales","LAD24NMW":null,"LAD25CD":"E07000035","LAD25NM":"Derbyshire Dales","LAD25NMW":null,"ObjectId":228}},{"type":"Feature","id":229,"geometry":null,"properties":{"LAD24CD":"E07000036","LAD24NM":"Erewash","LAD24NMW":null,"LAD25CD":"E07000036","LAD25NM":"Erewash","LAD25NMW":null,"ObjectId":229}},{"type":"Feature","id":230,"geometry":null,"properties":{"LAD24CD":"E07000037","LAD24NM":"High Peak","LAD24NMW":null,"LAD25CD":"E07000037","LAD25NM":"High Peak","LAD25NMW":null,"ObjectId":230}},{"type":"Feature","id":231,"geometry":null,"properties":{"LAD24CD":"E07000038","LAD24NM":"North East Derbyshire","LAD24NMW":null,"LAD25CD":"E07000038","LAD25NM":"North East Derbyshire","LAD25NMW":null,"ObjectId":231}},{"type":"Feature","id":232,"geometry":null,"properties":{"LAD24CD":"E07000039","LAD24NM":"South Derbyshire","LAD24NMW":null,"LAD25CD":"E07000039","LAD25NM":"South Derbyshire","LAD25NMW":null,"ObjectId":232}},{"type":"Feature","id":233,"geometry":null,"properties":{"LAD24CD":"E07000040","LAD24NM":"East Devon","LAD24NMW":null,"LAD25CD":"E07000040","LAD25NM":"East Devon","LAD25NMW":null,"ObjectId":233}},{"type":"Feature","id":234,"geometry":null,"properties":{"LAD24CD":"E07000041","LAD24NM":"Exeter","LAD24NMW":null,"LAD25CD":"E07000041","LAD25NM":"Exeter","LAD25NMW":null,"ObjectId":234}},{"type":"Feature","id":235,"geometry":null,"properties":{"LAD24CD":"E07000042","LAD24NM":"Mid Devon","LAD24NMW":null,"LAD25CD":"E07000042","LAD25NM":"Mid Devon","LAD25NMW":null,"ObjectId":235}},{"type":"Feature","id":236,"geometry":null,"properties":{"LAD24CD":"E07000043","LAD24NM":"North Devon","LAD24NMW":null,"LAD25CD":"E07000043","LAD25NM":"North Devon","LAD25NMW":null,"ObjectId":236}},{"type":"Feature","id":237,"geometry":null,"properties":{"LAD24CD":"E07000044","LAD24NM":"South Hams","LAD24NMW":null,"LAD25CD":"E07000044","LAD25NM":"South Hams","LAD25NMW":null,"ObjectId":237}},{"type":"Feature","id":238,"geometry":null,"properties":{"LAD24CD":"E07000045","LAD24NM":"Teignbridge","LAD24NMW":null,"LAD25CD":"E07000045","LAD25NM":"Teignbridge","LAD25NMW":null,"ObjectId":238}},{"type":"Feature","id":239,"geometry":null,"properties":{"LAD24CD":"E07000046","LAD24NM":"Torridge","LAD24NMW":null,"LAD25CD":"E07000046","LAD25NM":"Torridge","LAD25NMW":null,"ObjectId":239}},{"type":"Feature","id":240,"geometry":null,"properties":{"LAD24CD":"E07000047","LAD24NM":"West Devon","LAD24NMW":null,"LAD25CD":"E07000047","LAD25NM":"West Devon","LAD25NMW":null,"ObjectId":240}},{"type":"Feature","id":241,"geometry":null,"properties":{"LAD24CD":"E07000061","LAD24NM":"Eastbourne","LAD24NMW":null,"LAD25CD":"E07000061","LAD25NM":"Eastbourne","LAD25NMW":null,"ObjectId":241}},{"type":"Feature","id":242,"geometry":null,"properties":{"LAD24CD":"E07000062","LAD24NM":"Hastings","LAD24NMW":null,"LAD25CD":"E07000062","LAD25NM":"Hastings","LAD25NMW":null,"ObjectId":242}},{"type":"Feature","id":243,"geometry":null,"properties":{"LAD24CD":"E07000063","LAD24NM":"Lewes","LAD24NMW":null,"LAD25CD":"E07000063","LAD25NM":"Lewes","LAD25NMW":null,"ObjectId":243}},{"type":"Feature","id":244,"geometry":null,"properties":{"LAD24CD":"E07000064","LAD24NM":"Rother","LAD24NMW":null,"LAD25CD":"E07000064","LAD25NM":"Rother","LAD25NMW":null,"ObjectId":244}},{"type":"Feature","id":245,"geometry":null,"properties":{"LAD24CD":"E07000065","LAD24NM":"Wealden","LAD24NMW":null,"LAD25CD":"E07000065","LAD25NM":"Wealden","LAD25NMW":null,"ObjectId":245}},{"type":"Feature","id":246,"geometry":null,"properties":{"LAD24CD":"E07000066","LAD24NM":"Basildon","LAD24NMW":null,"LAD25CD":"E07000066","LAD25NM":"Basildon","LAD25NMW":null,"ObjectId":246}},{"type":"Feature","id":247,"geometry":null,"properties":{"LAD24CD":"E07000067","LAD24NM":"Braintree","LAD24NMW":null,"LAD25CD":"E07000067","LAD25NM":"Braintree","LAD25NMW":null,"ObjectId":247}},{"type":"Feature","id":248,"geometry":null,"properties":{"LAD24CD":"E07000068","LAD24NM":"Brentwood","LAD24NMW":null,"LAD25CD":"E07000068","LAD25NM":"Brentwood","LAD25NMW":null,"ObjectId":248}},{"type":"Feature","id":249,"geometry":null,"properties":{"LAD24CD":"E07000069","LAD24NM":"Castle Point","LAD24NMW":null,"LAD25CD":"E07000069","LAD25NM":"Castle Point","LAD25NMW":null,"ObjectId":249}},{"type":"Feature","id":250,"geometry":null,"properties":{"LAD24CD":"E07000070","LAD24NM":"Chelmsford","LAD24NMW":null,"LAD25CD":"E07000070","LAD25NM":"Chelmsford","LAD25NMW":null,"ObjectId":250}},{"type":"Feature","id":251,"geometry":null,"properties":{"LAD24CD":"E07000071","LAD24NM":"Colchester","LAD24NMW":null,"LAD25CD":"E07000071","LAD25NM":"Colchester","LAD25NMW":null,"ObjectId":251}},{"type":"Feature","id":252,"geometry":null,"properties":{"LAD24CD":"E07000072","LAD24NM":"Epping Forest","LAD24NMW":null,"LAD25CD":"E07000072","LAD25NM":"Epping Forest","LAD25NMW":null,"ObjectId":252}},{"type":"Feature","id":253,"geometry":null,"properties":{"LAD24CD":"E07000073","LAD24NM":"Harlow","LAD24NMW":null,"LAD25CD":"E07000073","LAD25NM":"Harlow","LAD25NMW":null,"ObjectId":253}},{"type":"Feature","id":254,"geometry":null,"properties":{"LAD24CD":"E07000074","LAD24NM":"Maldon","LAD24NMW":null,"LAD25CD":"E07000074","LAD25NM":"Maldon","LAD25NMW":null,"ObjectId":254}},{"type":"Feature","id":255,"geometry":null,"properties":{"LAD24CD":"E07000075","LAD24NM":"Rochford","LAD24NMW":null,"LAD25CD":"E07000075","LAD25NM":"Rochford","LAD25NMW":null,"ObjectId":255}},{"type":"Feature","id":256,"geometry":null,"properties":{"LAD24CD":"E07000076","LAD24NM":"Tendring","LAD24NMW":null,"LAD25CD":"E07000076","LAD25NM":"Tendring","LAD25NMW":null,"ObjectId":256}},{"type":"Feature","id":257,"geometry":null,"properties":{"LAD24CD":"E07000077","LAD24NM":"Uttlesford","LAD24NMW":null,"LAD25CD":"E07000077","LAD25NM":"Uttlesford","LAD25NMW":null,"ObjectId":257}},{"type":"Feature","id":258,"geometry":null,"properties":{"LAD24CD":"E07000078","LAD24NM":"Cheltenham","LAD24NMW":null,"LAD25CD":"E07000078","LAD25NM":"Cheltenham","LAD25NMW":null,"ObjectId":258}},{"type":"Feature","id":259,"geometry":null,"properties":{"LAD24CD":"E07000079","LAD24NM":"Cotswold","LAD24NMW":null,"LAD25CD":"E07000079","LAD25NM":"Cotswold","LAD25NMW":null,"ObjectId":259}},{"type":"Feature","id":260,"geometry":null,"properties":{"LAD24CD":"E07000080","LAD24NM":"Forest of Dean","LAD24NMW":null,"LAD25CD":"E07000080","LAD25NM":"Forest of Dean","LAD25NMW":null,"ObjectId":260}},{"type":"Feature","id":261,"geometry":null,"properties":{"LAD24CD":"E07000081","LAD24NM":"Gloucester","LAD24NMW":null,"LAD25CD":"E07000081","LAD25NM":"Gloucester","LAD25NMW":null,"ObjectId":261}},{"type":"Feature","id":262,"geometry":null,"properties":{"LAD24CD":"E07000082","LAD24NM":"Stroud","LAD24NMW":null,"LAD25CD":"E07000082","LAD25NM":"Stroud","LAD25NMW":null,"ObjectId":262}},{"type":"Feature","id":263,"geometry":null,"properties":{"LAD24CD":"E07000083","LAD24NM":"Tewkesbury","LAD24NMW":null,"LAD25CD":"E07000083","LAD25NM":"Tewkesbury","LAD25NMW":null,"ObjectId":263}},{"type":"Feature","id":264,"geometry":null,"properties":{"LAD24CD":"E07000084","LAD24NM":"Basingstoke and Deane","LAD24NMW":null,"LAD25CD":"E07000084","LAD25NM":"Basingstoke and Deane","LAD25NMW":null,"ObjectId":264}},{"type":"Feature","id":265,"geometry":null,"properties":{"LAD24CD":"E07000085","LAD24NM":"East Hampshire","LAD24NMW":null,"LAD25CD":"E07000085","LAD25NM":"East Hampshire","LAD25NMW":null,"ObjectId":265}},{"type":"Feature","id":266,"geometry":null,"properties":{"LAD24CD":"E07000086","LAD24NM":"Eastleigh","LAD24NMW":null,"LAD25CD":"E07000086","LAD25NM":"Eastleigh","LAD25NMW":null,"ObjectId":266}},{"type":"Feature","id":267,"geometry":null,"properties":{"LAD24CD":"E07000087","LAD24NM":"Fareham","LAD24NMW":null,"LAD25CD":"E07000087","LAD25NM":"Fareham","LAD25NMW":null,"ObjectId":267}},{"type":"Feature","id":268,"geometry":null,"properties":{"LAD24CD":"E07000088","LAD24NM":"Gosport","LAD24NMW":null,"LAD25CD":"E07000088","LAD25NM":"Gosport","LAD25NMW":null,"ObjectId":268}},{"type":"Feature","id":269,"geometry":null,"properties":{"LAD24CD":"E07000089","LAD24NM":"Hart","LAD24NMW":null,"LAD25CD":"E07000089","LAD25NM":"Hart","LAD25NMW":null,"ObjectId":269}},{"type":"Feature","id":270,"geometry":null,"properties":{"LAD24CD":"E07000090","LAD24NM":"Havant","LAD24NMW":null,"LAD25CD":"E07000090","LAD25NM":"Havant","LAD25NMW":null,"ObjectId":270}},{"type":"Feature","id":271,"geometry":null,"properties":{"LAD24CD":"E07000091","LAD24NM":"New Forest","LAD24NMW":null,"LAD25CD":"E07000091","LAD25NM":"New Forest","LAD25NMW":null,"ObjectId":271}},{"type":"Feature","id":272,"geometry":null,"properties":{"LAD24CD":"E07000092","LAD24NM":"Rushmoor","LAD24NMW":null,"LAD25CD":"E07000092","LAD25NM":"Rushmoor","LAD25NMW":null,"ObjectId":272}},{"type":"Feature","id":273,"geometry":null,"properties":{"LAD24CD":"E07000093","LAD24NM":"Test Valley","LAD24NMW":null,"LAD25CD":"E07000093","LAD25NM":"Test Valley","LAD25NMW":null,"ObjectId":273}},{"type":"Feature","id":274,"geometry":null,"properties":{"LAD24CD":"E07000094","LAD24NM":"Winchester","LAD24NMW":null,"LAD25CD":"E07000094","LAD25NM":"Winchester","LAD25NMW":null,"ObjectId":274}},{"type":"Feature","id":275,"geometry":null,"properties":{"LAD24CD":"E07000095","LAD24NM":"Broxbourne","LAD24NMW":null,"LAD25CD":"E07000095","LAD25NM":"Broxbourne","LAD25NMW":null,"ObjectId":275}},{"type":"Feature","id":276,"geometry":null,"properties":{"LAD24CD":"E07000096","LAD24NM":"Dacorum","LAD24NMW":null,"LAD25CD":"E07000096","LAD25NM":"Dacorum","LAD25NMW":null,"ObjectId":276}},{"type":"Feature","id":277,"geometry":null,"properties":{"LAD24CD":"E07000098","LAD24NM":"Hertsmere","LAD24NMW":null,"LAD25CD":"E07000098","LAD25NM":"Hertsmere","LAD25NMW":null,"ObjectId":277}},{"type":"Feature","id":278,"geometry":null,"properties":{"LAD24CD":"E07000099","LAD24NM":"North Hertfordshire","LAD24NMW":null,"LAD25CD":"E07000099","LAD25NM":"North Hertfordshire","LAD25NMW":null,"ObjectId":278}},{"type":"Feature","id":279,"geometry":null,"properties":{"LAD24CD":"E07000102","LAD24NM":"Three Rivers","LAD24NMW":null,"LAD25CD":"E07000102","LAD25NM":"Three Rivers","LAD25NMW":null,"ObjectId":279}},{"type":"Feature","id":280,"geometry":null,"properties":{"LAD24CD":"E07000103","LAD24NM":"Watford","LAD24NMW":null,"LAD25CD":"E07000103","LAD25NM":"Watford","LAD25NMW":null,"ObjectId":280}},{"type":"Feature","id":281,"geometry":null,"properties":{"LAD24CD":"E07000105","LAD24NM":"Ashford","LAD24NMW":null,"LAD25CD":"E07000105","LAD25NM":"Ashford","LAD25NMW":null,"ObjectId":281}},{"type":"Feature","id":282,"geometry":null,"properties":{"LAD24CD":"E07000106","LAD24NM":"Canterbury","LAD24NMW":null,"LAD25CD":"E07000106","LAD25NM":"Canterbury","LAD25NMW":null,"ObjectId":282}},{"type":"Feature","id":283,"geometry":null,"properties":{"LAD24CD":"E07000107","LAD24NM":"Dartford","LAD24NMW":null,"LAD25CD":"E07000107","LAD25NM":"Dartford","LAD25NMW":null,"ObjectId":283}},{"type":"Feature","id":284,"geometry":null,"properties":{"LAD24CD":"E07000108","LAD24NM":"Dover","LAD24NMW":null,"LAD25CD":"E07000108","LAD25NM":"Dover","LAD25NMW":null,"ObjectId":284}},{"type":"Feature","id":285,"geometry":null,"properties":{"LAD24CD":"E07000109","LAD24NM":"Gravesham","LAD24NMW":null,"LAD25CD":"E07000109","LAD25NM":"Gravesham","LAD25NMW":null,"ObjectId":285}},{"type":"Feature","id":286,"geometry":null,"properties":{"LAD24CD":"E07000110","LAD24NM":"Maidstone","LAD24NMW":null,"LAD25CD":"E07000110","LAD25NM":"Maidstone","LAD25NMW":null,"ObjectId":286}},{"type":"Feature","id":287,"geometry":null,"properties":{"LAD24CD":"E07000111","LAD24NM":"Sevenoaks","LAD24NMW":null,"LAD25CD":"E07000111","LAD25NM":"Sevenoaks","LAD25NMW":null,"ObjectId":287}},{"type":"Feature","id":288,"geometry":null,"properties":{"LAD24CD":"E07000112","LAD24NM":"Folkestone and Hythe","LAD24NMW":null,"LAD25CD":"E07000112","LAD25NM":"Folkestone and Hythe","LAD25NMW":null,"ObjectId":288}},{"type":"Feature","id":289,"geometry":null,"properties":{"LAD24CD":"E07000113","LAD24NM":"Swale","LAD24NMW":null,"LAD25CD":"E07000113","LAD25NM":"Swale","LAD25NMW":null,"ObjectId":289}},{"type":"Feature","id":290,"geometry":null,"properties":{"LAD24CD":"E07000114","LAD24NM":"Thanet","LAD24NMW":null,"LAD25CD":"E07000114","LAD25NM":"Thanet","LAD25NMW":null,"ObjectId":290}},{"type":"Feature","id":291,"geometry":null,"properties":{"LAD24CD":"E07000115","LAD24NM":"Tonbridge and Malling","LAD24NMW":null,"LAD25CD":"E07000115","LAD25NM":"Tonbridge and Malling","LAD25NMW":null,"ObjectId":291}},{"type":"Feature","id":292,"geometry":null,"properties":{"LAD24CD":"E07000116","LAD24NM":"Tunbridge Wells","LAD24NMW":null,"LAD25CD":"E07000116","LAD25NM":"Tunbridge Wells","LAD25NMW":null,"ObjectId":292}},{"type":"Feature","id":293,"geometry":null,"properties":{"LAD24CD":"E07000117","LAD24NM":"Burnley","LAD24NMW":null,"LAD25CD":"E07000117","LAD25NM":"Burnley","LAD25NMW":null,"ObjectId":293}},{"type":"Feature","id":294,"geometry":null,"properties":{"LAD24CD":"E07000118","LAD24NM":"Chorley","LAD24NMW":null,"LAD25CD":"E07000118","LAD25NM":"Chorley","LAD25NMW":null,"ObjectId":294}},{"type":"Feature","id":295,"geometry":null,"properties":{"LAD24CD":"E07000119","LAD24NM":"Fylde","LAD24NMW":null,"LAD25CD":"E07000119","LAD25NM":"Fylde","LAD25NMW":null,"ObjectId":295}},{"type":"Feature","id":296,"geometry":null,"properties":{"LAD24CD":"E07000120","LAD24NM":"Hyndburn","LAD24NMW":null,"LAD25CD":"E07000120","LAD25NM":"Hyndburn","LAD25NMW":null,"ObjectId":296}},{"type":"Feature","id":297,"geometry":null,"properties":{"LAD24CD":"E07000121","LAD24NM":"Lancaster","LAD24NMW":null,"LAD25CD":"E07000121","LAD25NM":"Lancaster","LAD25NMW":null,"ObjectId":297}},{"type":"Feature","id":298,"geometry":null,"properties":{"LAD24CD":"E07000122","LAD24NM":"Pendle","LAD24NMW":null,"LAD25CD":"E07000122","LAD25NM":"Pendle","LAD25NMW":null,"ObjectId":298}},{"type":"Feature","id":299,"geometry":null,"properties":{"LAD24CD":"E07000123","LAD24NM":"Preston","LAD24NMW":null,"LAD25CD":"E07000123","LAD25NM":"Preston","LAD25NMW":null,"ObjectId":299}},{"type":"Feature","id":300,"geometry":null,"properties":{"LAD24CD":"E07000124","LAD24NM":"Ribble Valley","LAD24NMW":null,"LAD25CD":"E07000124","LAD25NM":"Ribble Valley","LAD25NMW":null,"ObjectId":300}},{"type":"Feature","id":301,"geometry":null,"properties":{"LAD24CD":"E07000125","LAD24NM":"Rossendale","LAD24NMW":null,"LAD25CD":"E07000125","LAD25NM":"Rossendale","LAD25NMW":null,"ObjectId":301}},{"type":"Feature","id":302,"geometry":null,"properties":{"LAD24CD":"E07000126","LAD24NM":"South Ribble","LAD24NMW":null,"LAD25CD":"E07000126","LAD25NM":"South Ribble","LAD25NMW":null,"ObjectId":302}},{"type":"Feature","id":303,"geometry":null,"properties":{"LAD24CD":"E07000127","LAD24NM":"West Lancashire","LAD24NMW":null,"LAD25CD":"E07000127","LAD25NM":"West Lancashire","LAD25NMW":null,"ObjectId":303}},{"type":"Feature","id":304,"geometry":null,"properties":{"LAD24CD":"E07000128","LAD24NM":"Wyre","LAD24NMW":null,"LAD25CD":"E07000128","LAD25NM":"Wyre","LAD25NMW":null,"ObjectId":304}},{"type":"Feature","id":305,"geometry":null,"properties":{"LAD24CD":"E07000129","LAD24NM":"Blaby","LAD24NMW":null,"LAD25CD":"E07000129","LAD25NM":"Blaby","LAD25NMW":null,"ObjectId":305}},{"type":"Feature","id":306,"geometry":null,"properties":{"LAD24CD":"E07000130","LAD24NM":"Charnwood","LAD24NMW":null,"LAD25CD":"E07000130","LAD25NM":"Charnwood","LAD25NMW":null,"ObjectId":306}},{"type":"Feature","id":307,"geometry":null,"properties":{"LAD24CD":"E07000131","LAD24NM":"Harborough","LAD24NMW":null,"LAD25CD":"E07000131","LAD25NM":"Harborough","LAD25NMW":null,"ObjectId":307}},{"type":"Feature","id":308,"geometry":null,"properties":{"LAD24CD":"E07000132","LAD24NM":"Hinckley and Bosworth","LAD24NMW":null,"LAD25CD":"E07000132","LAD25NM":"Hinckley and Bosworth","LAD25NMW":null,"ObjectId":308}},{"type":"Feature","id":309,"geometry":null,"properties":{"LAD24CD":"E07000133","LAD24NM":"Melton","LAD24NMW":null,"LAD25CD":"E07000133","LAD25NM":"Melton","LAD25NMW":null,"ObjectId":309}},{"type":"Feature","id":310,"geometry":null,"properties":{"LAD24CD":"E07000134","LAD24NM":"North West Leicestershire","LAD24NMW":null,"LAD25CD":"E07000134","LAD25NM":"North West Leicestershire","LAD25NMW":null,"ObjectId":310}},{"type":"Feature","id":311,"geometry":null,"properties":{"LAD24CD":"E07000135","LAD24NM":"Oadby and Wigston","LAD24NMW":null,"LAD25CD":"E07000135","LAD25NM":"Oadby and Wigston","LAD25NMW":null,"ObjectId":311}},{"type":"Feature","id":312,"geometry":null,"properties":{"LAD24CD":"E07000136","LAD24NM":"Boston","LAD24NMW":null,"LAD25CD":"E07000136","LAD25NM":"Boston","LAD25NMW":null,"ObjectId":312}},{"type":"Feature","id":313,"geometry":null,"properties":{"LAD24CD":"S12000013","LAD24NM":"Na h-Eileanan Siar","LAD24NMW":null,"LAD25CD":"S12000013","LAD25NM":"Na h-Eileanan Siar","LAD25NMW":null,"ObjectId":313}},{"type":"Feature","id":314,"geometry":null,"properties":{"LAD24CD":"S12000014","LAD24NM":"Falkirk","LAD24NMW":null,"LAD25CD":"S12000014","LAD25NM":"Falkirk","LAD25NMW":null,"ObjectId":314}},{"type":"Feature","id":315,"geometry":null,"properties":{"LAD24CD":"S12000017","LAD24NM":"Highland","LAD24NMW":null,"LAD25CD":"S12000017","LAD25NM":"Highland","LAD25NMW":null,"ObjectId":315}},{"type":"Feature","id":316,"geometry":null,"properties":{"LAD24CD":"S12000018","LAD24NM":"Inverclyde","LAD24NMW":null,"LAD25CD":"S12000018","LAD25NM":"Inverclyde","LAD25NMW":null,"ObjectId":316}},{"type":"Feature","id":317,"geometry":null,"properties":{"LAD24CD":"S12000019","LAD24NM":"Midlothian","LAD24NMW":null,"LAD25CD":"S12000019","LAD25NM":"Midlothian","LAD25NMW":null,"ObjectId":317}},{"type":"Feature","id":318,"geometry":null,"properties":{"LAD24CD":"S12000020","LAD24NM":"Moray","LAD24NMW":null,"LAD25CD":"S12000020","LAD25NM":"Moray","LAD25NMW":null,"ObjectId":318}},{"type":"Feature","id":319,"geometry":null,"properties":{"LAD24CD":"S12000021","LAD24NM":"North Ayrshire","LAD24NMW":null,"LAD25CD":"S12000021","LAD25NM":"North Ayrshire","LAD25NMW":null,"ObjectId":319}},{"type":"Feature","id":320,"geometry":null,"properties":{"LAD24CD":"S12000023","LAD24NM":"Orkney Islands","LAD24NMW":null,"LAD25CD":"S12000023","LAD25NM":"Orkney Islands","LAD25NMW":null,"ObjectId":320}},{"type":"Feature","id":321,"geometry":null,"properties":{"LAD24CD":"S12000026","LAD24NM":"Scottish Borders","LAD24NMW":null,"LAD25CD":"S12000026","LAD25NM":"Scottish Borders","LAD25NMW":null,"ObjectId":321}},{"type":"Feature","id":322,"geometry":null,"properties":{"LAD24CD":"S12000027","LAD24NM":"Shetland Islands","LAD24NMW":null,"LAD25CD":"S12000027","LAD25NM":"Shetland Islands","LAD25NMW":null,"ObjectId":322}},{"type":"Feature","id":323,"geometry":null,"properties":{"LAD24CD":"S12000028","LAD24NM":"South Ayrshire","LAD24NMW":null,"LAD25CD":"S12000028","LAD25NM":"South Ayrshire","LAD25NMW":null,"ObjectId":323}},{"type":"Feature","id":324,"geometry":null,"properties":{"LAD24CD":"S12000029","LAD24NM":"South Lanarkshire","LAD24NMW":null,"LAD25CD":"S12000029","LAD25NM":"South Lanarkshire","LAD25NMW":null,"ObjectId":324}},{"type":"Feature","id":325,"geometry":null,"properties":{"LAD24CD":"S12000030","LAD24NM":"Stirling","LAD24NMW":null,"LAD25CD":"S12000030","LAD25NM":"Stirling","LAD25NMW":null,"ObjectId":325}},{"type":"Feature","id":326,"geometry":null,"properties":{"LAD24CD":"S12000033","LAD24NM":"Aberdeen City","LAD24NMW":null,"LAD25CD":"S12000033","LAD25NM":"Aberdeen City","LAD25NMW":null,"ObjectId":326}},{"type":"Feature","id":327,"geometry":null,"properties":{"LAD24CD":"S12000034","LAD24NM":"Aberdeenshire","LAD24NMW":null,"LAD25CD":"S12000034","LAD25NM":"Aberdeenshire","LAD25NMW":null,"ObjectId":327}},{"type":"Feature","id":328,"geometry":null,"properties":{"LAD24CD":"S12000035","LAD24NM":"Argyll and Bute","LAD24NMW":null,"LAD25CD":"S12000035","LAD25NM":"Argyll and Bute","LAD25NMW":null,"ObjectId":328}},{"type":"Feature","id":329,"geometry":null,"properties":{"LAD24CD":"S12000036","LAD24NM":"City of Edinburgh","LAD24NMW":null,"LAD25CD":"S12000036","LAD25NM":"City of Edinburgh","LAD25NMW":null,"ObjectId":329}},{"type":"Feature","id":330,"geometry":null,"properties":{"LAD24CD":"S12000038","LAD24NM":"Renfrewshire","LAD24NMW":null,"LAD25CD":"S12000038","LAD25NM":"Renfrewshire","LAD25NMW":null,"ObjectId":330}},{"type":"Feature","id":331,"geometry":null,"properties":{"LAD24CD":"S12000039","LAD24NM":"West Dunbartonshire","LAD24NMW":null,"LAD25CD":"S12000039","LAD25NM":"West Dunbartonshire","LAD25NMW":null,"ObjectId":331}},{"type":"Feature","id":332,"geometry":null,"properties":{"LAD24CD":"S12000040","LAD24NM":"West Lothian","LAD24NMW":null,"LAD25CD":"S12000040","LAD25NM":"West Lothian","LAD25NMW":null,"ObjectId":332}},{"type":"Feature","id":333,"geometry":null,"properties":{"LAD24CD":"S12000041","LAD24NM":"Angus","LAD24NMW":null,"LAD25CD":"S12000041","LAD25NM":"Angus","LAD25NMW":null,"ObjectId":333}},{"type":"Feature","id":334,"geometry":null,"properties":{"LAD24CD":"S12000042","LAD24NM":"Dundee City","LAD24NMW":null,"LAD25CD":"S12000042","LAD25NM":"Dundee City","LAD25NMW":null,"ObjectId":334}},{"type":"Feature","id":335,"geometry":null,"properties":{"LAD24CD":"S12000045","LAD24NM":"East Dunbartonshire","LAD24NMW":null,"LAD25CD":"S12000045","LAD25NM":"East Dunbartonshire","LAD25NMW":null,"ObjectId":335}},{"type":"Feature","id":336,"geometry":null,"properties":{"LAD24CD":"S12000047","LAD24NM":"Fife","LAD24NMW":null,"LAD25CD":"S12000047","LAD25NM":"Fife","LAD25NMW":null,"ObjectId":336}},{"type":"Feature","id":337,"geometry":null,"properties":{"LAD24CD":"S12000048","LAD24NM":"Perth and Kinross","LAD24NMW":null,"LAD25CD":"S12000048","LAD25NM":"Perth and Kinross","LAD25NMW":null,"ObjectId":337}},{"type":"Feature","id":338,"geometry":null,"properties":{"LAD24CD":"S12000049","LAD24NM":"Glasgow City","LAD24NMW":null,"LAD25CD":"S12000049","LAD25NM":"Glasgow City","LAD25NMW":null,"ObjectId":338}},{"type":"Feature","id":339,"geometry":null,"properties":{"LAD24CD":"S12000050","LAD24NM":"North Lanarkshire","LAD24NMW":null,"LAD25CD":"S12000050","LAD25NM":"North Lanarkshire","LAD25NMW":null,"ObjectId":339}},{"type":"Feature","id":340,"geometry":null,"properties":{"LAD24CD":"W06000001","LAD24NM":"Isle of Anglesey","LAD24NMW":"Ynys Môn","LAD25CD":"W06000001","LAD25NM":"Isle of Anglesey","LAD25NMW":"Ynys Môn","ObjectId":340}},{"type":"Feature","id":341,"geometry":null,"properties":{"LAD24CD":"W06000002","LAD24NM":"Gwynedd","LAD24NMW":"Gwynedd","LAD25CD":"W06000002","LAD25NM":"Gwynedd","LAD25NMW":"Gwynedd","ObjectId":341}},{"type":"Feature","id":342,"geometry":null,"properties":{"LAD24CD":"W06000003","LAD24NM":"Conwy","LAD24NMW":"Conwy","LAD25CD":"W06000003","LAD25NM":"Conwy","LAD25NMW":"Conwy","ObjectId":342}},{"type":"Feature","id":343,"geometry":null,"properties":{"LAD24CD":"W06000004","LAD24NM":"Denbighshire","LAD24NMW":"Sir Ddinbych","LAD25CD":"W06000004","LAD25NM":"Denbighshire","LAD25NMW":"Sir Ddinbych","ObjectId":343}},{"type":"Feature","id":344,"geometry":null,"properties":{"LAD24CD":"W06000005","LAD24NM":"Flintshire","LAD24NMW":"Sir y Fflint","LAD25CD":"W06000005","LAD25NM":"Flintshire","LAD25NMW":"Sir y Fflint","ObjectId":344}},{"type":"Feature","id":345,"geometry":null,"properties":{"LAD24CD":"W06000006","LAD24NM":"Wrexham","LAD24NMW":"Wrecsam","LAD25CD":"W06000006","LAD25NM":"Wrexham","LAD25NMW":"Wrecsam","ObjectId":345}},{"type":"Feature","id":346,"geometry":null,"properties":{"LAD24CD":"W06000008","LAD24NM":"Ceredigion","LAD24NMW":"Ceredigion","LAD25CD":"W06000008","LAD25NM":"Ceredigion","LAD25NMW":"Ceredigion","ObjectId":346}},{"type":"Feature","id":347,"geometry":null,"properties":{"LAD24CD":"W06000009","LAD24NM":"Pembrokeshire","LAD24NMW":"Sir Benfro","LAD25CD":"W06000009","LAD25NM":"Pembrokeshire","LAD25NMW":"Sir Benfro","ObjectId":347}},{"type":"Feature","id":348,"geometry":null,"properties":{"LAD24CD":"W06000010","LAD24NM":"Carmarthenshire","LAD24NMW":"Sir Gaerfyrddin","LAD25CD":"W06000010","LAD25NM":"Carmarthenshire","LAD25NMW":"Sir Gaerfyrddin","ObjectId":348}},{"type":"Feature","id":349,"geometry":null,"properties":{"LAD24CD":"W06000011","LAD24NM":"Swansea","LAD24NMW":"Abertawe","LAD25CD":"W06000011","LAD25NM":"Swansea","LAD25NMW":"Abertawe","ObjectId":349}},{"type":"Feature","id":350,"geometry":null,"properties":{"LAD24CD":"W06000012","LAD24NM":"Neath Port Talbot","LAD24NMW":"Castell-nedd Port Talbot","LAD25CD":"W06000012","LAD25NM":"Neath Port Talbot","LAD25NMW":"Castell-nedd Port Talbot","ObjectId":350}},{"type":"Feature","id":351,"geometry":null,"properties":{"LAD24CD":"W06000013","LAD24NM":"Bridgend","LAD24NMW":"Pen-y-bont ar Ogwr","LAD25CD":"W06000013","LAD25NM":"Bridgend","LAD25NMW":"Pen-y-bont ar Ogwr","ObjectId":351}},{"type":"Feature","id":352,"geometry":null,"properties":{"LAD24CD":"W06000014","LAD24NM":"Vale of Glamorgan","LAD24NMW":"Bro Morgannwg","LAD25CD":"W06000014","LAD25NM":"Vale of Glamorgan","LAD25NMW":"Bro Morgannwg","ObjectId":352}},{"type":"Feature","id":353,"geometry":null,"properties":{"LAD24CD":"W06000015","LAD24NM":"Cardiff","LAD24NMW":"Caerdydd","LAD25CD":"W06000015","LAD25NM":"Cardiff","LAD25NMW":"Caerdydd","ObjectId":353}},{"type":"Feature","id":354,"geometry":null,"properties":{"LAD24CD":"W06000016","LAD24NM":"Rhondda Cynon Taf","LAD24NMW":"Rhondda Cynon Taf","LAD25CD":"W06000016","LAD25NM":"Rhondda Cynon Taf","LAD25NMW":"Rhondda Cynon Taf","ObjectId":354}},{"type":"Feature","id":355,"geometry":null,"properties":{"LAD24CD":"W06000018","LAD24NM":"Caerphilly","LAD24NMW":"Caerffili","LAD25CD":"W06000018","LAD25NM":"Caerphilly","LAD25NMW":"Caerffili","ObjectId":355}},{"type":"Feature","id":356,"geometry":null,"properties":{"LAD24CD":"W06000019","LAD24NM":"Blaenau Gwent","LAD24NMW":"Blaenau Gwent","LAD25CD":"W06000019","LAD25NM":"Blaenau Gwent","LAD25NMW":"Blaenau Gwent","ObjectId":356}},{"type":"Feature","id":357,"geometry":null,"properties":{"LAD24CD":"W06000020","LAD24NM":"Torfaen","LAD24NMW":"Torfaen","LAD25CD":"W06000020","LAD25NM":"Torfaen","LAD25NMW":"Torfaen","ObjectId":357}},{"type":"Feature","id":358,"geometry":null,"properties":{"LAD24CD":"W06000021","LAD24NM":"Monmouthshire","LAD24NMW":"Sir Fynwy","LAD25CD":"W06000021","LAD25NM":"Monmouthshire","LAD25NMW":"Sir Fynwy","ObjectId":358}},{"type":"Feature","id":359,"geometry":null,"properties":{"LAD24CD":"W06000022","LAD24NM":"Newport","LAD24NMW":"Casnewydd","LAD25CD":"W06000022","LAD25NM":"Newport","LAD25NMW":"Casnewydd","ObjectId":359}},{"type":"Feature","id":360,"geometry":null,"properties":{"LAD24CD":"W06000023","LAD24NM":"Powys","LAD24NMW":"Powys","LAD25CD":"W06000023","LAD25NM":"Powys","LAD25NMW":"Powys","ObjectId":360}},{"type":"Feature","id":361,"geometry":null,"properties":{"LAD24CD":"W06000024","LAD24NM":"Merthyr Tydfil","LAD24NMW":"Merthyr Tudful","LAD25CD":"W06000024","LAD25NM":"Merthyr Tydfil","LAD25NMW":"Merthyr Tudful","ObjectId":361}}]}