{"type":"FeatureCollection","features":[{"type":"Feature","id":1,"geometry":null,"properties":{"LAD22CD":"E06000001","LAD22NM":"Hartlepool","LAD22NMW":null,"LAD23CD":"E06000001","LAD23NM":"Hartlepool","LAD23NMW":null,"ObjectId":1}},{"type":"Feature","id":2,"geometry":null,"properties":{"LAD22CD":"E06000002","LAD22NM":"Middlesbrough","LAD22NMW":null,"LAD23CD":"E06000002","LAD23NM":"Middlesbrough","LAD23NMW":null,"ObjectId":2}},{"type":"Feature","id":3,"geometry":null,"properties":{"LAD22CD":"E06000003","LAD22NM":"Redcar and Cleveland","LAD22NMW":null,"LAD23CD":"E06000003","LAD23NM":"Redcar and Cleveland","LAD23NMW":null,"ObjectId":3}},{"type":"Feature","id":4,"geometry":null,"properties":{"LAD22CD":"E06000004","LAD22NM":"Stockton-on-Tees","LAD22NMW":null,"LAD23CD":"E06000004","LAD23NM":"Stockton-on-Tees","LAD23NMW":null,"ObjectId":4}},{"type":"Feature","id":5,"geometry":null,"properties":{"LAD22CD":"E06000005","LAD22NM":"Darlington","LAD22NMW":null,"LAD23CD":"E06000005","LAD23NM":"Darlington","LAD23NMW":null,"ObjectId":5}},{"type":"Feature","id":6,"geometry":null,"properties":{"LAD22CD":"E06000006","LAD22NM":"Halton","LAD22NMW":null,"LAD23CD":"E06000006","LAD23NM":"Halton","LAD23NMW":null,"ObjectId":6}},{"type":"Feature","id":7,"geometry":null,"properties":{"LAD22CD":"E06000007","LAD22NM":"Warrington","LAD22NMW":null,"LAD23CD":"E06000007","LAD23NM":"Warrington","LAD23NMW":null,"ObjectId":7}},{"type":"Feature","id":8,"geometry":null,"properties":{"LAD22CD":"E06000008","LAD22NM":"Blackburn with Darwen","LAD22NMW":null,"LAD23CD":"E06000008","LAD23NM":"Blackburn with Darwen","LAD23NMW":null,"ObjectId":8}},{"type":"Feature","id":9,"geometry":null,"properties":{"LAD22CD":"E06000009","LAD22NM":"Blackpool","LAD22NMW":null,"LAD23CD":"E06000009","LAD23NM":"Blackpool","LAD23NMW":null,"ObjectId":9}},{"type":"Feature","id":10,"geometry":null,"properties":{"LAD22CD":"E06000010","LAD22NM":"Kingston upon Hull, City of","LAD22NMW":null,"LAD23CD":"E06000010","LAD23NM":"Kingston upon Hull, City of","LAD23NMW":null,"ObjectId":10}},{"type":"Feature","id":11,"geometry":null,"properties":{"LAD22CD":"E06000011","LAD22NM":"East Riding of Yorkshire","LAD22NMW":null,"LAD23CD":"E06000011","LAD23NM":"East Riding of Yorkshire","LAD23NMW":null,"ObjectId":11}},{"type":"Feature","id":12,"geometry":null,"properties":{"LAD22CD":"E06000012","LAD22NM":"North East Lincolnshire","LAD22NMW":null,"LAD23CD":"E06000012","LAD23NM":"North East Lincolnshire","LAD23NMW":null,"ObjectId":12}},{"type":"Feature","id":13,"geometry":null,"properties":{"LAD22CD":"E06000013","LAD22NM":"North Lincolnshire","LAD22NMW":null,"LAD23CD":"E06000013","LAD23NM":"North Lincolnshire","LAD23NMW":null,"ObjectId":13}},{"type":"Feature","id":14,"geometry":null,"properties":{"LAD22CD":"E06000014","LAD22NM":"York","LAD22NMW":null,"LAD23CD":"E06000014","LAD23NM":"York","LAD23NMW":null,"ObjectId":14}},{"type":"Feature","id":15,"geometry":null,"properties":{"LAD22CD":"E06000015","LAD22NM":"Derby","LAD22NMW":null,"LAD23CD":"E06000015","LAD23NM":"Derby","LAD23NMW":null,"ObjectId":15}},{"type":"Feature","id":16,"geometry":null,"properties":{"LAD22CD":"E06000016","LAD22NM":"Leicester","LAD22NMW":null,"LAD23CD":"E06000016","LAD23NM":"Leicester","LAD23NMW":null,"ObjectId":16}},{"type":"Feature","id":17,"geometry":null,"properties":{"LAD22CD":"E06000017","LAD22NM":"Rutland","LAD22NMW":null,"LAD23CD":"E06000017","LAD23NM":"Rutland","LAD23NMW":null,"ObjectId":17}},{"type":"Feature","id":18,"geometry":null,"properties":{"LAD22CD":"E06000018","LAD22NM":"Nottingham","LAD22NMW":null,"LAD23CD":"E06000018","LAD23NM":"Nottingham","LAD23NMW":null,"ObjectId":18}},{"type":"Feature","id":19,"geometry":null,"properties":{"LAD22CD":"E06000019","LAD22NM":"Herefordshire, County of","LAD22NMW":null,"LAD23CD":"E06000019","LAD23NM":"Herefordshire, County of","LAD23NMW":null,"ObjectId":19}},{"type":"Feature","id":20,"geometry":null,"properties":{"LAD22CD":"E06000020","LAD22NM":"Telford and Wrekin","LAD22NMW":null,"LAD23CD":"E06000020","LAD23NM":"Telford and Wrekin","LAD23NMW":null,"ObjectId":20}},{"type":"Feature","id":21,"geometry":null,"properties":{"LAD22CD":"E06000021","LAD22NM":"Stoke-on-Trent","LAD22NMW":null,"LAD23CD":"E06000021","LAD23NM":"Stoke-on-Trent","LAD23NMW":null,"ObjectId":21}},{"type":"Feature","id":22,"geometry":null,"properties":{"LAD22CD":"E06000022","LAD22NM":"Bath and North East Somerset","LAD22NMW":null,"LAD23CD":"E06000022","LAD23NM":"Bath and North East Somerset","LAD23NMW":null,"ObjectId":22}},{"type":"Feature","id":23,"geometry":null,"properties":{"LAD22CD":"E06000023","LAD22NM":"Bristol, City of","LAD22NMW":null,"LAD23CD":"E06000023","LAD23NM":"Bristol, City of","LAD23NMW":null,"ObjectId":23}},{"type":"Feature","id":24,"geometry":null,"properties":{"LAD22CD":"E06000024","LAD22NM":"North Somerset","LAD22NMW":null,"LAD23CD":"E06000024","LAD23NM":"North Somerset","LAD23NMW":null,"ObjectId":24}},{"type":"Feature","id":25,"geometry":null,"properties":{"LAD22CD":"E06000025","LAD22NM":"South Gloucestershire","LAD22NMW":null,"LAD23CD":"E06000025","LAD23NM":"South Gloucestershire","LAD23NMW":null,"ObjectId":25}},{"type":"Feature","id":26,"geometry":null,"properties":{"LAD22CD":"E06000026","LAD22NM":"Plymouth","LAD22NMW":null,"LAD23CD":"E06000026","LAD23NM":"Plymouth","LAD23NMW":null,"ObjectId":26}},{"type":"Feature","id":27,"geometry":null,"properties":{"LAD22CD":"E06000027","LAD22NM":"Torbay","LAD22NMW":null,"LAD23CD":"E06000027","LAD23NM":"Torbay","LAD23NMW":null,"ObjectId":27}},{"type":"Feature","id":28,"geometry":null,"properties":{"LAD22CD":"E06000030","LAD22NM":"Swindon","LAD22NMW":null,"LAD23CD":"E06000030","LAD23NM":"Swindon","LAD23NMW":null,"ObjectId":28}},{"type":"Feature","id":29,"geometry":null,"properties":{"LAD22CD":"E06000031","LAD22NM":"Peterborough","LAD22NMW":null,"LAD23CD":"E06000031","LAD23NM":"Peterborough","LAD23NMW":null,"ObjectId":29}},{"type":"Feature","id":30,"geometry":null,"properties":{"LAD22CD":"E06000032","LAD22NM":"Luton","LAD22NMW":null,"LAD23CD":"E06000032","LAD23NM":"Luton","LAD23NMW":null,"ObjectId":30}},{"type":"Feature","id":31,"geometry":null,"properties":{"LAD22CD":"E06000033","LAD22NM":"Southend-on-Sea","LAD22NMW":null,"LAD23CD":"E06000033","LAD23NM":"Southend-on-Sea","LAD23NMW":null,"ObjectId":31}},{"type":"Feature","id":32,"geometry":null,"properties":{"LAD22CD":"E06000034","LAD22NM":"Thurrock","LAD22NMW":null,"LAD23CD":"E06000034","LAD23NM":"Thurrock","LAD23NMW":null,"ObjectId":32}},{"type":"Feature","id":33,"geometry":null,"properties":{"LAD22CD":"E06000035","LAD22NM":"Medway","LAD22NMW":null,"LAD23CD":"E06000035","LAD23NM":"Medway","LAD23NMW":null,"ObjectId":33}},{"type":"Feature","id":34,"geometry":null,"properties":{"LAD22CD":"E06000036","LAD22NM":"Bracknell Forest","LAD22NMW":null,"LAD23CD":"E06000036","LAD23NM":"Bracknell Forest","LAD23NMW":null,"ObjectId":34}},{"type":"Feature","id":35,"geometry":null,"properties":{"LAD22CD":"E06000037","LAD22NM":"West Berkshire","LAD22NMW":null,"LAD23CD":"E06000037","LAD23NM":"West Berkshire","LAD23NMW":null,"ObjectId":35}},{"type":"Feature","id":36,"geometry":null,"properties":{"LAD22CD":"E06000038","LAD22NM":"Reading","LAD22NMW":null,"LAD23CD":"E06000038","LAD23NM":"Reading","LAD23NMW":null,"ObjectId":36}},{"type":"Feature","id":37,"geometry":null,"properties":{"LAD22CD":"E06000039","LAD22NM":"Slough","LAD22NMW":null,"LAD23CD":"E06000039","LAD23NM":"Slough","LAD23NMW":null,"ObjectId":37}},{"type":"Feature","id":38,"geometry":null,"properties":{"LAD22CD":"E06000040","LAD22NM":"Windsor and Maidenhead","LAD22NMW":null,"LAD23CD":"E06000040","LAD23NM":"Windsor and Maidenhead","LAD23NMW":null,"ObjectId":38}},{"type":"Feature","id":39,"geometry":null,"properties":{"LAD22CD":"E06000041","LAD22NM":"Wokingham","LAD22NMW":null,"LAD23CD":"E06000041","LAD23NM":"Wokingham","LAD23NMW":null,"ObjectId":39}},{"type":"Feature","id":40,"geometry":null,"properties":{"LAD22CD":"E06000042","LAD22NM":"Milton Keynes","LAD22NMW":null,"LAD23CD":"E06000042","LAD23NM":"Milton Keynes","LAD23NMW":null,"ObjectId":40}},{"type":"Feature","id":41,"geometry":null,"properties":{"LAD22CD":"E06000043","LAD22NM":"Brighton and Hove","LAD22NMW":null,"LAD23CD":"E06000043","LAD23NM":"Brighton and Hove","LAD23NMW":null,"ObjectId":41}},{"type":"Feature","id":42,"geometry":null,"properties":{"LAD22CD":"E06000044","LAD22NM":"Portsmouth","LAD22NMW":null,"LAD23CD":"E06000044","LAD23NM":"Portsmouth","LAD23NMW":null,"ObjectId":42}},{"type":"Feature","id":43,"geometry":null,"properties":{"LAD22CD":"E06000045","LAD22NM":"Southampton","LAD22NMW":null,"LAD23CD":"E06000045","LAD23NM":"Southampton","LAD23NMW":null,"ObjectId":43}},{"type":"Feature","id":44,"geometry":null,"properties":{"LAD22CD":"E06000046","LAD22NM":"Isle of Wight","LAD22NMW":null,"LAD23CD":"E06000046","LAD23NM":"Isle of Wight","LAD23NMW":null,"ObjectId":44}},{"type":"Feature","id":45,"geometry":null,"properties":{"LAD22CD":"E06000047","LAD22NM":"County Durham","LAD22NMW":null,"LAD23CD":"E06000047","LAD23NM":"County Durham","LAD23NMW":null,"ObjectId":45}},{"type":"Feature","id":46,"geometry":null,"properties":{"LAD22CD":"E06000049","LAD22NM":"Cheshire East","LAD22NMW":null,"LAD23CD":"E06000049","LAD23NM":"Cheshire East","LAD23NMW":null,"ObjectId":46}},{"type":"Feature","id":47,"geometry":null,"properties":{"LAD22CD":"E06000050","LAD22NM":"Cheshire West and Chester","LAD22NMW":null,"LAD23CD":"E06000050","LAD23NM":"Cheshire West and Chester","LAD23NMW":null,"ObjectId":47}},{"type":"Feature","id":48,"geometry":null,"properties":{"LAD22CD":"E06000051","LAD22NM":"Shropshire","LAD22NMW":null,"LAD23CD":"E06000051","LAD23NM":"Shropshire","LAD23NMW":null,"ObjectId":48}},{"type":"Feature","id":49,"geometry":null,"properties":{"LAD22CD":"E06000052","LAD22NM":"Cornwall","LAD22NMW":null,"LAD23CD":"E06000052","LAD23NM":"Cornwall","LAD23NMW":null,"ObjectId":49}},{"type":"Feature","id":50,"geometry":null,"properties":{"LAD22CD":"E06000053","LAD22NM":"Isles of Scilly","LAD22NMW":null,"LAD23CD":"E06000053","LAD23NM":"Isles of Scilly","LAD23NMW":null,"ObjectId":50}},{"type":"Feature","id":51,"geometry":null,"properties":{"LAD22CD":"E06000054","LAD22NM":"Wiltshire","LAD22NMW":null,"LAD23CD":"E06000054","LAD23NM":"Wiltshire","LAD23NMW":null,"ObjectId":51}},{"type":"Feature","id":52,"geometry":null,"properties":{"LAD22CD":"E06000055","LAD22NM":"Bedford","LAD22NMW":null,"LAD23CD":"E06000055","LAD23NM":"Bedford","LAD23NMW":null,"ObjectId":52}},{"type":"Feature","id":53,"geometry":null,"properties":{"LAD22CD":"E06000056","LAD22NM":"Central Bedfordshire","LAD22NMW":null,"LAD23CD":"E06000056","LAD23NM":"Central Bedfordshire","LAD23NMW":null,"ObjectId":53}},{"type":"Feature","id":54,"geometry":null,"properties":{"LAD22CD":"E06000057","LAD22NM":"Northumberland","LAD22NMW":null,"LAD23CD":"E06000057","LAD23NM":"Northumberland","LAD23NMW":null,"ObjectId":54}},{"type":"Feature","id":55,"geometry":null,"properties":{"LAD22CD":"E07000219","LAD22NM":"Nuneaton and Bedworth","LAD22NMW":null,"LAD23CD":"E07000219","LAD23NM":"Nuneaton and Bedworth","LAD23NMW":null,"ObjectId":55}},{"type":"Feature","id":56,"geometry":null,"properties":{"LAD22CD":"E07000220","LAD22NM":"Rugby","LAD22NMW":null,"LAD23CD":"E07000220","LAD23NM":"Rugby","LAD23NMW":null,"ObjectId":56}},{"type":"Feature","id":57,"geometry":null,"properties":{"LAD22CD":"E07000221","LAD22NM":"Stratford-on-Avon","LAD22NMW":null,"LAD23CD":"E07000221","LAD23NM":"Stratford-on-Avon","LAD23NMW":null,"ObjectId":57}},{"type":"Feature","id":58,"geometry":null,"properties":{"LAD22CD":"E07000222","LAD22NM":"Warwick","LAD22NMW":null,"LAD23CD":"E07000222","LAD23NM":"Warwick","LAD23NMW":null,"ObjectId":58}},{"type":"Feature","id":59,"geometry":null,"properties":{"LAD22CD":"E07000223","LAD22NM":"Adur","LAD22NMW":null,"LAD23CD":"E07000223","LAD23NM":"Adur","LAD23NMW":null,"ObjectId":59}},{"type":"Feature","id":60,"geometry":null,"properties":{"LAD22CD":"E07000224","LAD22NM":"Arun","LAD22NMW":null,"LAD23CD":"E07000224","LAD23NM":"Arun","LAD23NMW":null,"ObjectId":60}},{"type":"Feature","id":61,"geometry":null,"properties":{"LAD22CD":"E07000225","LAD22NM":"Chichester","LAD22NMW":null,"LAD23CD":"E07000225","LAD23NM":"Chichester","LAD23NMW":null,"ObjectId":61}},{"type":"Feature","id":62,"geometry":null,"properties":{"LAD22CD":"E07000226","LAD22NM":"Crawley","LAD22NMW":null,"LAD23CD":"E07000226","LAD23NM":"Crawley","LAD23NMW":null,"ObjectId":62}},{"type":"Feature","id":63,"geometry":null,"properties":{"LAD22CD":"E07000227","LAD22NM":"Horsham","LAD22NMW":null,"LAD23CD":"E07000227","LAD23NM":"Horsham","LAD23NMW":null,"ObjectId":63}},{"type":"Feature","id":64,"geometry":null,"properties":{"LAD22CD":"E07000228","LAD22NM":"Mid Sussex","LAD22NMW":null,"LAD23CD":"E07000228","LAD23NM":"Mid Sussex","LAD23NMW":null,"ObjectId":64}},{"type":"Feature","id":65,"geometry":null,"properties":{"LAD22CD":"E07000229","LAD22NM":"Worthing","LAD22NMW":null,"LAD23CD":"E07000229","LAD23NM":"Worthing","LAD23NMW":null,"ObjectId":65}},{"type":"Feature","id":66,"geometry":null,"properties":{"LAD22CD":"E07000234","LAD22NM":"Bromsgrove","LAD22NMW":null,"LAD23CD":"E07000234","LAD23NM":"Bromsgrove","LAD23NMW":null,"ObjectId":66}},{"type":"Feature","id":67,"geometry":null,"properties":{"LAD22CD":"E07000235","LAD22NM":"Malvern Hills","LAD22NMW":null,"LAD23CD":"E07000235","LAD23NM":"Malvern Hills","LAD23NMW":null,"ObjectId":67}},{"type":"Feature","id":68,"geometry":null,"properties":{"LAD22CD":"E07000236","LAD22NM":"Redditch","LAD22NMW":null,"LAD23CD":"E07000236","LAD23NM":"Redditch","LAD23NMW":null,"ObjectId":68}},{"type":"Feature","id":69,"geometry":null,"properties":{"LAD22CD":"E07000237","LAD22NM":"Worcester","LAD22NMW":null,"LAD23CD":"E07000237","LAD23NM":"Worcester","LAD23NMW":null,"ObjectId":69}},{"type":"Feature","id":70,"geometry":null,"properties":{"LAD22CD":"E07000238","LAD22NM":"Wychavon","LAD22NMW":null,"LAD23CD":"E07000238","LAD23NM":"Wychavon","LAD23NMW":null,"ObjectId":70}},{"type":"Feature","id":71,"geometry":null,"properties":{"LAD22CD":"E07000239","LAD22NM":"Wyre Forest","LAD22NMW":null,"LAD23CD":"E07000239","LAD23NM":"Wyre Forest","LAD23NMW":null,"ObjectId":71}},{"type":"Feature","id":72,"geometry":null,"properties":{"LAD22CD":"E07000240","LAD22NM":"St Albans","LAD22NMW":null,"LAD23CD":"E07000240","LAD23NM":"St Albans","LAD23NMW":null,"ObjectId":72}},{"type":"Feature","id":73,"geometry":null,"properties":{"LAD22CD":"E07000241","LAD22NM":"Welwyn Hatfield","LAD22NMW":null,"LAD23CD":"E07000241","LAD23NM":"Welwyn Hatfield","LAD23NMW":null,"ObjectId":73}},{"type":"Feature","id":74,"geometry":null,"properties":{"LAD22CD":"E07000242","LAD22NM":"East Hertfordshire","LAD22NMW":null,"LAD23CD":"E07000242","LAD23NM":"East Hertfordshire","LAD23NMW":null,"ObjectId":74}},{"type":"Feature","id":75,"geometry":null,"properties":{"LAD22CD":"E07000243","LAD22NM":"Stevenage","LAD22NMW":null,"LAD23CD":"E07000243","LAD23NM":"Stevenage","LAD23NMW":null,"ObjectId":75}},{"type":"Feature","id":76,"geometry":null,"properties":{"LAD22CD":"E07000244","LAD22NM":"East Suffolk","LAD22NMW":null,"LAD23CD":"E07000244","LAD23NM":"East Suffolk","LAD23NMW":null,"ObjectId":76}},{"type":"Feature","id":77,"geometry":null,"properties":{"LAD22CD":"E07000245","LAD22NM":"West Suffolk","LAD22NMW":null,"LAD23CD":"E07000245","LAD23NM":"West Suffolk","LAD23NMW":null,"ObjectId":77}},{"type":"Feature","id":78,"geometry":null,"properties":{"LAD22CD":"E07000246","LAD22NM":"Somerset West and Taunton","LAD22NMW":null,"LAD23CD":"E06000066","LAD23NM":"Somerset","LAD23NMW":null,"ObjectId":78}},{"type":"Feature","id":79,"geometry":null,"properties":{"LAD22CD":"E08000001","LAD22NM":"Bolton","LAD22NMW":null,"LAD23CD":"E08000001","LAD23NM":"Bolton","LAD23NMW":null,"ObjectId":79}},{"type":"Feature","id":80,"geometry":null,"properties":{"LAD22CD":"E08000002","LAD22NM":"Bury","LAD22NMW":null,"LAD23CD":"E08000002","LAD23NM":"Bury","LAD23NMW":null,"ObjectId":80}},{"type":"Feature","id":81,"geometry":null,"properties":{"LAD22CD":"E08000003","LAD22NM":"Manchester","LAD22NMW":null,"LAD23CD":"E08000003","LAD23NM":"Manchester","LAD23NMW":null,"ObjectId":81}},{"type":"Feature","id":82,"geometry":null,"properties":{"LAD22CD":"E08000004","LAD22NM":"Oldham","LAD22NMW":null,"LAD23CD":"E08000004","LAD23NM":"Oldham","LAD23NMW":null,"ObjectId":82}},{"type":"Feature","id":83,"geometry":null,"properties":{"LAD22CD":"E08000005","LAD22NM":"Rochdale","LAD22NMW":null,"LAD23CD":"E08000005","LAD23NM":"Rochdale","LAD23NMW":null,"ObjectId":83}},{"type":"Feature","id":84,"geometry":null,"properties":{"LAD22CD":"E08000006","LAD22NM":"Salford","LAD22NMW":null,"LAD23CD":"E08000006","LAD23NM":"Salford","LAD23NMW":null,"ObjectId":84}},{"type":"Feature","id":85,"geometry":null,"properties":{"LAD22CD":"E08000007","LAD22NM":"Stockport","LAD22NMW":null,"LAD23CD":"E08000007","LAD23NM":"Stockport","LAD23NMW":null,"ObjectId":85}},{"type":"Feature","id":86,"geometry":null,"properties":{"LAD22CD":"E08000008","LAD22NM":"Tameside","LAD22NMW":null,"LAD23CD":"E08000008","LAD23NM":"Tameside","LAD23NMW":null,"ObjectId":86}},{"type":"Feature","id":87,"geometry":null,"properties":{"LAD22CD":"E08000009","LAD22NM":"Trafford","LAD22NMW":null,"LAD23CD":"E08000009","LAD23NM":"Trafford","LAD23NMW":null,"ObjectId":87}},{"type":"Feature","id":88,"geometry":null,"properties":{"LAD22CD":"E08000010","LAD22NM":"Wigan","LAD22NMW":null,"LAD23CD":"E08000010","LAD23NM":"Wigan","LAD23NMW":null,"ObjectId":88}},{"type":"Feature","id":89,"geometry":null,"properties":{"LAD22CD":"E08000011","LAD22NM":"Knowsley","LAD22NMW":null,"LAD23CD":"E08000011","LAD23NM":"Knowsley","LAD23NMW":null,"ObjectId":89}},{"type":"Feature","id":90,"geometry":null,"properties":{"LAD22CD":"E08000012","LAD22NM":"Liverpool","LAD22NMW":null,"LAD23CD":"E08000012","LAD23NM":"Liverpool","LAD23NMW":null,"ObjectId":90}},{"type":"Feature","id":91,"geometry":null,"properties":{"LAD22CD":"E08000013","LAD22NM":"St. Helens","LAD22NMW":null,"LAD23CD":"E08000013","LAD23NM":"St. Helens","LAD23NMW":null,"ObjectId":91}},{"type":"Feature","id":92,"geometry":null,"properties":{"LAD22CD":"E08000014","LAD22NM":"Sefton","LAD22NMW":null,"LAD23CD":"E08000014","LAD23NM":"Sefton","LAD23NMW":null,"ObjectId":92}},{"type":"Feature","id":93,"geometry":null,"properties":{"LAD22CD":"E08000015","LAD22NM":"Wirral","LAD22NMW":null,"LAD23CD":"E08000015","LAD23NM":"Wirral","LAD23NMW":null,"ObjectId":93}},{"type":"Feature","id":94,"geometry":null,"properties":{"LAD22CD":"E08000016","LAD22NM":"Barnsley","LAD22NMW":null,"LAD23CD":"E08000016","LAD23NM":"Barnsley","LAD23NMW":null,"ObjectId":94}},{"type":"Feature","id":95,"geometry":null,"properties":{"LAD22CD":"E08000017","LAD22NM":"Doncaster","LAD22NMW":null,"LAD23CD":"E08000017","LAD23NM":"Doncaster","LAD23NMW":null,"ObjectId":95}},{"type":"Feature","id":96,"geometry":null,"properties":{"LAD22CD":"E08000018","LAD22NM":"Rotherham","LAD22NMW":null,"LAD23CD":"E08000018","LAD23NM":"Rotherham","LAD23NMW":null,"ObjectId":96}},{"type":"Feature","id":97,"geometry":null,"properties":{"LAD22CD":"E08000019","LAD22NM":"Sheffield","LAD22NMW":null,"LAD23CD":"E08000019","LAD23NM":"Sheffield","LAD23NMW":null,"ObjectId":97}},{"type":"Feature","id":98,"geometry":null,"properties":{"LAD22CD":"E08000021","LAD22NM":"Newcastle upon Tyne","LAD22NMW":null,"LAD23CD":"E08000021","LAD23NM":"Newcastle upon Tyne","LAD23NMW":null,"ObjectId":98}},{"type":"Feature","id":99,"geometry":null,"properties":{"LAD22CD":"E08000022","LAD22NM":"North Tyneside","LAD22NMW":null,"LAD23CD":"E08000022","LAD23NM":"North Tyneside","LAD23NMW":null,"ObjectId":99}},{"type":"Feature","id":100,"geometry":null,"properties":{"LAD22CD":"E08000023","LAD22NM":"South Tyneside","LAD22NMW":null,"LAD23CD":"E08000023","LAD23NM":"South Tyneside","LAD23NMW":null,"ObjectId":100}},{"type":"Feature","id":101,"geometry":null,"properties":{"LAD22CD":"E08000024","LAD22NM":"Sunderland","LAD22NMW":null,"LAD23CD":"E08000024","LAD23NM":"Sunderland","LAD23NMW":null,"ObjectId":101}},{"type":"Feature","id":102,"geometry":null,"properties":{"LAD22CD":"E08000025","LAD22NM":"Birmingham","LAD22NMW":null,"LAD23CD":"E08000025","LAD23NM":"Birmingham","LAD23NMW":null,"ObjectId":102}},{"type":"Feature","id":103,"geometry":null,"properties":{"LAD22CD":"E08000026","LAD22NM":"Coventry","LAD22NMW":null,"LAD23CD":"E08000026","LAD23NM":"Coventry","LAD23NMW":null,"ObjectId":103}},{"type":"Feature","id":104,"geometry":null,"properties":{"LAD22CD":"E08000027","LAD22NM":"Dudley","LAD22NMW":null,"LAD23CD":"E08000027","LAD23NM":"Dudley","LAD23NMW":null,"ObjectId":104}},{"type":"Feature","id":105,"geometry":null,"properties":{"LAD22CD":"E08000028","LAD22NM":"Sandwell","LAD22NMW":null,"LAD23CD":"E08000028","LAD23NM":"Sandwell","LAD23NMW":null,"ObjectId":105}},{"type":"Feature","id":106,"geometry":null,"properties":{"LAD22CD":"E08000029","LAD22NM":"Solihull","LAD22NMW":null,"LAD23CD":"E08000029","LAD23NM":"Solihull","LAD23NMW":null,"ObjectId":106}},{"type":"Feature","id":107,"geometry":null,"properties":{"LAD22CD":"E08000030","LAD22NM":"Walsall","LAD22NMW":null,"LAD23CD":"E08000030","LAD23NM":"Walsall","LAD23NMW":null,"ObjectId":107}},{"type":"Feature","id":108,"geometry":null,"properties":{"LAD22CD":"E08000031","LAD22NM":"Wolverhampton","LAD22NMW":null,"LAD23CD":"E08000031","LAD23NM":"Wolverhampton","LAD23NMW":null,"ObjectId":108}},{"type":"Feature","id":109,"geometry":null,"properties":{"LAD22CD":"E07000141","LAD22NM":"South Kesteven","LAD22NMW":null,"LAD23CD":"E07000141","LAD23NM":"South Kesteven","LAD23NMW":null,"ObjectId":109}},{"type":"Feature","id":110,"geometry":null,"properties":{"LAD22CD":"E07000142","LAD22NM":"West Lindsey","LAD22NMW":null,"LAD23CD":"E07000142","LAD23NM":"West Lindsey","LAD23NMW":null,"ObjectId":110}},{"type":"Feature","id":111,"geometry":null,"properties":{"LAD22CD":"E07000143","LAD22NM":"Breckland","LAD22NMW":null,"LAD23CD":"E07000143","LAD23NM":"Breckland","LAD23NMW":null,"ObjectId":111}},{"type":"Feature","id":112,"geometry":null,"properties":{"LAD22CD":"E07000144","LAD22NM":"Broadland","LAD22NMW":null,"LAD23CD":"E07000144","LAD23NM":"Broadland","LAD23NMW":null,"ObjectId":112}},{"type":"Feature","id":113,"geometry":null,"properties":{"LAD22CD":"E07000145","LAD22NM":"Great Yarmouth","LAD22NMW":null,"LAD23CD":"E07000145","LAD23NM":"Great Yarmouth","LAD23NMW":null,"ObjectId":113}},{"type":"Feature","id":114,"geometry":null,"properties":{"LAD22CD":"E07000146","LAD22NM":"King's Lynn and West Norfolk","LAD22NMW":null,"LAD23CD":"E07000146","LAD23NM":"King's Lynn and West Norfolk","LAD23NMW":null,"ObjectId":114}},{"type":"Feature","id":115,"geometry":null,"properties":{"LAD22CD":"E07000147","LAD22NM":"North Norfolk","LAD22NMW":null,"LAD23CD":"E07000147","LAD23NM":"North Norfolk","LAD23NMW":null,"ObjectId":115}},{"type":"Feature","id":116,"geometry":null,"properties":{"LAD22CD":"E07000148","LAD22NM":"Norwich","LAD22NMW":null,"LAD23CD":"E07000148","LAD23NM":"Norwich","LAD23NMW":null,"ObjectId":116}},{"type":"Feature","id":117,"geometry":null,"properties":{"LAD22CD":"E07000149","LAD22NM":"South Norfolk","LAD22NMW":null,"LAD23CD":"E07000149","LAD23NM":"South Norfolk","LAD23NMW":null,"ObjectId":117}},{"type":"Feature","id":118,"geometry":null,"properties":{"LAD22CD":"E07000163","LAD22NM":"Craven","LAD22NMW":null,"LAD23CD":"E06000065","LAD23NM":"North Yorkshire","LAD23NMW":null,"ObjectId":118}},{"type":"Feature","id":119,"geometry":null,"properties":{"LAD22CD":"E07000164","LAD22NM":"Hambleton","LAD22NMW":null,"LAD23CD":"E06000065","LAD23NM":"North Yorkshire","LAD23NMW":null,"ObjectId":119}},{"type":"Feature","id":120,"geometry":null,"properties":{"LAD22CD":"E07000165","LAD22NM":"Harrogate","LAD22NMW":null,"LAD23CD":"E06000065","LAD23NM":"North Yorkshire","LAD23NMW":null,"ObjectId":120}},{"type":"Feature","id":121,"geometry":null,"properties":{"LAD22CD":"E07000166","LAD22NM":"Richmondshire","LAD22NMW":null,"LAD23CD":"E06000065","LAD23NM":"North Yorkshire","LAD23NMW":null,"ObjectId":121}},{"type":"Feature","id":122,"geometry":null,"properties":{"LAD22CD":"E07000167","LAD22NM":"Ryedale","LAD22NMW":null,"LAD23CD":"E06000065","LAD23NM":"North Yorkshire","LAD23NMW":null,"ObjectId":122}},{"type":"Feature","id":123,"geometry":null,"properties":{"LAD22CD":"E07000168","LAD22NM":"Scarborough","LAD22NMW":null,"LAD23CD":"E06000065","LAD23NM":"North Yorkshire","LAD23NMW":null,"ObjectId":123}},{"type":"Feature","id":124,"geometry":null,"properties":{"LAD22CD":"E07000169","LAD22NM":"Selby","LAD22NMW":null,"LAD23CD":"E06000065","LAD23NM":"North Yorkshire","LAD23NMW":null,"ObjectId":124}},{"type":"Feature","id":125,"geometry":null,"properties":{"LAD22CD":"E07000170","LAD22NM":"Ashfield","LAD22NMW":null,"LAD23CD":"E07000170","LAD23NM":"Ashfield","LAD23NMW":null,"ObjectId":125}},{"type":"Feature","id":126,"geometry":null,"properties":{"LAD22CD":"E07000171","LAD22NM":"Bassetlaw","LAD22NMW":null,"LAD23CD":"E07000171","LAD23NM":"Bassetlaw","LAD23NMW":null,"ObjectId":126}},{"type":"Feature","id":127,"geometry":null,"properties":{"LAD22CD":"E07000172","LAD22NM":"Broxtowe","LAD22NMW":null,"LAD23CD":"E07000172","LAD23NM":"Broxtowe","LAD23NMW":null,"ObjectId":127}},{"type":"Feature","id":128,"geometry":null,"properties":{"LAD22CD":"E07000173","LAD22NM":"Gedling","LAD22NMW":null,"LAD23CD":"E07000173","LAD23NM":"Gedling","LAD23NMW":null,"ObjectId":128}},{"type":"Feature","id":129,"geometry":null,"properties":{"LAD22CD":"E07000174","LAD22NM":"Mansfield","LAD22NMW":null,"LAD23CD":"E07000174","LAD23NM":"Mansfield","LAD23NMW":null,"ObjectId":129}},{"type":"Feature","id":130,"geometry":null,"properties":{"LAD22CD":"E07000175","LAD22NM":"Newark and Sherwood","LAD22NMW":null,"LAD23CD":"E07000175","LAD23NM":"Newark and Sherwood","LAD23NMW":null,"ObjectId":130}},{"type":"Feature","id":131,"geometry":null,"properties":{"LAD22CD":"E07000176","LAD22NM":"Rushcliffe","LAD22NMW":null,"LAD23CD":"E07000176","LAD23NM":"Rushcliffe","LAD23NMW":null,"ObjectId":131}},{"type":"Feature","id":132,"geometry":null,"properties":{"LAD22CD":"E07000177","LAD22NM":"Cherwell","LAD22NMW":null,"LAD23CD":"E07000177","LAD23NM":"Cherwell","LAD23NMW":null,"ObjectId":132}},{"type":"Feature","id":133,"geometry":null,"properties":{"LAD22CD":"E07000178","LAD22NM":"Oxford","LAD22NMW":null,"LAD23CD":"E07000178","LAD23NM":"Oxford","LAD23NMW":null,"ObjectId":133}},{"type":"Feature","id":134,"geometry":null,"properties":{"LAD22CD":"E07000179","LAD22NM":"South Oxfordshire","LAD22NMW":null,"LAD23CD":"E07000179","LAD23NM":"South Oxfordshire","LAD23NMW":null,"ObjectId":134}},{"type":"Feature","id":135,"geometry":null,"properties":{"LAD22CD":"E07000180","LAD22NM":"Vale of White Horse","LAD22NMW":null,"LAD23CD":"E07000180","LAD23NM":"Vale of White Horse","LAD23NMW":null,"ObjectId":135}},{"type":"Feature","id":136,"geometry":null,"properties":{"LAD22CD":"E07000181","LAD22NM":"West Oxfordshire","LAD22NMW":null,"LAD23CD":"E07000181","LAD23NM":"West Oxfordshire","LAD23NMW":null,"ObjectId":136}},{"type":"Feature","id":137,"geometry":null,"properties":{"LAD22CD":"E07000187","LAD22NM":"Mendip","LAD22NMW":null,"LAD23CD":"E06000066","LAD23NM":"Somerset","LAD23NMW":null,"ObjectId":137}},{"type":"Feature","id":138,"geometry":null,"properties":{"LAD22CD":"E07000188","LAD22NM":"Sedgemoor","LAD22NMW":null,"LAD23CD":"E06000066","LAD23NM":"Somerset","LAD23NMW":null,"ObjectId":138}},{"type":"Feature","id":139,"geometry":null,"properties":{"LAD22CD":"E07000189","LAD22NM":"South Somerset","LAD22NMW":null,"LAD23CD":"E06000066","LAD23NM":"Somerset","LAD23NMW":null,"ObjectId":139}},{"type":"Feature","id":140,"geometry":null,"properties":{"LAD22CD":"E07000192","LAD22NM":"Cannock Chase","LAD22NMW":null,"LAD23CD":"E07000192","LAD23NM":"Cannock Chase","LAD23NMW":null,"ObjectId":140}},{"type":"Feature","id":141,"geometry":null,"properties":{"LAD22CD":"E07000193","LAD22NM":"East Staffordshire","LAD22NMW":null,"LAD23CD":"E07000193","LAD23NM":"East Staffordshire","LAD23NMW":null,"ObjectId":141}},{"type":"Feature","id":142,"geometry":null,"properties":{"LAD22CD":"E07000194","LAD22NM":"Lichfield","LAD22NMW":null,"LAD23CD":"E07000194","LAD23NM":"Lichfield","LAD23NMW":null,"ObjectId":142}},{"type":"Feature","id":143,"geometry":null,"properties":{"LAD22CD":"E07000195","LAD22NM":"Newcastle-under-Lyme","LAD22NMW":null,"LAD23CD":"E07000195","LAD23NM":"Newcastle-under-Lyme","LAD23NMW":null,"ObjectId":143}},{"type":"Feature","id":144,"geometry":null,"properties":{"LAD22CD":"E07000196","LAD22NM":"South Staffordshire","LAD22NMW":null,"LAD23CD":"E07000196","LAD23NM":"South Staffordshire","LAD23NMW":null,"ObjectId":144}},{"type":"Feature","id":145,"geometry":null,"properties":{"LAD22CD":"E07000197","LAD22NM":"Stafford","LAD22NMW":null,"LAD23CD":"E07000197","LAD23NM":"Stafford","LAD23NMW":null,"ObjectId":145}},{"type":"Feature","id":146,"geometry":null,"properties":{"LAD22CD":"E07000198","LAD22NM":"Staffordshire Moorlands","LAD22NMW":null,"LAD23CD":"E07000198","LAD23NM":"Staffordshire Moorlands","LAD23NMW":null,"ObjectId":146}},{"type":"Feature","id":147,"geometry":null,"properties":{"LAD22CD":"E07000199","LAD22NM":"Tamworth","LAD22NMW":null,"LAD23CD":"E07000199","LAD23NM":"Tamworth","LAD23NMW":null,"ObjectId":147}},{"type":"Feature","id":148,"geometry":null,"properties":{"LAD22CD":"E07000200","LAD22NM":"Babergh","LAD22NMW":null,"LAD23CD":"E07000200","LAD23NM":"Babergh","LAD23NMW":null,"ObjectId":148}},{"type":"Feature","id":149,"geometry":null,"properties":{"LAD22CD":"E07000202","LAD22NM":"Ipswich","LAD22NMW":null,"LAD23CD":"E07000202","LAD23NM":"Ipswich","LAD23NMW":null,"ObjectId":149}},{"type":"Feature","id":150,"geometry":null,"properties":{"LAD22CD":"E07000203","LAD22NM":"Mid Suffolk","LAD22NMW":null,"LAD23CD":"E07000203","LAD23NM":"Mid Suffolk","LAD23NMW":null,"ObjectId":150}},{"type":"Feature","id":151,"geometry":null,"properties":{"LAD22CD":"E07000207","LAD22NM":"Elmbridge","LAD22NMW":null,"LAD23CD":"E07000207","LAD23NM":"Elmbridge","LAD23NMW":null,"ObjectId":151}},{"type":"Feature","id":152,"geometry":null,"properties":{"LAD22CD":"E07000208","LAD22NM":"Epsom and Ewell","LAD22NMW":null,"LAD23CD":"E07000208","LAD23NM":"Epsom and Ewell","LAD23NMW":null,"ObjectId":152}},{"type":"Feature","id":153,"geometry":null,"properties":{"LAD22CD":"E07000209","LAD22NM":"Guildford","LAD22NMW":null,"LAD23CD":"E07000209","LAD23NM":"Guildford","LAD23NMW":null,"ObjectId":153}},{"type":"Feature","id":154,"geometry":null,"properties":{"LAD22CD":"E07000210","LAD22NM":"Mole Valley","LAD22NMW":null,"LAD23CD":"E07000210","LAD23NM":"Mole Valley","LAD23NMW":null,"ObjectId":154}},{"type":"Feature","id":155,"geometry":null,"properties":{"LAD22CD":"E07000211","LAD22NM":"Reigate and Banstead","LAD22NMW":null,"LAD23CD":"E07000211","LAD23NM":"Reigate and Banstead","LAD23NMW":null,"ObjectId":155}},{"type":"Feature","id":156,"geometry":null,"properties":{"LAD22CD":"E07000212","LAD22NM":"Runnymede","LAD22NMW":null,"LAD23CD":"E07000212","LAD23NM":"Runnymede","LAD23NMW":null,"ObjectId":156}},{"type":"Feature","id":157,"geometry":null,"properties":{"LAD22CD":"E07000213","LAD22NM":"Spelthorne","LAD22NMW":null,"LAD23CD":"E07000213","LAD23NM":"Spelthorne","LAD23NMW":null,"ObjectId":157}},{"type":"Feature","id":158,"geometry":null,"properties":{"LAD22CD":"E07000214","LAD22NM":"Surrey Heath","LAD22NMW":null,"LAD23CD":"E07000214","LAD23NM":"Surrey Heath","LAD23NMW":null,"ObjectId":158}},{"type":"Feature","id":159,"geometry":null,"properties":{"LAD22CD":"E07000215","LAD22NM":"Tandridge","LAD22NMW":null,"LAD23CD":"E07000215","LAD23NM":"Tandridge","LAD23NMW":null,"ObjectId":159}},{"type":"Feature","id":160,"geometry":null,"properties":{"LAD22CD":"E07000216","LAD22NM":"Waverley","LAD22NMW":null,"LAD23CD":"E07000216","LAD23NM":"Waverley","LAD23NMW":null,"ObjectId":160}},{"type":"Feature","id":161,"geometry":null,"properties":{"LAD22CD":"E07000217","LAD22NM":"Woking","LAD22NMW":null,"LAD23CD":"E07000217","LAD23NM":"Woking","LAD23NMW":null,"ObjectId":161}},{"type":"Feature","id":162,"geometry":null,"properties":{"LAD22CD":"E07000218","LAD22NM":"North Warwickshire","LAD22NMW":null,"LAD23CD":"E07000218","LAD23NM":"North Warwickshire","LAD23NMW":null,"ObjectId":162}},{"type":"Feature","id":163,"geometry":null,"properties":{"LAD22CD":"E08000032","LAD22NM":"Bradford","LAD22NMW":null,"LAD23CD":"E08000032","LAD23NM":"Bradford","LAD23NMW":null,"ObjectId":163}},{"type":"Feature","id":164,"geometry":null,"properties":{"LAD22CD":"E08000033","LAD22NM":"Calderdale","LAD22NMW":null,"LAD23CD":"E08000033","LAD23NM":"Calderdale","LAD23NMW":null,"ObjectId":164}},{"type":"Feature","id":165,"geometry":null,"properties":{"LAD22CD":"E08000034","LAD22NM":"Kirklees","LAD22NMW":null,"LAD23CD":"E08000034","LAD23NM":"Kirklees","LAD23NMW":null,"ObjectId":165}},{"type":"Feature","id":166,"geometry":null,"properties":{"LAD22CD":"E08000035","LAD22NM":"Leeds","LAD22NMW":null,"LAD23CD":"E08000035","LAD23NM":"Leeds","LAD23NMW":null,"ObjectId":166}},{"type":"Feature","id":167,"geometry":null,"properties":{"LAD22CD":"E08000036","LAD22NM":"Wakefield","LAD22NMW":null,"LAD23CD":"E08000036","LAD23NM":"Wakefield","LAD23NMW":null,"ObjectId":167}},{"type":"Feature","id":168,"geometry":null,"properties":{"LAD22CD":"E08000037","LAD22NM":"Gateshead","LAD22NMW":null,"LAD23CD":"E08000037","LAD23NM":"Gateshead","LAD23NMW":null,"ObjectId":168}},{"type":"Feature","id":169,"geometry":null,"properties":{"LAD22CD":"E09000001","LAD22NM":"City of London","LAD22NMW":null,"LAD23CD":"E09000001","LAD23NM":"City of London","LAD23NMW":null,"ObjectId":169}},{"type":"Feature","id":170,"geometry":null,"properties":{"LAD22CD":"E09000002","LAD22NM":"Barking and Dagenham","LAD22NMW":null,"LAD23CD":"E09000002","LAD23NM":"Barking and Dagenham","LAD23NMW":null,"ObjectId":170}},{"type":"Feature","id":171,"geometry":null,"properties":{"LAD22CD":"E09000003","LAD22NM":"Barnet","LAD22NMW":null,"LAD23CD":"E09000003","LAD23NM":"Barnet","LAD23NMW":null,"ObjectId":171}},{"type":"Feature","id":172,"geometry":null,"properties":{"LAD22CD":"E09000004","LAD22NM":"Bexley","LAD22NMW":null,"LAD23CD":"E09000004","LAD23NM":"Bexley","LAD23NMW":null,"ObjectId":172}},{"type":"Feature","id":173,"geometry":null,"properties":{"LAD22CD":"E09000005","LAD22NM":"Brent","LAD22NMW":null,"LAD23CD":"E09000005","LAD23NM":"Brent","LAD23NMW":null,"ObjectId":173}},{"type":"Feature","id":174,"geometry":null,"properties":{"LAD22CD":"E09000006","LAD22NM":"Bromley","LAD22NMW":null,"LAD23CD":"E09000006","LAD23NM":"Bromley","LAD23NMW":null,"ObjectId":174}},{"type":"Feature","id":175,"geometry":null,"properties":{"LAD22CD":"E09000007","LAD22NM":"Camden","LAD22NMW":null,"LAD23CD":"E09000007","LAD23NM":"Camden","LAD23NMW":null,"ObjectId":175}},{"type":"Feature","id":176,"geometry":null,"properties":{"LAD22CD":"E09000008","LAD22NM":"Croydon","LAD22NMW":null,"LAD23CD":"E09000008","LAD23NM":"Croydon","LAD23NMW":null,"ObjectId":176}},{"type":"Feature","id":177,"geometry":null,"properties":{"LAD22CD":"E09000009","LAD22NM":"Ealing","LAD22NMW":null,"LAD23CD":"E09000009","LAD23NM":"Ealing","LAD23NMW":null,"ObjectId":177}},{"type":"Feature","id":178,"geometry":null,"properties":{"LAD22CD":"E09000010","LAD22NM":"Enfield","LAD22NMW":null,"LAD23CD":"E09000010","LAD23NM":"Enfield","LAD23NMW":null,"ObjectId":178}},{"type":"Feature","id":179,"geometry":null,"properties":{"LAD22CD":"E09000011","LAD22NM":"Greenwich","LAD22NMW":null,"LAD23CD":"E09000011","LAD23NM":"Greenwich","LAD23NMW":null,"ObjectId":179}},{"type":"Feature","id":180,"geometry":null,"properties":{"LAD22CD":"E09000012","LAD22NM":"Hackney","LAD22NMW":null,"LAD23CD":"E09000012","LAD23NM":"Hackney","LAD23NMW":null,"ObjectId":180}},{"type":"Feature","id":181,"geometry":null,"properties":{"LAD22CD":"E09000013","LAD22NM":"Hammersmith and Fulham","LAD22NMW":null,"LAD23CD":"E09000013","LAD23NM":"Hammersmith and Fulham","LAD23NMW":null,"ObjectId":181}},{"type":"Feature","id":182,"geometry":null,"properties":{"LAD22CD":"E09000014","LAD22NM":"Haringey","LAD22NMW":null,"LAD23CD":"E09000014","LAD23NM":"Haringey","LAD23NMW":null,"ObjectId":182}},{"type":"Feature","id":183,"geometry":null,"properties":{"LAD22CD":"E09000015","LAD22NM":"Harrow","LAD22NMW":null,"LAD23CD":"E09000015","LAD23NM":"Harrow","LAD23NMW":null,"ObjectId":183}},{"type":"Feature","id":184,"geometry":null,"properties":{"LAD22CD":"E09000016","LAD22NM":"Havering","LAD22NMW":null,"LAD23CD":"E09000016","LAD23NM":"Havering","LAD23NMW":null,"ObjectId":184}},{"type":"Feature","id":185,"geometry":null,"properties":{"LAD22CD":"E09000017","LAD22NM":"Hillingdon","LAD22NMW":null,"LAD23CD":"E09000017","LAD23NM":"Hillingdon","LAD23NMW":null,"ObjectId":185}},{"type":"Feature","id":186,"geometry":null,"properties":{"LAD22CD":"E09000018","LAD22NM":"Hounslow","LAD22NMW":null,"LAD23CD":"E09000018","LAD23NM":"Hounslow","LAD23NMW":null,"ObjectId":186}},{"type":"Feature","id":187,"geometry":null,"properties":{"LAD22CD":"E09000019","LAD22NM":"Islington","LAD22NMW":null,"LAD23CD":"E09000019","LAD23NM":"Islington","LAD23NMW":null,"ObjectId":187}},{"type":"Feature","id":188,"geometry":null,"properties":{"LAD22CD":"E09000020","LAD22NM":"Kensington and Chelsea","LAD22NMW":null,"LAD23CD":"E09000020","LAD23NM":"Kensington and Chelsea","LAD23NMW":null,"ObjectId":188}},{"type":"Feature","id":189,"geometry":null,"properties":{"LAD22CD":"E09000021","LAD22NM":"Kingston upon Thames","LAD22NMW":null,"LAD23CD":"E09000021","LAD23NM":"Kingston upon Thames","LAD23NMW":null,"ObjectId":189}},{"type":"Feature","id":190,"geometry":null,"properties":{"LAD22CD":"E09000022","LAD22NM":"Lambeth","LAD22NMW":null,"LAD23CD":"E09000022","LAD23NM":"Lambeth","LAD23NMW":null,"ObjectId":190}},{"type":"Feature","id":191,"geometry":null,"properties":{"LAD22CD":"E09000023","LAD22NM":"Lewisham","LAD22NMW":null,"LAD23CD":"E09000023","LAD23NM":"Lewisham","LAD23NMW":null,"ObjectId":191}},{"type":"Feature","id":192,"geometry":null,"properties":{"LAD22CD":"E09000024","LAD22NM":"Merton","LAD22NMW":null,"LAD23CD":"E09000024","LAD23NM":"Merton","LAD23NMW":null,"ObjectId":192}},{"type":"Feature","id":193,"geometry":null,"properties":{"LAD22CD":"E09000025","LAD22NM":"Newham","LAD22NMW":null,"LAD23CD":"E09000025","LAD23NM":"Newham","LAD23NMW":null,"ObjectId":193}},{"type":"Feature","id":194,"geometry":null,"properties":{"LAD22CD":"E09000026","LAD22NM":"Redbridge","LAD22NMW":null,"LAD23CD":"E09000026","LAD23NM":"Redbridge","LAD23NMW":null,"ObjectId":194}},{"type":"Feature","id":195,"geometry":null,"properties":{"LAD22CD":"E09000027","LAD22NM":"Richmond upon Thames","LAD22NMW":null,"LAD23CD":"E09000027","LAD23NM":"Richmond upon Thames","LAD23NMW":null,"ObjectId":195}},{"type":"Feature","id":196,"geometry":null,"properties":{"LAD22CD":"E09000028","LAD22NM":"Southwark","LAD22NMW":null,"LAD23CD":"E09000028","LAD23NM":"Southwark","LAD23NMW":null,"ObjectId":196}},{"type":"Feature","id":197,"geometry":null,"properties":{"LAD22CD":"E09000029","LAD22NM":"Sutton","LAD22NMW":null,"LAD23CD":"E09000029","LAD23NM":"Sutton","LAD23NMW":null,"ObjectId":197}},{"type":"Feature","id":198,"geometry":null,"properties":{"LAD22CD":"E09000030","LAD22NM":"Tower Hamlets","LAD22NMW":null,"LAD23CD":"E09000030","LAD23NM":"Tower Hamlets","LAD23NMW":null,"ObjectId":198}},{"type":"Feature","id":199,"geometry":null,"properties":{"LAD22CD":"E09000031","LAD22NM":"Waltham Forest","LAD22NMW":null,"LAD23CD":"E09000031","LAD23NM":"Waltham Forest","LAD23NMW":null,"ObjectId":199}},{"type":"Feature","id":200,"geometry":null,"properties":{"LAD22CD":"E09000032","LAD22NM":"Wandsworth","LAD22NMW":null,"LAD23CD":"E09000032","LAD23NM":"Wandsworth","LAD23NMW":null,"ObjectId":200}},{"type":"Feature","id":201,"geometry":null,"properties":{"LAD22CD":"E09000033","LAD22NM":"Westminster","LAD22NMW":null,"LAD23CD":"E09000033","LAD23NM":"Westminster","LAD23NMW":null,"ObjectId":201}},{"type":"Feature","id":202,"geometry":null,"properties":{"LAD22CD":"N09000001","LAD22NM":"Antrim and Newtownabbey","LAD22NMW":null,"LAD23CD":"N09000001","LAD23NM":"Antrim and Newtownabbey","LAD23NMW":null,"ObjectId":202}},{"type":"Feature","id":203,"geometry":null,"properties":{"LAD22CD":"N09000002","LAD22NM":"Armagh City, Banbridge and Craigavon","LAD22NMW":null,"LAD23CD":"N09000002","LAD23NM":"Armagh City, Banbridge and Craigavon","LAD23NMW":null,"ObjectId":203}},{"type":"Feature","id":204,"geometry":null,"properties":{"LAD22CD":"N09000003","LAD22NM":"Belfast","LAD22NMW":null,"LAD23CD":"N09000003","LAD23NM":"Belfast","LAD23NMW":null,"ObjectId":204}},{"type":"Feature","id":205,"geometry":null,"properties":{"LAD22CD":"N09000004","LAD22NM":"Causeway Coast and Glens","LAD22NMW":null,"LAD23CD":"N09000004","LAD23NM":"Causeway Coast and Glens","LAD23NMW":null,"ObjectId":205}},{"type":"Feature","id":206,"geometry":null,"properties":{"LAD22CD":"N09000005","LAD22NM":"Derry City and Strabane","LAD22NMW":null,"LAD23CD":"N09000005","LAD23NM":"Derry City and Strabane","LAD23NMW":null,"ObjectId":206}},{"type":"Feature","id":207,"geometry":null,"properties":{"LAD22CD":"N09000006","LAD22NM":"Fermanagh and Omagh","LAD22NMW":null,"LAD23CD":"N09000006","LAD23NM":"Fermanagh and Omagh","LAD23NMW":null,"ObjectId":207}},{"type":"Feature","id":208,"geometry":null,"properties":{"LAD22CD":"N09000007","LAD22NM":"Lisburn and Castlereagh","LAD22NMW":null,"LAD23CD":"N09000007","LAD23NM":"Lisburn and Castlereagh","LAD23NMW":null,"ObjectId":208}},{"type":"Feature","id":209,"geometry":null,"properties":{"LAD22CD":"N09000008","LAD22NM":"Mid and East Antrim","LAD22NMW":null,"LAD23CD":"N09000008","LAD23NM":"Mid and East Antrim","LAD23NMW":null,"ObjectId":209}},{"type":"Feature","id":210,"geometry":null,"properties":{"LAD22CD":"N09000009","LAD22NM":"Mid Ulster","LAD22NMW":null,"LAD23CD":"N09000009","LAD23NM":"Mid Ulster","LAD23NMW":null,"ObjectId":210}},{"type":"Feature","id":211,"geometry":null,"properties":{"LAD22CD":"N09000010","LAD22NM":"Newry, Mourne and Down","LAD22NMW":null,"LAD23CD":"N09000010","LAD23NM":"Newry, Mourne and Down","LAD23NMW":null,"ObjectId":211}},{"type":"Feature","id":212,"geometry":null,"properties":{"LAD22CD":"N09000011","LAD22NM":"Ards and North Down","LAD22NMW":null,"LAD23CD":"N09000011","LAD23NM":"Ards and North Down","LAD23NMW":null,"ObjectId":212}},{"type":"Feature","id":213,"geometry":null,"properties":{"LAD22CD":"S12000005","LAD22NM":"Clackmannanshire","LAD22NMW":null,"LAD23CD":"S12000005","LAD23NM":"Clackmannanshire","LAD23NMW":null,"ObjectId":213}},{"type":"Feature","id":214,"geometry":null,"properties":{"LAD22CD":"S12000006","LAD22NM":"Dumfries and Galloway","LAD22NMW":null,"LAD23CD":"S12000006","LAD23NM":"Dumfries and Galloway","LAD23NMW":null,"ObjectId":214}},{"type":"Feature","id":215,"geometry":null,"properties":{"LAD22CD":"S12000008","LAD22NM":"East Ayrshire","LAD22NMW":null,"LAD23CD":"S12000008","LAD23NM":"East Ayrshire","LAD23NMW":null,"ObjectId":215}},{"type":"Feature","id":216,"geometry":null,"properties":{"LAD22CD":"S12000010","LAD22NM":"East Lothian","LAD22NMW":null,"LAD23CD":"S12000010","LAD23NM":"East Lothian","LAD23NMW":null,"ObjectId":216}},{"type":"Feature","id":217,"geometry":null,"properties":{"LAD22CD":"E06000058","LAD22NM":"Bournemouth, Christchurch and Poole","LAD22NMW":null,"LAD23CD":"E06000058","LAD23NM":"Bournemouth, Christchurch and Poole","LAD23NMW":null,"ObjectId":217}},{"type":"Feature","id":218,"geometry":null,"properties":{"LAD22CD":"E06000059","LAD22NM":"Dorset","LAD22NMW":null,"LAD23CD":"E06000059","LAD23NM":"Dorset","LAD23NMW":null,"ObjectId":218}},{"type":"Feature","id":219,"geometry":null,"properties":{"LAD22CD":"E06000060","LAD22NM":"Buckinghamshire","LAD22NMW":null,"LAD23CD":"E06000060","LAD23NM":"Buckinghamshire","LAD23NMW":null,"ObjectId":219}},{"type":"Feature","id":220,"geometry":null,"properties":{"LAD22CD":"E06000061","LAD22NM":"North Northamptonshire","LAD22NMW":null,"LAD23CD":"E06000061","LAD23NM":"North Northamptonshire","LAD23NMW":null,"ObjectId":220}},{"type":"Feature","id":221,"geometry":null,"properties":{"LAD22CD":"E06000062","LAD22NM":"West Northamptonshire","LAD22NMW":null,"LAD23CD":"E06000062","LAD23NM":"West Northamptonshire","LAD23NMW":null,"ObjectId":221}},{"type":"Feature","id":222,"geometry":null,"properties":{"LAD22CD":"E07000008","LAD22NM":"Cambridge","LAD22NMW":null,"LAD23CD":"E07000008","LAD23NM":"Cambridge","LAD23NMW":null,"ObjectId":222}},{"type":"Feature","id":223,"geometry":null,"properties":{"LAD22CD":"E07000009","LAD22NM":"East Cambridgeshire","LAD22NMW":null,"LAD23CD":"E07000009","LAD23NM":"East Cambridgeshire","LAD23NMW":null,"ObjectId":223}},{"type":"Feature","id":224,"geometry":null,"properties":{"LAD22CD":"E07000010","LAD22NM":"Fenland","LAD22NMW":null,"LAD23CD":"E07000010","LAD23NM":"Fenland","LAD23NMW":null,"ObjectId":224}},{"type":"Feature","id":225,"geometry":null,"properties":{"LAD22CD":"E07000011","LAD22NM":"Huntingdonshire","LAD22NMW":null,"LAD23CD":"E07000011","LAD23NM":"Huntingdonshire","LAD23NMW":null,"ObjectId":225}},{"type":"Feature","id":226,"geometry":null,"properties":{"LAD22CD":"E07000012","LAD22NM":"South Cambridgeshire","LAD22NMW":null,"LAD23CD":"E07000012","LAD23NM":"South Cambridgeshire","LAD23NMW":null,"ObjectId":226}},{"type":"Feature","id":227,"geometry":null,"properties":{"LAD22CD":"E07000026","LAD22NM":"Allerdale","LAD22NMW":null,"LAD23CD":"E06000063","LAD23NM":"Cumberland","LAD23NMW":null,"ObjectId":227}},{"type":"Feature","id":228,"geometry":null,"properties":{"LAD22CD":"E07000027","LAD22NM":"Barrow-in-Furness","LAD22NMW":null,"LAD23CD":"E06000064","LAD23NM":"Westmorland and Furness","LAD23NMW":null,"ObjectId":228}},{"type":"Feature","id":229,"geometry":null,"properties":{"LAD22CD":"E07000028","LAD22NM":"Carlisle","LAD22NMW":null,"LAD23CD":"E06000063","LAD23NM":"Cumberland","LAD23NMW":null,"ObjectId":229}},{"type":"Feature","id":230,"geometry":null,"properties":{"LAD22CD":"E07000029","LAD22NM":"Copeland","LAD22NMW":null,"LAD23CD":"E06000063","LAD23NM":"Cumberland","LAD23NMW":null,"ObjectId":230}},{"type":"Feature","id":231,"geometry":null,"properties":{"LAD22CD":"E07000030","LAD22NM":"Eden","LAD22NMW":null,"LAD23CD":"E06000064","LAD23NM":"Westmorland and Furness","LAD23NMW":null,"ObjectId":231}},{"type":"Feature","id":232,"geometry":null,"properties":{"LAD22CD":"E07000031","LAD22NM":"South Lakeland","LAD22NMW":null,"LAD23CD":"E06000064","LAD23NM":"Westmorland and Furness","LAD23NMW":null,"ObjectId":232}},{"type":"Feature","id":233,"geometry":null,"properties":{"LAD22CD":"E07000032","LAD22NM":"Amber Valley","LAD22NMW":null,"LAD23CD":"E07000032","LAD23NM":"Amber Valley","LAD23NMW":null,"ObjectId":233}},{"type":"Feature","id":234,"geometry":null,"properties":{"LAD22CD":"E07000033","LAD22NM":"Bolsover","LAD22NMW":null,"LAD23CD":"E07000033","LAD23NM":"Bolsover","LAD23NMW":null,"ObjectId":234}},{"type":"Feature","id":235,"geometry":null,"properties":{"LAD22CD":"E07000034","LAD22NM":"Chesterfield","LAD22NMW":null,"LAD23CD":"E07000034","LAD23NM":"Chesterfield","LAD23NMW":null,"ObjectId":235}},{"type":"Feature","id":236,"geometry":null,"properties":{"LAD22CD":"E07000035","LAD22NM":"Derbyshire Dales","LAD22NMW":null,"LAD23CD":"E07000035","LAD23NM":"Derbyshire Dales","LAD23NMW":null,"ObjectId":236}},{"type":"Feature","id":237,"geometry":null,"properties":{"LAD22CD":"E07000036","LAD22NM":"Erewash","LAD22NMW":null,"LAD23CD":"E07000036","LAD23NM":"Erewash","LAD23NMW":null,"ObjectId":237}},{"type":"Feature","id":238,"geometry":null,"properties":{"LAD22CD":"E07000037","LAD22NM":"High Peak","LAD22NMW":null,"LAD23CD":"E07000037","LAD23NM":"High Peak","LAD23NMW":null,"ObjectId":238}},{"type":"Feature","id":239,"geometry":null,"properties":{"LAD22CD":"E07000038","LAD22NM":"North East Derbyshire","LAD22NMW":null,"LAD23CD":"E07000038","LAD23NM":"North East Derbyshire","LAD23NMW":null,"ObjectId":239}},{"type":"Feature","id":240,"geometry":null,"properties":{"LAD22CD":"E07000039","LAD22NM":"South Derbyshire","LAD22NMW":null,"LAD23CD":"E07000039","LAD23NM":"South Derbyshire","LAD23NMW":null,"ObjectId":240}},{"type":"Feature","id":241,"geometry":null,"properties":{"LAD22CD":"E07000040","LAD22NM":"East Devon","LAD22NMW":null,"LAD23CD":"E07000040","LAD23NM":"East Devon","LAD23NMW":null,"ObjectId":241}},{"type":"Feature","id":242,"geometry":null,"properties":{"LAD22CD":"E07000041","LAD22NM":"Exeter","LAD22NMW":null,"LAD23CD":"E07000041","LAD23NM":"Exeter","LAD23NMW":null,"ObjectId":242}},{"type":"Feature","id":243,"geometry":null,"properties":{"LAD22CD":"E07000042","LAD22NM":"Mid Devon","LAD22NMW":null,"LAD23CD":"E07000042","LAD23NM":"Mid Devon","LAD23NMW":null,"ObjectId":243}},{"type":"Feature","id":244,"geometry":null,"properties":{"LAD22CD":"E07000043","LAD22NM":"North Devon","LAD22NMW":null,"LAD23CD":"E07000043","LAD23NM":"North Devon","LAD23NMW":null,"ObjectId":244}},{"type":"Feature","id":245,"geometry":null,"properties":{"LAD22CD":"E07000044","LAD22NM":"South Hams","LAD22NMW":null,"LAD23CD":"E07000044","LAD23NM":"South Hams","LAD23NMW":null,"ObjectId":245}},{"type":"Feature","id":246,"geometry":null,"properties":{"LAD22CD":"E07000045","LAD22NM":"Teignbridge","LAD22NMW":null,"LAD23CD":"E07000045","LAD23NM":"Teignbridge","LAD23NMW":null,"ObjectId":246}},{"type":"Feature","id":247,"geometry":null,"properties":{"LAD22CD":"E07000046","LAD22NM":"Torridge","LAD22NMW":null,"LAD23CD":"E07000046","LAD23NM":"Torridge","LAD23NMW":null,"ObjectId":247}},{"type":"Feature","id":248,"geometry":null,"properties":{"LAD22CD":"E07000047","LAD22NM":"West Devon","LAD22NMW":null,"LAD23CD":"E07000047","LAD23NM":"West Devon","LAD23NMW":null,"ObjectId":248}},{"type":"Feature","id":249,"geometry":null,"properties":{"LAD22CD":"E07000061","LAD22NM":"Eastbourne","LAD22NMW":null,"LAD23CD":"E07000061","LAD23NM":"Eastbourne","LAD23NMW":null,"ObjectId":249}},{"type":"Feature","id":250,"geometry":null,"properties":{"LAD22CD":"E07000062","LAD22NM":"Hastings","LAD22NMW":null,"LAD23CD":"E07000062","LAD23NM":"Hastings","LAD23NMW":null,"ObjectId":250}},{"type":"Feature","id":251,"geometry":null,"properties":{"LAD22CD":"E07000063","LAD22NM":"Lewes","LAD22NMW":null,"LAD23CD":"E07000063","LAD23NM":"Lewes","LAD23NMW":null,"ObjectId":251}},{"type":"Feature","id":252,"geometry":null,"properties":{"LAD22CD":"E07000064","LAD22NM":"Rother","LAD22NMW":null,"LAD23CD":"E07000064","LAD23NM":"Rother","LAD23NMW":null,"ObjectId":252}},{"type":"Feature","id":253,"geometry":null,"properties":{"LAD22CD":"E07000065","LAD22NM":"Wealden","LAD22NMW":null,"LAD23CD":"E07000065","LAD23NM":"Wealden","LAD23NMW":null,"ObjectId":253}},{"type":"Feature","id":254,"geometry":null,"properties":{"LAD22CD":"E07000066","LAD22NM":"Basildon","LAD22NMW":null,"LAD23CD":"E07000066","LAD23NM":"Basildon","LAD23NMW":null,"ObjectId":254}},{"type":"Feature","id":255,"geometry":null,"properties":{"LAD22CD":"E07000067","LAD22NM":"Braintree","LAD22NMW":null,"LAD23CD":"E07000067","LAD23NM":"Braintree","LAD23NMW":null,"ObjectId":255}},{"type":"Feature","id":256,"geometry":null,"properties":{"LAD22CD":"E07000068","LAD22NM":"Brentwood","LAD22NMW":null,"LAD23CD":"E07000068","LAD23NM":"Brentwood","LAD23NMW":null,"ObjectId":256}},{"type":"Feature","id":257,"geometry":null,"properties":{"LAD22CD":"E07000069","LAD22NM":"Castle Point","LAD22NMW":null,"LAD23CD":"E07000069","LAD23NM":"Castle Point","LAD23NMW":null,"ObjectId":257}},{"type":"Feature","id":258,"geometry":null,"properties":{"LAD22CD":"E07000070","LAD22NM":"Chelmsford","LAD22NMW":null,"LAD23CD":"E07000070","LAD23NM":"Chelmsford","LAD23NMW":null,"ObjectId":258}},{"type":"Feature","id":259,"geometry":null,"properties":{"LAD22CD":"E07000071","LAD22NM":"Colchester","LAD22NMW":null,"LAD23CD":"E07000071","LAD23NM":"Colchester","LAD23NMW":null,"ObjectId":259}},{"type":"Feature","id":260,"geometry":null,"properties":{"LAD22CD":"E07000072","LAD22NM":"Epping Forest","LAD22NMW":null,"LAD23CD":"E07000072","LAD23NM":"Epping Forest","LAD23NMW":null,"ObjectId":260}},{"type":"Feature","id":261,"geometry":null,"properties":{"LAD22CD":"E07000073","LAD22NM":"Harlow","LAD22NMW":null,"LAD23CD":"E07000073","LAD23NM":"Harlow","LAD23NMW":null,"ObjectId":261}},{"type":"Feature","id":262,"geometry":null,"properties":{"LAD22CD":"E07000074","LAD22NM":"Maldon","LAD22NMW":null,"LAD23CD":"E07000074","LAD23NM":"Maldon","LAD23NMW":null,"ObjectId":262}},{"type":"Feature","id":263,"geometry":null,"properties":{"LAD22CD":"E07000075","LAD22NM":"Rochford","LAD22NMW":null,"LAD23CD":"E07000075","LAD23NM":"Rochford","LAD23NMW":null,"ObjectId":263}},{"type":"Feature","id":264,"geometry":null,"properties":{"LAD22CD":"E07000076","LAD22NM":"Tendring","LAD22NMW":null,"LAD23CD":"E07000076","LAD23NM":"Tendring","LAD23NMW":null,"ObjectId":264}},{"type":"Feature","id":265,"geometry":null,"properties":{"LAD22CD":"E07000083","LAD22NM":"Tewkesbury","LAD22NMW":null,"LAD23CD":"E07000083","LAD23NM":"Tewkesbury","LAD23NMW":null,"ObjectId":265}},{"type":"Feature","id":266,"geometry":null,"properties":{"LAD22CD":"E07000077","LAD22NM":"Uttlesford","LAD22NMW":null,"LAD23CD":"E07000077","LAD23NM":"Uttlesford","LAD23NMW":null,"ObjectId":266}},{"type":"Feature","id":267,"geometry":null,"properties":{"LAD22CD":"E07000078","LAD22NM":"Cheltenham","LAD22NMW":null,"LAD23CD":"E07000078","LAD23NM":"Cheltenham","LAD23NMW":null,"ObjectId":267}},{"type":"Feature","id":268,"geometry":null,"properties":{"LAD22CD":"E07000079","LAD22NM":"Cotswold","LAD22NMW":null,"LAD23CD":"E07000079","LAD23NM":"Cotswold","LAD23NMW":null,"ObjectId":268}},{"type":"Feature","id":269,"geometry":null,"properties":{"LAD22CD":"E07000080","LAD22NM":"Forest of Dean","LAD22NMW":null,"LAD23CD":"E07000080","LAD23NM":"Forest of Dean","LAD23NMW":null,"ObjectId":269}},{"type":"Feature","id":270,"geometry":null,"properties":{"LAD22CD":"E07000081","LAD22NM":"Gloucester","LAD22NMW":null,"LAD23CD":"E07000081","LAD23NM":"Gloucester","LAD23NMW":null,"ObjectId":270}},{"type":"Feature","id":271,"geometry":null,"properties":{"LAD22CD":"E07000082","LAD22NM":"Stroud","LAD22NMW":null,"LAD23CD":"E07000082","LAD23NM":"Stroud","LAD23NMW":null,"ObjectId":271}},{"type":"Feature","id":272,"geometry":null,"properties":{"LAD22CD":"E07000084","LAD22NM":"Basingstoke and Deane","LAD22NMW":null,"LAD23CD":"E07000084","LAD23NM":"Basingstoke and Deane","LAD23NMW":null,"ObjectId":272}},{"type":"Feature","id":273,"geometry":null,"properties":{"LAD22CD":"E07000085","LAD22NM":"East Hampshire","LAD22NMW":null,"LAD23CD":"E07000085","LAD23NM":"East Hampshire","LAD23NMW":null,"ObjectId":273}},{"type":"Feature","id":274,"geometry":null,"properties":{"LAD22CD":"E07000086","LAD22NM":"Eastleigh","LAD22NMW":null,"LAD23CD":"E07000086","LAD23NM":"Eastleigh","LAD23NMW":null,"ObjectId":274}},{"type":"Feature","id":275,"geometry":null,"properties":{"LAD22CD":"E07000087","LAD22NM":"Fareham","LAD22NMW":null,"LAD23CD":"E07000087","LAD23NM":"Fareham","LAD23NMW":null,"ObjectId":275}},{"type":"Feature","id":276,"geometry":null,"properties":{"LAD22CD":"E07000088","LAD22NM":"Gosport","LAD22NMW":null,"LAD23CD":"E07000088","LAD23NM":"Gosport","LAD23NMW":null,"ObjectId":276}},{"type":"Feature","id":277,"geometry":null,"properties":{"LAD22CD":"E07000089","LAD22NM":"Hart","LAD22NMW":null,"LAD23CD":"E07000089","LAD23NM":"Hart","LAD23NMW":null,"ObjectId":277}},{"type":"Feature","id":278,"geometry":null,"properties":{"LAD22CD":"E07000090","LAD22NM":"Havant","LAD22NMW":null,"LAD23CD":"E07000090","LAD23NM":"Havant","LAD23NMW":null,"ObjectId":278}},{"type":"Feature","id":279,"geometry":null,"properties":{"LAD22CD":"E07000091","LAD22NM":"New Forest","LAD22NMW":null,"LAD23CD":"E07000091","LAD23NM":"New Forest","LAD23NMW":null,"ObjectId":279}},{"type":"Feature","id":280,"geometry":null,"properties":{"LAD22CD":"E07000092","LAD22NM":"Rushmoor","LAD22NMW":null,"LAD23CD":"E07000092","LAD23NM":"Rushmoor","LAD23NMW":null,"ObjectId":280}},{"type":"Feature","id":281,"geometry":null,"properties":{"LAD22CD":"E07000093","LAD22NM":"Test Valley","LAD22NMW":null,"LAD23CD":"E07000093","LAD23NM":"Test Valley","LAD23NMW":null,"ObjectId":281}},{"type":"Feature","id":282,"geometry":null,"properties":{"LAD22CD":"E07000094","LAD22NM":"Winchester","LAD22NMW":null,"LAD23CD":"E07000094","LAD23NM":"Winchester","LAD23NMW":null,"ObjectId":282}},{"type":"Feature","id":283,"geometry":null,"properties":{"LAD22CD":"E07000095","LAD22NM":"Broxbourne","LAD22NMW":null,"LAD23CD":"E07000095","LAD23NM":"Broxbourne","LAD23NMW":null,"ObjectId":283}},{"type":"Feature","id":284,"geometry":null,"properties":{"LAD22CD":"E07000096","LAD22NM":"Dacorum","LAD22NMW":null,"LAD23CD":"E07000096","LAD23NM":"Dacorum","LAD23NMW":null,"ObjectId":284}},{"type":"Feature","id":285,"geometry":null,"properties":{"LAD22CD":"E07000098","LAD22NM":"Hertsmere","LAD22NMW":null,"LAD23CD":"E07000098","LAD23NM":"Hertsmere","LAD23NMW":null,"ObjectId":285}},{"type":"Feature","id":286,"geometry":null,"properties":{"LAD22CD":"E07000099","LAD22NM":"North Hertfordshire","LAD22NMW":null,"LAD23CD":"E07000099","LAD23NM":"North Hertfordshire","LAD23NMW":null,"ObjectId":286}},{"type":"Feature","id":287,"geometry":null,"properties":{"LAD22CD":"E07000102","LAD22NM":"Three Rivers","LAD22NMW":null,"LAD23CD":"E07000102","LAD23NM":"Three Rivers","LAD23NMW":null,"ObjectId":287}},{"type":"Feature","id":288,"geometry":null,"properties":{"LAD22CD":"E07000103","LAD22NM":"Watford","LAD22NMW":null,"LAD23CD":"E07000103","LAD23NM":"Watford","LAD23NMW":null,"ObjectId":288}},{"type":"Feature","id":289,"geometry":null,"properties":{"LAD22CD":"E07000105","LAD22NM":"Ashford","LAD22NMW":null,"LAD23CD":"E07000105","LAD23NM":"Ashford","LAD23NMW":null,"ObjectId":289}},{"type":"Feature","id":290,"geometry":null,"properties":{"LAD22CD":"E07000106","LAD22NM":"Canterbury","LAD22NMW":null,"LAD23CD":"E07000106","LAD23NM":"Canterbury","LAD23NMW":null,"ObjectId":290}},{"type":"Feature","id":291,"geometry":null,"properties":{"LAD22CD":"E07000107","LAD22NM":"Dartford","LAD22NMW":null,"LAD23CD":"E07000107","LAD23NM":"Dartford","LAD23NMW":null,"ObjectId":291}},{"type":"Feature","id":292,"geometry":null,"properties":{"LAD22CD":"E07000108","LAD22NM":"Dover","LAD22NMW":null,"LAD23CD":"E07000108","LAD23NM":"Dover","LAD23NMW":null,"ObjectId":292}},{"type":"Feature","id":293,"geometry":null,"properties":{"LAD22CD":"E07000109","LAD22NM":"Gravesham","LAD22NMW":null,"LAD23CD":"E07000109","LAD23NM":"Gravesham","LAD23NMW":null,"ObjectId":293}},{"type":"Feature","id":294,"geometry":null,"properties":{"LAD22CD":"E07000110","LAD22NM":"Maidstone","LAD22NMW":null,"LAD23CD":"E07000110","LAD23NM":"Maidstone","LAD23NMW":null,"ObjectId":294}},{"type":"Feature","id":295,"geometry":null,"properties":{"LAD22CD":"E07000111","LAD22NM":"Sevenoaks","LAD22NMW":null,"LAD23CD":"E07000111","LAD23NM":"Sevenoaks","LAD23NMW":null,"ObjectId":295}},{"type":"Feature","id":296,"geometry":null,"properties":{"LAD22CD":"E07000112","LAD22NM":"Folkestone and Hythe","LAD22NMW":null,"LAD23CD":"E07000112","LAD23NM":"Folkestone and Hythe","LAD23NMW":null,"ObjectId":296}},{"type":"Feature","id":297,"geometry":null,"properties":{"LAD22CD":"E07000113","LAD22NM":"Swale","LAD22NMW":null,"LAD23CD":"E07000113","LAD23NM":"Swale","LAD23NMW":null,"ObjectId":297}},{"type":"Feature","id":298,"geometry":null,"properties":{"LAD22CD":"E07000114","LAD22NM":"Thanet","LAD22NMW":null,"LAD23CD":"E07000114","LAD23NM":"Thanet","LAD23NMW":null,"ObjectId":298}},{"type":"Feature","id":299,"geometry":null,"properties":{"LAD22CD":"E07000115","LAD22NM":"Tonbridge and Malling","LAD22NMW":null,"LAD23CD":"E07000115","LAD23NM":"Tonbridge and Malling","LAD23NMW":null,"ObjectId":299}},{"type":"Feature","id":300,"geometry":null,"properties":{"LAD22CD":"E07000116","LAD22NM":"Tunbridge Wells","LAD22NMW":null,"LAD23CD":"E07000116","LAD23NM":"Tunbridge Wells","LAD23NMW":null,"ObjectId":300}},{"type":"Feature","id":301,"geometry":null,"properties":{"LAD22CD":"E07000117","LAD22NM":"Burnley","LAD22NMW":null,"LAD23CD":"E07000117","LAD23NM":"Burnley","LAD23NMW":null,"ObjectId":301}},{"type":"Feature","id":302,"geometry":null,"properties":{"LAD22CD":"E07000118","LAD22NM":"Chorley","LAD22NMW":null,"LAD23CD":"E07000118","LAD23NM":"Chorley","LAD23NMW":null,"ObjectId":302}},{"type":"Feature","id":303,"geometry":null,"properties":{"LAD22CD":"E07000119","LAD22NM":"Fylde","LAD22NMW":null,"LAD23CD":"E07000119","LAD23NM":"Fylde","LAD23NMW":null,"ObjectId":303}},{"type":"Feature","id":304,"geometry":null,"properties":{"LAD22CD":"E07000120","LAD22NM":"Hyndburn","LAD22NMW":null,"LAD23CD":"E07000120","LAD23NM":"Hyndburn","LAD23NMW":null,"ObjectId":304}},{"type":"Feature","id":305,"geometry":null,"properties":{"LAD22CD":"E07000121","LAD22NM":"Lancaster","LAD22NMW":null,"LAD23CD":"E07000121","LAD23NM":"Lancaster","LAD23NMW":null,"ObjectId":305}},{"type":"Feature","id":306,"geometry":null,"properties":{"LAD22CD":"E07000122","LAD22NM":"Pendle","LAD22NMW":null,"LAD23CD":"E07000122","LAD23NM":"Pendle","LAD23NMW":null,"ObjectId":306}},{"type":"Feature","id":307,"geometry":null,"properties":{"LAD22CD":"E07000123","LAD22NM":"Preston","LAD22NMW":null,"LAD23CD":"E07000123","LAD23NM":"Preston","LAD23NMW":null,"ObjectId":307}},{"type":"Feature","id":308,"geometry":null,"properties":{"LAD22CD":"E07000124","LAD22NM":"Ribble Valley","LAD22NMW":null,"LAD23CD":"E07000124","LAD23NM":"Ribble Valley","LAD23NMW":null,"ObjectId":308}},{"type":"Feature","id":309,"geometry":null,"properties":{"LAD22CD":"E07000125","LAD22NM":"Rossendale","LAD22NMW":null,"LAD23CD":"E07000125","LAD23NM":"Rossendale","LAD23NMW":null,"ObjectId":309}},{"type":"Feature","id":310,"geometry":null,"properties":{"LAD22CD":"E07000126","LAD22NM":"South Ribble","LAD22NMW":null,"LAD23CD":"E07000126","LAD23NM":"South Ribble","LAD23NMW":null,"ObjectId":310}},{"type":"Feature","id":311,"geometry":null,"properties":{"LAD22CD":"E07000127","LAD22NM":"West Lancashire","LAD22NMW":null,"LAD23CD":"E07000127","LAD23NM":"West Lancashire","LAD23NMW":null,"ObjectId":311}},{"type":"Feature","id":312,"geometry":null,"properties":{"LAD22CD":"E07000128","LAD22NM":"Wyre","LAD22NMW":null,"LAD23CD":"E07000128","LAD23NM":"Wyre","LAD23NMW":null,"ObjectId":312}},{"type":"Feature","id":313,"geometry":null,"properties":{"LAD22CD":"E07000129","LAD22NM":"Blaby","LAD22NMW":null,"LAD23CD":"E07000129","LAD23NM":"Blaby","LAD23NMW":null,"ObjectId":313}},{"type":"Feature","id":314,"geometry":null,"properties":{"LAD22CD":"E07000130","LAD22NM":"Charnwood","LAD22NMW":null,"LAD23CD":"E07000130","LAD23NM":"Charnwood","LAD23NMW":null,"ObjectId":314}},{"type":"Feature","id":315,"geometry":null,"properties":{"LAD22CD":"E07000131","LAD22NM":"Harborough","LAD22NMW":null,"LAD23CD":"E07000131","LAD23NM":"Harborough","LAD23NMW":null,"ObjectId":315}},{"type":"Feature","id":316,"geometry":null,"properties":{"LAD22CD":"E07000132","LAD22NM":"Hinckley and Bosworth","LAD22NMW":null,"LAD23CD":"E07000132","LAD23NM":"Hinckley and Bosworth","LAD23NMW":null,"ObjectId":316}},{"type":"Feature","id":317,"geometry":null,"properties":{"LAD22CD":"E07000133","LAD22NM":"Melton","LAD22NMW":null,"LAD23CD":"E07000133","LAD23NM":"Melton","LAD23NMW":null,"ObjectId":317}},{"type":"Feature","id":318,"geometry":null,"properties":{"LAD22CD":"E07000134","LAD22NM":"North West Leicestershire","LAD22NMW":null,"LAD23CD":"E07000134","LAD23NM":"North West Leicestershire","LAD23NMW":null,"ObjectId":318}},{"type":"Feature","id":319,"geometry":null,"properties":{"LAD22CD":"E07000135","LAD22NM":"Oadby and Wigston","LAD22NMW":null,"LAD23CD":"E07000135","LAD23NM":"Oadby and Wigston","LAD23NMW":null,"ObjectId":319}},{"type":"Feature","id":320,"geometry":null,"properties":{"LAD22CD":"E07000136","LAD22NM":"Boston","LAD22NMW":null,"LAD23CD":"E07000136","LAD23NM":"Boston","LAD23NMW":null,"ObjectId":320}},{"type":"Feature","id":321,"geometry":null,"properties":{"LAD22CD":"E07000137","LAD22NM":"East Lindsey","LAD22NMW":null,"LAD23CD":"E07000137","LAD23NM":"East Lindsey","LAD23NMW":null,"ObjectId":321}},{"type":"Feature","id":322,"geometry":null,"properties":{"LAD22CD":"E07000138","LAD22NM":"Lincoln","LAD22NMW":null,"LAD23CD":"E07000138","LAD23NM":"Lincoln","LAD23NMW":null,"ObjectId":322}},{"type":"Feature","id":323,"geometry":null,"properties":{"LAD22CD":"E07000139","LAD22NM":"North Kesteven","LAD22NMW":null,"LAD23CD":"E07000139","LAD23NM":"North Kesteven","LAD23NMW":null,"ObjectId":323}},{"type":"Feature","id":324,"geometry":null,"properties":{"LAD22CD":"E07000140","LAD22NM":"South Holland","LAD22NMW":null,"LAD23CD":"E07000140","LAD23NM":"South Holland","LAD23NMW":null,"ObjectId":324}},{"type":"Feature","id":325,"geometry":null,"properties":{"LAD22CD":"S12000011","LAD22NM":"East Renfrewshire","LAD22NMW":null,"LAD23CD":"S12000011","LAD23NM":"East Renfrewshire","LAD23NMW":null,"ObjectId":325}},{"type":"Feature","id":326,"geometry":null,"properties":{"LAD22CD":"S12000013","LAD22NM":"Na h-Eileanan Siar","LAD22NMW":null,"LAD23CD":"S12000013","LAD23NM":"Na h-Eileanan Siar","LAD23NMW":null,"ObjectId":326}},{"type":"Feature","id":327,"geometry":null,"properties":{"LAD22CD":"S12000014","LAD22NM":"Falkirk","LAD22NMW":null,"LAD23CD":"S12000014","LAD23NM":"Falkirk","LAD23NMW":null,"ObjectId":327}},{"type":"Feature","id":328,"geometry":null,"properties":{"LAD22CD":"S12000017","LAD22NM":"Highland","LAD22NMW":null,"LAD23CD":"S12000017","LAD23NM":"Highland","LAD23NMW":null,"ObjectId":328}},{"type":"Feature","id":329,"geometry":null,"properties":{"LAD22CD":"S12000018","LAD22NM":"Inverclyde","LAD22NMW":null,"LAD23CD":"S12000018","LAD23NM":"Inverclyde","LAD23NMW":null,"ObjectId":329}},{"type":"Feature","id":330,"geometry":null,"properties":{"LAD22CD":"S12000019","LAD22NM":"Midlothian","LAD22NMW":null,"LAD23CD":"S12000019","LAD23NM":"Midlothian","LAD23NMW":null,"ObjectId":330}},{"type":"Feature","id":331,"geometry":null,"properties":{"LAD22CD":"S12000020","LAD22NM":"Moray","LAD22NMW":null,"LAD23CD":"S12000020","LAD23NM":"Moray","LAD23NMW":null,"ObjectId":331}},{"type":"Feature","id":332,"geometry":null,"properties":{"LAD22CD":"S12000021","LAD22NM":"North Ayrshire","LAD22NMW":null,"LAD23CD":"S12000021","LAD23NM":"North Ayrshire","LAD23NMW":null,"ObjectId":332}},{"type":"Feature","id":333,"geometry":null,"properties":{"LAD22CD":"S12000023","LAD22NM":"Orkney Islands","LAD22NMW":null,"LAD23CD":"S12000023","LAD23NM":"Orkney Islands","LAD23NMW":null,"ObjectId":333}},{"type":"Feature","id":334,"geometry":null,"properties":{"LAD22CD":"S12000026","LAD22NM":"Scottish Borders","LAD22NMW":null,"LAD23CD":"S12000026","LAD23NM":"Scottish Borders","LAD23NMW":null,"ObjectId":334}},{"type":"Feature","id":335,"geometry":null,"properties":{"LAD22CD":"S12000027","LAD22NM":"Shetland Islands","LAD22NMW":null,"LAD23CD":"S12000027","LAD23NM":"Shetland Islands","LAD23NMW":null,"ObjectId":335}},{"type":"Feature","id":336,"geometry":null,"properties":{"LAD22CD":"S12000028","LAD22NM":"South Ayrshire","LAD22NMW":null,"LAD23CD":"S12000028","LAD23NM":"South Ayrshire","LAD23NMW":null,"ObjectId":336}},{"type":"Feature","id":337,"geometry":null,"properties":{"LAD22CD":"S12000029","LAD22NM":"South Lanarkshire","LAD22NMW":null,"LAD23CD":"S12000029","LAD23NM":"South Lanarkshire","LAD23NMW":null,"ObjectId":337}},{"type":"Feature","id":338,"geometry":null,"properties":{"LAD22CD":"S12000030","LAD22NM":"Stirling","LAD22NMW":null,"LAD23CD":"S12000030","LAD23NM":"Stirling","LAD23NMW":null,"ObjectId":338}},{"type":"Feature","id":339,"geometry":null,"properties":{"LAD22CD":"S12000033","LAD22NM":"Aberdeen City","LAD22NMW":null,"LAD23CD":"S12000033","LAD23NM":"Aberdeen City","LAD23NMW":null,"ObjectId":339}},{"type":"Feature","id":340,"geometry":null,"properties":{"LAD22CD":"S12000034","LAD22NM":"Aberdeenshire","LAD22NMW":null,"LAD23CD":"S12000034","LAD23NM":"Aberdeenshire","LAD23NMW":null,"ObjectId":340}},{"type":"Feature","id":341,"geometry":null,"properties":{"LAD22CD":"S12000035","LAD22NM":"Argyll and Bute","LAD22NMW":null,"LAD23CD":"S12000035","LAD23NM":"Argyll and Bute","LAD23NMW":null,"ObjectId":341}},{"type":"Feature","id":342,"geometry":null,"properties":{"LAD22CD":"S12000036","LAD22NM":"City of Edinburgh","LAD22NMW":null,"LAD23CD":"S12000036","LAD23NM":"City of Edinburgh","LAD23NMW":null,"ObjectId":342}},{"type":"Feature","id":343,"geometry":null,"properties":{"LAD22CD":"S12000038","LAD22NM":"Renfrewshire","LAD22NMW":null,"LAD23CD":"S12000038","LAD23NM":"Renfrewshire","LAD23NMW":null,"ObjectId":343}},{"type":"Feature","id":344,"geometry":null,"properties":{"LAD22CD":"S12000039","LAD22NM":"West Dunbartonshire","LAD22NMW":null,"LAD23CD":"S12000039","LAD23NM":"West Dunbartonshire","LAD23NMW":null,"ObjectId":344}},{"type":"Feature","id":345,"geometry":null,"properties":{"LAD22CD":"S12000040","LAD22NM":"West Lothian","LAD22NMW":null,"LAD23CD":"S12000040","LAD23NM":"West Lothian","LAD23NMW":null,"ObjectId":345}},{"type":"Feature","id":346,"geometry":null,"properties":{"LAD22CD":"S12000041","LAD22NM":"Angus","LAD22NMW":null,"LAD23CD":"S12000041","LAD23NM":"Angus","LAD23NMW":null,"ObjectId":346}},{"type":"Feature","id":347,"geometry":null,"properties":{"LAD22CD":"S12000042","LAD22NM":"Dundee City","LAD22NMW":null,"LAD23CD":"S12000042","LAD23NM":"Dundee City","LAD23NMW":null,"ObjectId":347}},{"type":"Feature","id":348,"geometry":null,"properties":{"LAD22CD":"S12000045","LAD22NM":"East Dunbartonshire","LAD22NMW":null,"LAD23CD":"S12000045","LAD23NM":"East Dunbartonshire","LAD23NMW":null,"ObjectId":348}},{"type":"Feature","id":349,"geometry":null,"properties":{"LAD22CD":"S12000047","LAD22NM":"Fife","LAD22NMW":null,"LAD23CD":"S12000047","LAD23NM":"Fife","LAD23NMW":null,"ObjectId":349}},{"type":"Feature","id":350,"geometry":null,"properties":{"LAD22CD":"S12000048","LAD22NM":"Perth and Kinross","LAD22NMW":null,"LAD23CD":"S12000048","LAD23NM":"Perth and Kinross","LAD23NMW":null,"ObjectId":350}},{"type":"Feature","id":351,"geometry":null,"properties":{"LAD22CD":"S12000049","LAD22NM":"Glasgow City","LAD22NMW":null,"LAD23CD":"S12000049","LAD23NM":"Glasgow City","LAD23NMW":null,"ObjectId":351}},{"type":"Feature","id":352,"geometry":null,"properties":{"LAD22CD":"S12000050","LAD22NM":"North Lanarkshire","LAD22NMW":null,"LAD23CD":"S12000050","LAD23NM":"North Lanarkshire","LAD23NMW":null,"ObjectId":352}},{"type":"Feature","id":353,"geometry":null,"properties":{"LAD22CD":"W06000001","LAD22NM":"Isle of Anglesey","LAD22NMW":"Ynys Môn","LAD23CD":"W06000001","LAD23NM":"Isle of Anglesey","LAD23NMW":"Ynys Môn","ObjectId":353}},{"type":"Feature","id":354,"geometry":null,"properties":{"LAD22CD":"W06000002","LAD22NM":"Gwynedd","LAD22NMW":"Gwynedd","LAD23CD":"W06000002","LAD23NM":"Gwynedd","LAD23NMW":"Gwynedd","ObjectId":354}},{"type":"Feature","id":355,"geometry":null,"properties":{"LAD22CD":"W06000003","LAD22NM":"Conwy","LAD22NMW":"Conwy","LAD23CD":"W06000003","LAD23NM":"Conwy","LAD23NMW":"Conwy","ObjectId":355}},{"type":"Feature","id":356,"geometry":null,"properties":{"LAD22CD":"W06000004","LAD22NM":"Denbighshire","LAD22NMW":"Sir Ddinbych","LAD23CD":"W06000004","LAD23NM":"Denbighshire","LAD23NMW":"Sir Ddinbych","ObjectId":356}},{"type":"Feature","id":357,"geometry":null,"properties":{"LAD22CD":"W06000005","LAD22NM":"Flintshire","LAD22NMW":"Sir y Fflint","LAD23CD":"W06000005","LAD23NM":"Flintshire","LAD23NMW":"Sir y Fflint","ObjectId":357}},{"type":"Feature","id":358,"geometry":null,"properties":{"LAD22CD":"W06000006","LAD22NM":"Wrexham","LAD22NMW":"Wrecsam","LAD23CD":"W06000006","LAD23NM":"Wrexham","LAD23NMW":"Wrecsam","ObjectId":358}},{"type":"Feature","id":359,"geometry":null,"properties":{"LAD22CD":"W06000008","LAD22NM":"Ceredigion","LAD22NMW":"Ceredigion","LAD23CD":"W06000008","LAD23NM":"Ceredigion","LAD23NMW":"Ceredigion","ObjectId":359}},{"type":"Feature","id":360,"geometry":null,"properties":{"LAD22CD":"W06000009","LAD22NM":"Pembrokeshire","LAD22NMW":"Sir Benfro","LAD23CD":"W06000009","LAD23NM":"Pembrokeshire","LAD23NMW":"Sir Benfro","ObjectId":360}},{"type":"Feature","id":361,"geometry":null,"properties":{"LAD22CD":"W06000010","LAD22NM":"Carmarthenshire","LAD22NMW":"Sir Gaerfyrddin","LAD23CD":"W06000010","LAD23NM":"Carmarthenshire","LAD23NMW":"Sir Gaerfyrddin","ObjectId":361}},{"type":"Feature","id":362,"geometry":null,"properties":{"LAD22CD":"W06000011","LAD22NM":"Swansea","LAD22NMW":"Abertawe","LAD23CD":"W06000011","LAD23NM":"Swansea","LAD23NMW":"Abertawe","ObjectId":362}},{"type":"Feature","id":363,"geometry":null,"properties":{"LAD22CD":"W06000012","LAD22NM":"Neath Port Talbot","LAD22NMW":"Castell-nedd Port Talbot","LAD23CD":"W06000012","LAD23NM":"Neath Port Talbot","LAD23NMW":"Castell-nedd Port Talbot","ObjectId":363}},{"type":"Feature","id":364,"geometry":null,"properties":{"LAD22CD":"W06000013","LAD22NM":"Bridgend","LAD22NMW":"Pen-y-bont ar Ogwr","LAD23CD":"W06000013","LAD23NM":"Bridgend","LAD23NMW":"Pen-y-bont ar Ogwr","ObjectId":364}},{"type":"Feature","id":365,"geometry":null,"properties":{"LAD22CD":"W06000014","LAD22NM":"Vale of Glamorgan","LAD22NMW":"Bro Morgannwg","LAD23CD":"W06000014","LAD23NM":"Vale of Glamorgan","LAD23NMW":"Bro Morgannwg","ObjectId":365}},{"type":"Feature","id":366,"geometry":null,"properties":{"LAD22CD":"W06000015","LAD22NM":"Cardiff","LAD22NMW":"Caerdydd","LAD23CD":"W06000015","LAD23NM":"Cardiff","LAD23NMW":"Caerdydd","ObjectId":366}},{"type":"Feature","id":367,"geometry":null,"properties":{"LAD22CD":"W06000016","LAD22NM":"Rhondda Cynon Taf","LAD22NMW":"Rhondda Cynon Taf","LAD23CD":"W06000016","LAD23NM":"Rhondda Cynon Taf","LAD23NMW":"Rhondda Cynon Taf","ObjectId":367}},{"type":"Feature","id":368,"geometry":null,"properties":{"LAD22CD":"W06000018","LAD22NM":"Caerphilly","LAD22NMW":"Caerffili","LAD23CD":"W06000018","LAD23NM":"Caerphilly","LAD23NMW":"Caerffili","ObjectId":368}},{"type":"Feature","id":369,"geometry":null,"properties":{"LAD22CD":"W06000019","LAD22NM":"Blaenau Gwent","LAD22NMW":"Blaenau Gwent","LAD23CD":"W06000019","LAD23NM":"Blaenau Gwent","LAD23NMW":"Blaenau Gwent","ObjectId":369}},{"type":"Feature","id":370,"geometry":null,"properties":{"LAD22CD":"W06000020","LAD22NM":"Torfaen","LAD22NMW":"Torfaen","LAD23CD":"W06000020","LAD23NM":"Torfaen","LAD23NMW":"Torfaen","ObjectId":370}},{"type":"Feature","id":371,"geometry":null,"properties":{"LAD22CD":"W06000021","LAD22NM":"Monmouthshire","LAD22NMW":"Sir Fynwy","LAD23CD":"W06000021","LAD23NM":"Monmouthshire","LAD23NMW":"Sir Fynwy","ObjectId":371}},{"type":"Feature","id":372,"geometry":null,"properties":{"LAD22CD":"W06000022","LAD22NM":"Newport","LAD22NMW":"Casnewydd","LAD23CD":"W06000022","LAD23NM":"Newport","LAD23NMW":"Casnewydd","ObjectId":372}},{"type":"Feature","id":373,"geometry":null,"properties":{"LAD22CD":"W06000023","LAD22NM":"Powys","LAD22NMW":"Powys","LAD23CD":"W06000023","LAD23NM":"Powys","LAD23NMW":"Powys","ObjectId":373}},{"type":"Feature","id":374,"geometry":null,"properties":{"LAD22CD":"W06000024","LAD22NM":"Merthyr Tydfil","LAD22NMW":"Merthyr Tudful","LAD23CD":"W06000024","LAD23NM":"Merthyr Tydfil","LAD23NMW":"Merthyr Tudful","ObjectId":374}}]}