{"type":"FeatureCollection","features":[{"type":"Feature","id":1,"geometry":null,"properties":{"LAD25CD":"E08000001","LAD25NM":"Bolton","CAUTH25CD":"E47000001","CAUTH25NM":"Greater Manchester","ObjectId":1}},{"type":"Feature","id":2,"geometry":null,"properties":{"LAD25CD":"E08000002","LAD25NM":"Bury","CAUTH25CD":"E47000001","CAUTH25NM":"Greater Manchester","ObjectId":2}},{"type":"Feature","id":3,"geometry":null,"properties":{"LAD25CD":"E08000003","LAD25NM":"Manchester","CAUTH25CD":"E47000001","CAUTH25NM":"Greater Manchester","ObjectId":3}},{"type":"Feature","id":4,"geometry":null,"properties":{"LAD25CD":"E08000004","LAD25NM":"Oldham","CAUTH25CD":"E47000001","CAUTH25NM":"Greater Manchester","ObjectId":4}},{"type":"Feature","id":5,"geometry":null,"properties":{"LAD25CD":"E08000005","LAD25NM":"Rochdale","CAUTH25CD":"E47000001","CAUTH25NM":"Greater Manchester","ObjectId":5}},{"type":"Feature","id":6,"geometry":null,"properties":{"LAD25CD":"E08000006","LAD25NM":"Salford","CAUTH25CD":"E47000001","CAUTH25NM":"Greater Manchester","ObjectId":6}},{"type":"Feature","id":7,"geometry":null,"properties":{"LAD25CD":"E08000007","LAD25NM":"Stockport","CAUTH25CD":"E47000001","CAUTH25NM":"Greater Manchester","ObjectId":7}},{"type":"Feature","id":8,"geometry":null,"properties":{"LAD25CD":"E08000008","LAD25NM":"Tameside","CAUTH25CD":"E47000001","CAUTH25NM":"Greater Manchester","ObjectId":8}},{"type":"Feature","id":9,"geometry":null,"properties":{"LAD25CD":"E08000009","LAD25NM":"Trafford","CAUTH25CD":"E47000001","CAUTH25NM":"Greater Manchester","ObjectId":9}},{"type":"Feature","id":10,"geometry":null,"properties":{"LAD25CD":"E08000010","LAD25NM":"Wigan","CAUTH25CD":"E47000001","CAUTH25NM":"Greater Manchester","ObjectId":10}},{"type":"Feature","id":11,"geometry":null,"properties":{"LAD25CD":"E08000017","LAD25NM":"Doncaster","CAUTH25CD":"E47000002","CAUTH25NM":"South Yorkshire","ObjectId":11}},{"type":"Feature","id":12,"geometry":null,"properties":{"LAD25CD":"E08000018","LAD25NM":"Rotherham","CAUTH25CD":"E47000002","CAUTH25NM":"South Yorkshire","ObjectId":12}},{"type":"Feature","id":13,"geometry":null,"properties":{"LAD25CD":"E08000038","LAD25NM":"Barnsley","CAUTH25CD":"E47000002","CAUTH25NM":"South Yorkshire","ObjectId":13}},{"type":"Feature","id":14,"geometry":null,"properties":{"LAD25CD":"E08000039","LAD25NM":"Sheffield","CAUTH25CD":"E47000002","CAUTH25NM":"South Yorkshire","ObjectId":14}},{"type":"Feature","id":15,"geometry":null,"properties":{"LAD25CD":"E08000032","LAD25NM":"Bradford","CAUTH25CD":"E47000003","CAUTH25NM":"West Yorkshire","ObjectId":15}},{"type":"Feature","id":16,"geometry":null,"properties":{"LAD25CD":"E08000033","LAD25NM":"Calderdale","CAUTH25CD":"E47000003","CAUTH25NM":"West Yorkshire","ObjectId":16}},{"type":"Feature","id":17,"geometry":null,"properties":{"LAD25CD":"E08000034","LAD25NM":"Kirklees","CAUTH25CD":"E47000003","CAUTH25NM":"West Yorkshire","ObjectId":17}},{"type":"Feature","id":18,"geometry":null,"properties":{"LAD25CD":"E08000035","LAD25NM":"Leeds","CAUTH25CD":"E47000003","CAUTH25NM":"West Yorkshire","ObjectId":18}},{"type":"Feature","id":19,"geometry":null,"properties":{"LAD25CD":"E08000036","LAD25NM":"Wakefield","CAUTH25CD":"E47000003","CAUTH25NM":"West Yorkshire","ObjectId":19}},{"type":"Feature","id":20,"geometry":null,"properties":{"LAD25CD":"E06000006","LAD25NM":"Halton","CAUTH25CD":"E47000004","CAUTH25NM":"Liverpool City Region","ObjectId":20}},{"type":"Feature","id":21,"geometry":null,"properties":{"LAD25CD":"E08000011","LAD25NM":"Knowsley","CAUTH25CD":"E47000004","CAUTH25NM":"Liverpool City Region","ObjectId":21}},{"type":"Feature","id":22,"geometry":null,"properties":{"LAD25CD":"E08000012","LAD25NM":"Liverpool","CAUTH25CD":"E47000004","CAUTH25NM":"Liverpool City Region","ObjectId":22}},{"type":"Feature","id":23,"geometry":null,"properties":{"LAD25CD":"E08000013","LAD25NM":"St. Helens","CAUTH25CD":"E47000004","CAUTH25NM":"Liverpool City Region","ObjectId":23}},{"type":"Feature","id":24,"geometry":null,"properties":{"LAD25CD":"E08000014","LAD25NM":"Sefton","CAUTH25CD":"E47000004","CAUTH25NM":"Liverpool City Region","ObjectId":24}},{"type":"Feature","id":25,"geometry":null,"properties":{"LAD25CD":"E08000015","LAD25NM":"Wirral","CAUTH25CD":"E47000004","CAUTH25NM":"Liverpool City Region","ObjectId":25}},{"type":"Feature","id":26,"geometry":null,"properties":{"LAD25CD":"E06000001","LAD25NM":"Hartlepool","CAUTH25CD":"E47000006","CAUTH25NM":"Tees Valley","ObjectId":26}},{"type":"Feature","id":27,"geometry":null,"properties":{"LAD25CD":"E06000002","LAD25NM":"Middlesbrough","CAUTH25CD":"E47000006","CAUTH25NM":"Tees Valley","ObjectId":27}},{"type":"Feature","id":28,"geometry":null,"properties":{"LAD25CD":"E06000003","LAD25NM":"Redcar and Cleveland","CAUTH25CD":"E47000006","CAUTH25NM":"Tees Valley","ObjectId":28}},{"type":"Feature","id":29,"geometry":null,"properties":{"LAD25CD":"E06000004","LAD25NM":"Stockton-on-Tees","CAUTH25CD":"E47000006","CAUTH25NM":"Tees Valley","ObjectId":29}},{"type":"Feature","id":30,"geometry":null,"properties":{"LAD25CD":"E06000005","LAD25NM":"Darlington","CAUTH25CD":"E47000006","CAUTH25NM":"Tees Valley","ObjectId":30}},{"type":"Feature","id":31,"geometry":null,"properties":{"LAD25CD":"E08000025","LAD25NM":"Birmingham","CAUTH25CD":"E47000007","CAUTH25NM":"West Midlands","ObjectId":31}},{"type":"Feature","id":32,"geometry":null,"properties":{"LAD25CD":"E08000026","LAD25NM":"Coventry","CAUTH25CD":"E47000007","CAUTH25NM":"West Midlands","ObjectId":32}},{"type":"Feature","id":33,"geometry":null,"properties":{"LAD25CD":"E08000027","LAD25NM":"Dudley","CAUTH25CD":"E47000007","CAUTH25NM":"West Midlands","ObjectId":33}},{"type":"Feature","id":34,"geometry":null,"properties":{"LAD25CD":"E08000028","LAD25NM":"Sandwell","CAUTH25CD":"E47000007","CAUTH25NM":"West Midlands","ObjectId":34}},{"type":"Feature","id":35,"geometry":null,"properties":{"LAD25CD":"E08000029","LAD25NM":"Solihull","CAUTH25CD":"E47000007","CAUTH25NM":"West Midlands","ObjectId":35}},{"type":"Feature","id":36,"geometry":null,"properties":{"LAD25CD":"E08000030","LAD25NM":"Walsall","CAUTH25CD":"E47000007","CAUTH25NM":"West Midlands","ObjectId":36}},{"type":"Feature","id":37,"geometry":null,"properties":{"LAD25CD":"E08000031","LAD25NM":"Wolverhampton","CAUTH25CD":"E47000007","CAUTH25NM":"West Midlands","ObjectId":37}},{"type":"Feature","id":38,"geometry":null,"properties":{"LAD25CD":"E06000031","LAD25NM":"Peterborough","CAUTH25CD":"E47000008","CAUTH25NM":"Cambridgeshire and Peterborough","ObjectId":38}},{"type":"Feature","id":39,"geometry":null,"properties":{"LAD25CD":"E07000008","LAD25NM":"Cambridge","CAUTH25CD":"E47000008","CAUTH25NM":"Cambridgeshire and Peterborough","ObjectId":39}},{"type":"Feature","id":40,"geometry":null,"properties":{"LAD25CD":"E07000009","LAD25NM":"East Cambridgeshire","CAUTH25CD":"E47000008","CAUTH25NM":"Cambridgeshire and Peterborough","ObjectId":40}},{"type":"Feature","id":41,"geometry":null,"properties":{"LAD25CD":"E07000010","LAD25NM":"Fenland","CAUTH25CD":"E47000008","CAUTH25NM":"Cambridgeshire and Peterborough","ObjectId":41}},{"type":"Feature","id":42,"geometry":null,"properties":{"LAD25CD":"E07000011","LAD25NM":"Huntingdonshire","CAUTH25CD":"E47000008","CAUTH25NM":"Cambridgeshire and Peterborough","ObjectId":42}},{"type":"Feature","id":43,"geometry":null,"properties":{"LAD25CD":"E07000012","LAD25NM":"South Cambridgeshire","CAUTH25CD":"E47000008","CAUTH25NM":"Cambridgeshire and Peterborough","ObjectId":43}},{"type":"Feature","id":44,"geometry":null,"properties":{"LAD25CD":"E06000022","LAD25NM":"Bath and North East Somerset","CAUTH25CD":"E47000009","CAUTH25NM":"West of England","ObjectId":44}},{"type":"Feature","id":45,"geometry":null,"properties":{"LAD25CD":"E06000023","LAD25NM":"Bristol, City of","CAUTH25CD":"E47000009","CAUTH25NM":"West of England","ObjectId":45}},{"type":"Feature","id":46,"geometry":null,"properties":{"LAD25CD":"E06000025","LAD25NM":"South Gloucestershire","CAUTH25CD":"E47000009","CAUTH25NM":"West of England","ObjectId":46}},{"type":"Feature","id":47,"geometry":null,"properties":{"LAD25CD":"E06000014","LAD25NM":"York","CAUTH25CD":"E47000012","CAUTH25NM":"York and North Yorkshire","ObjectId":47}},{"type":"Feature","id":48,"geometry":null,"properties":{"LAD25CD":"E06000065","LAD25NM":"North Yorkshire","CAUTH25CD":"E47000012","CAUTH25NM":"York and North Yorkshire","ObjectId":48}},{"type":"Feature","id":49,"geometry":null,"properties":{"LAD25CD":"E06000015","LAD25NM":"Derby","CAUTH25CD":"E47000013","CAUTH25NM":"East Midlands","ObjectId":49}},{"type":"Feature","id":50,"geometry":null,"properties":{"LAD25CD":"E06000018","LAD25NM":"Nottingham","CAUTH25CD":"E47000013","CAUTH25NM":"East Midlands","ObjectId":50}},{"type":"Feature","id":51,"geometry":null,"properties":{"LAD25CD":"E07000032","LAD25NM":"Amber Valley","CAUTH25CD":"E47000013","CAUTH25NM":"East Midlands","ObjectId":51}},{"type":"Feature","id":52,"geometry":null,"properties":{"LAD25CD":"E07000033","LAD25NM":"Bolsover","CAUTH25CD":"E47000013","CAUTH25NM":"East Midlands","ObjectId":52}},{"type":"Feature","id":53,"geometry":null,"properties":{"LAD25CD":"E07000034","LAD25NM":"Chesterfield","CAUTH25CD":"E47000013","CAUTH25NM":"East Midlands","ObjectId":53}},{"type":"Feature","id":54,"geometry":null,"properties":{"LAD25CD":"E07000035","LAD25NM":"Derbyshire Dales","CAUTH25CD":"E47000013","CAUTH25NM":"East Midlands","ObjectId":54}},{"type":"Feature","id":55,"geometry":null,"properties":{"LAD25CD":"E07000036","LAD25NM":"Erewash","CAUTH25CD":"E47000013","CAUTH25NM":"East Midlands","ObjectId":55}},{"type":"Feature","id":56,"geometry":null,"properties":{"LAD25CD":"E07000037","LAD25NM":"High Peak","CAUTH25CD":"E47000013","CAUTH25NM":"East Midlands","ObjectId":56}},{"type":"Feature","id":57,"geometry":null,"properties":{"LAD25CD":"E07000038","LAD25NM":"North East Derbyshire","CAUTH25CD":"E47000013","CAUTH25NM":"East Midlands","ObjectId":57}},{"type":"Feature","id":58,"geometry":null,"properties":{"LAD25CD":"E07000039","LAD25NM":"South Derbyshire","CAUTH25CD":"E47000013","CAUTH25NM":"East Midlands","ObjectId":58}},{"type":"Feature","id":59,"geometry":null,"properties":{"LAD25CD":"E07000170","LAD25NM":"Ashfield","CAUTH25CD":"E47000013","CAUTH25NM":"East Midlands","ObjectId":59}},{"type":"Feature","id":60,"geometry":null,"properties":{"LAD25CD":"E07000171","LAD25NM":"Bassetlaw","CAUTH25CD":"E47000013","CAUTH25NM":"East Midlands","ObjectId":60}},{"type":"Feature","id":61,"geometry":null,"properties":{"LAD25CD":"E07000172","LAD25NM":"Broxtowe","CAUTH25CD":"E47000013","CAUTH25NM":"East Midlands","ObjectId":61}},{"type":"Feature","id":62,"geometry":null,"properties":{"LAD25CD":"E07000173","LAD25NM":"Gedling","CAUTH25CD":"E47000013","CAUTH25NM":"East Midlands","ObjectId":62}},{"type":"Feature","id":63,"geometry":null,"properties":{"LAD25CD":"E07000174","LAD25NM":"Mansfield","CAUTH25CD":"E47000013","CAUTH25NM":"East Midlands","ObjectId":63}},{"type":"Feature","id":64,"geometry":null,"properties":{"LAD25CD":"E07000175","LAD25NM":"Newark and Sherwood","CAUTH25CD":"E47000013","CAUTH25NM":"East Midlands","ObjectId":64}},{"type":"Feature","id":65,"geometry":null,"properties":{"LAD25CD":"E07000176","LAD25NM":"Rushcliffe","CAUTH25CD":"E47000013","CAUTH25NM":"East Midlands","ObjectId":65}},{"type":"Feature","id":66,"geometry":null,"properties":{"LAD25CD":"E06000047","LAD25NM":"County Durham","CAUTH25CD":"E47000014","CAUTH25NM":"North East","ObjectId":66}},{"type":"Feature","id":67,"geometry":null,"properties":{"LAD25CD":"E06000057","LAD25NM":"Northumberland","CAUTH25CD":"E47000014","CAUTH25NM":"North East","ObjectId":67}},{"type":"Feature","id":68,"geometry":null,"properties":{"LAD25CD":"E08000021","LAD25NM":"Newcastle upon Tyne","CAUTH25CD":"E47000014","CAUTH25NM":"North East","ObjectId":68}},{"type":"Feature","id":69,"geometry":null,"properties":{"LAD25CD":"E08000022","LAD25NM":"North Tyneside","CAUTH25CD":"E47000014","CAUTH25NM":"North East","ObjectId":69}},{"type":"Feature","id":70,"geometry":null,"properties":{"LAD25CD":"E08000023","LAD25NM":"South Tyneside","CAUTH25CD":"E47000014","CAUTH25NM":"North East","ObjectId":70}},{"type":"Feature","id":71,"geometry":null,"properties":{"LAD25CD":"E08000024","LAD25NM":"Sunderland","CAUTH25CD":"E47000014","CAUTH25NM":"North East","ObjectId":71}},{"type":"Feature","id":72,"geometry":null,"properties":{"LAD25CD":"E08000037","LAD25NM":"Gateshead","CAUTH25CD":"E47000014","CAUTH25NM":"North East","ObjectId":72}},{"type":"Feature","id":73,"geometry":null,"properties":{"LAD25CD":"E06000027","LAD25NM":"Torbay","CAUTH25CD":"E47000015","CAUTH25NM":"Devon and Torbay","ObjectId":73}},{"type":"Feature","id":74,"geometry":null,"properties":{"LAD25CD":"E07000040","LAD25NM":"East Devon","CAUTH25CD":"E47000015","CAUTH25NM":"Devon and Torbay","ObjectId":74}},{"type":"Feature","id":75,"geometry":null,"properties":{"LAD25CD":"E07000041","LAD25NM":"Exeter","CAUTH25CD":"E47000015","CAUTH25NM":"Devon and Torbay","ObjectId":75}},{"type":"Feature","id":76,"geometry":null,"properties":{"LAD25CD":"E07000042","LAD25NM":"Mid Devon","CAUTH25CD":"E47000015","CAUTH25NM":"Devon and Torbay","ObjectId":76}},{"type":"Feature","id":77,"geometry":null,"properties":{"LAD25CD":"E07000043","LAD25NM":"North Devon","CAUTH25CD":"E47000015","CAUTH25NM":"Devon and Torbay","ObjectId":77}},{"type":"Feature","id":78,"geometry":null,"properties":{"LAD25CD":"E07000044","LAD25NM":"South Hams","CAUTH25CD":"E47000015","CAUTH25NM":"Devon and Torbay","ObjectId":78}},{"type":"Feature","id":79,"geometry":null,"properties":{"LAD25CD":"E07000045","LAD25NM":"Teignbridge","CAUTH25CD":"E47000015","CAUTH25NM":"Devon and Torbay","ObjectId":79}},{"type":"Feature","id":80,"geometry":null,"properties":{"LAD25CD":"E07000046","LAD25NM":"Torridge","CAUTH25CD":"E47000015","CAUTH25NM":"Devon and Torbay","ObjectId":80}},{"type":"Feature","id":81,"geometry":null,"properties":{"LAD25CD":"E07000047","LAD25NM":"West Devon","CAUTH25CD":"E47000015","CAUTH25NM":"Devon and Torbay","ObjectId":81}},{"type":"Feature","id":82,"geometry":null,"properties":{"LAD25CD":"E06000010","LAD25NM":"Kingston upon Hull, City of","CAUTH25CD":"E47000016","CAUTH25NM":"Hull and East Yorkshire","ObjectId":82}},{"type":"Feature","id":83,"geometry":null,"properties":{"LAD25CD":"E06000011","LAD25NM":"East Riding of Yorkshire","CAUTH25CD":"E47000016","CAUTH25NM":"Hull and East Yorkshire","ObjectId":83}},{"type":"Feature","id":84,"geometry":null,"properties":{"LAD25CD":"E06000012","LAD25NM":"North East Lincolnshire","CAUTH25CD":"E47000017","CAUTH25NM":"Greater Lincolnshire","ObjectId":84}},{"type":"Feature","id":85,"geometry":null,"properties":{"LAD25CD":"E06000013","LAD25NM":"North Lincolnshire","CAUTH25CD":"E47000017","CAUTH25NM":"Greater Lincolnshire","ObjectId":85}},{"type":"Feature","id":86,"geometry":null,"properties":{"LAD25CD":"E07000136","LAD25NM":"Boston","CAUTH25CD":"E47000017","CAUTH25NM":"Greater Lincolnshire","ObjectId":86}},{"type":"Feature","id":87,"geometry":null,"properties":{"LAD25CD":"E07000137","LAD25NM":"East Lindsey","CAUTH25CD":"E47000017","CAUTH25NM":"Greater Lincolnshire","ObjectId":87}},{"type":"Feature","id":88,"geometry":null,"properties":{"LAD25CD":"E07000138","LAD25NM":"Lincoln","CAUTH25CD":"E47000017","CAUTH25NM":"Greater Lincolnshire","ObjectId":88}},{"type":"Feature","id":89,"geometry":null,"properties":{"LAD25CD":"E07000139","LAD25NM":"North Kesteven","CAUTH25CD":"E47000017","CAUTH25NM":"Greater Lincolnshire","ObjectId":89}},{"type":"Feature","id":90,"geometry":null,"properties":{"LAD25CD":"E07000140","LAD25NM":"South Holland","CAUTH25CD":"E47000017","CAUTH25NM":"Greater Lincolnshire","ObjectId":90}},{"type":"Feature","id":91,"geometry":null,"properties":{"LAD25CD":"E07000141","LAD25NM":"South Kesteven","CAUTH25CD":"E47000017","CAUTH25NM":"Greater Lincolnshire","ObjectId":91}},{"type":"Feature","id":92,"geometry":null,"properties":{"LAD25CD":"E07000142","LAD25NM":"West Lindsey","CAUTH25CD":"E47000017","CAUTH25NM":"Greater Lincolnshire","ObjectId":92}},{"type":"Feature","id":93,"geometry":null,"properties":{"LAD25CD":"E06000008","LAD25NM":"Blackburn with Darwen","CAUTH25CD":"E47000018","CAUTH25NM":"Lancashire","ObjectId":93}},{"type":"Feature","id":94,"geometry":null,"properties":{"LAD25CD":"E06000009","LAD25NM":"Blackpool","CAUTH25CD":"E47000018","CAUTH25NM":"Lancashire","ObjectId":94}},{"type":"Feature","id":95,"geometry":null,"properties":{"LAD25CD":"E07000117","LAD25NM":"Burnley","CAUTH25CD":"E47000018","CAUTH25NM":"Lancashire","ObjectId":95}},{"type":"Feature","id":96,"geometry":null,"properties":{"LAD25CD":"E07000118","LAD25NM":"Chorley","CAUTH25CD":"E47000018","CAUTH25NM":"Lancashire","ObjectId":96}},{"type":"Feature","id":97,"geometry":null,"properties":{"LAD25CD":"E07000119","LAD25NM":"Fylde","CAUTH25CD":"E47000018","CAUTH25NM":"Lancashire","ObjectId":97}},{"type":"Feature","id":98,"geometry":null,"properties":{"LAD25CD":"E07000120","LAD25NM":"Hyndburn","CAUTH25CD":"E47000018","CAUTH25NM":"Lancashire","ObjectId":98}},{"type":"Feature","id":99,"geometry":null,"properties":{"LAD25CD":"E07000121","LAD25NM":"Lancaster","CAUTH25CD":"E47000018","CAUTH25NM":"Lancashire","ObjectId":99}},{"type":"Feature","id":100,"geometry":null,"properties":{"LAD25CD":"E07000122","LAD25NM":"Pendle","CAUTH25CD":"E47000018","CAUTH25NM":"Lancashire","ObjectId":100}},{"type":"Feature","id":101,"geometry":null,"properties":{"LAD25CD":"E07000123","LAD25NM":"Preston","CAUTH25CD":"E47000018","CAUTH25NM":"Lancashire","ObjectId":101}},{"type":"Feature","id":102,"geometry":null,"properties":{"LAD25CD":"E07000124","LAD25NM":"Ribble Valley","CAUTH25CD":"E47000018","CAUTH25NM":"Lancashire","ObjectId":102}},{"type":"Feature","id":103,"geometry":null,"properties":{"LAD25CD":"E07000125","LAD25NM":"Rossendale","CAUTH25CD":"E47000018","CAUTH25NM":"Lancashire","ObjectId":103}},{"type":"Feature","id":104,"geometry":null,"properties":{"LAD25CD":"E07000126","LAD25NM":"South Ribble","CAUTH25CD":"E47000018","CAUTH25NM":"Lancashire","ObjectId":104}},{"type":"Feature","id":105,"geometry":null,"properties":{"LAD25CD":"E07000127","LAD25NM":"West Lancashire","CAUTH25CD":"E47000018","CAUTH25NM":"Lancashire","ObjectId":105}},{"type":"Feature","id":106,"geometry":null,"properties":{"LAD25CD":"E07000128","LAD25NM":"Wyre","CAUTH25CD":"E47000018","CAUTH25NM":"Lancashire","ObjectId":106}}]}