{"type":"FeatureCollection","features":[{"type":"Feature","id":1,"geometry":null,"properties":{"LAD25CD":"E07000098","LAD25NM":"Hertsmere","RGN25CD":"E12000006","RGN25NM":"East of England","ObjectId":1}},{"type":"Feature","id":2,"geometry":null,"properties":{"LAD25CD":"E07000099","LAD25NM":"North Hertfordshire","RGN25CD":"E12000006","RGN25NM":"East of England","ObjectId":2}},{"type":"Feature","id":3,"geometry":null,"properties":{"LAD25CD":"E07000102","LAD25NM":"Three Rivers","RGN25CD":"E12000006","RGN25NM":"East of England","ObjectId":3}},{"type":"Feature","id":4,"geometry":null,"properties":{"LAD25CD":"E07000103","LAD25NM":"Watford","RGN25CD":"E12000006","RGN25NM":"East of England","ObjectId":4}},{"type":"Feature","id":5,"geometry":null,"properties":{"LAD25CD":"E07000105","LAD25NM":"Ashford","RGN25CD":"E12000008","RGN25NM":"South East","ObjectId":5}},{"type":"Feature","id":6,"geometry":null,"properties":{"LAD25CD":"E07000106","LAD25NM":"Canterbury","RGN25CD":"E12000008","RGN25NM":"South East","ObjectId":6}},{"type":"Feature","id":7,"geometry":null,"properties":{"LAD25CD":"E07000107","LAD25NM":"Dartford","RGN25CD":"E12000008","RGN25NM":"South East","ObjectId":7}},{"type":"Feature","id":8,"geometry":null,"properties":{"LAD25CD":"E07000108","LAD25NM":"Dover","RGN25CD":"E12000008","RGN25NM":"South East","ObjectId":8}},{"type":"Feature","id":9,"geometry":null,"properties":{"LAD25CD":"E07000109","LAD25NM":"Gravesham","RGN25CD":"E12000008","RGN25NM":"South East","ObjectId":9}},{"type":"Feature","id":10,"geometry":null,"properties":{"LAD25CD":"E07000110","LAD25NM":"Maidstone","RGN25CD":"E12000008","RGN25NM":"South East","ObjectId":10}},{"type":"Feature","id":11,"geometry":null,"properties":{"LAD25CD":"E07000111","LAD25NM":"Sevenoaks","RGN25CD":"E12000008","RGN25NM":"South East","ObjectId":11}},{"type":"Feature","id":12,"geometry":null,"properties":{"LAD25CD":"E07000112","LAD25NM":"Folkestone and Hythe","RGN25CD":"E12000008","RGN25NM":"South East","ObjectId":12}},{"type":"Feature","id":13,"geometry":null,"properties":{"LAD25CD":"E07000113","LAD25NM":"Swale","RGN25CD":"E12000008","RGN25NM":"South East","ObjectId":13}},{"type":"Feature","id":14,"geometry":null,"properties":{"LAD25CD":"E07000114","LAD25NM":"Thanet","RGN25CD":"E12000008","RGN25NM":"South East","ObjectId":14}},{"type":"Feature","id":15,"geometry":null,"properties":{"LAD25CD":"E07000115","LAD25NM":"Tonbridge and Malling","RGN25CD":"E12000008","RGN25NM":"South East","ObjectId":15}},{"type":"Feature","id":16,"geometry":null,"properties":{"LAD25CD":"E07000116","LAD25NM":"Tunbridge Wells","RGN25CD":"E12000008","RGN25NM":"South East","ObjectId":16}},{"type":"Feature","id":17,"geometry":null,"properties":{"LAD25CD":"E07000117","LAD25NM":"Burnley","RGN25CD":"E12000002","RGN25NM":"North West","ObjectId":17}},{"type":"Feature","id":18,"geometry":null,"properties":{"LAD25CD":"E07000118","LAD25NM":"Chorley","RGN25CD":"E12000002","RGN25NM":"North West","ObjectId":18}},{"type":"Feature","id":19,"geometry":null,"properties":{"LAD25CD":"E07000119","LAD25NM":"Fylde","RGN25CD":"E12000002","RGN25NM":"North West","ObjectId":19}},{"type":"Feature","id":20,"geometry":null,"properties":{"LAD25CD":"E07000120","LAD25NM":"Hyndburn","RGN25CD":"E12000002","RGN25NM":"North West","ObjectId":20}},{"type":"Feature","id":21,"geometry":null,"properties":{"LAD25CD":"E07000121","LAD25NM":"Lancaster","RGN25CD":"E12000002","RGN25NM":"North West","ObjectId":21}},{"type":"Feature","id":22,"geometry":null,"properties":{"LAD25CD":"E07000122","LAD25NM":"Pendle","RGN25CD":"E12000002","RGN25NM":"North West","ObjectId":22}},{"type":"Feature","id":23,"geometry":null,"properties":{"LAD25CD":"E07000123","LAD25NM":"Preston","RGN25CD":"E12000002","RGN25NM":"North West","ObjectId":23}},{"type":"Feature","id":24,"geometry":null,"properties":{"LAD25CD":"E07000124","LAD25NM":"Ribble Valley","RGN25CD":"E12000002","RGN25NM":"North West","ObjectId":24}},{"type":"Feature","id":25,"geometry":null,"properties":{"LAD25CD":"E07000125","LAD25NM":"Rossendale","RGN25CD":"E12000002","RGN25NM":"North West","ObjectId":25}},{"type":"Feature","id":26,"geometry":null,"properties":{"LAD25CD":"E07000126","LAD25NM":"South Ribble","RGN25CD":"E12000002","RGN25NM":"North West","ObjectId":26}},{"type":"Feature","id":27,"geometry":null,"properties":{"LAD25CD":"E07000127","LAD25NM":"West Lancashire","RGN25CD":"E12000002","RGN25NM":"North West","ObjectId":27}},{"type":"Feature","id":28,"geometry":null,"properties":{"LAD25CD":"E07000128","LAD25NM":"Wyre","RGN25CD":"E12000002","RGN25NM":"North West","ObjectId":28}},{"type":"Feature","id":29,"geometry":null,"properties":{"LAD25CD":"E07000129","LAD25NM":"Blaby","RGN25CD":"E12000004","RGN25NM":"East Midlands","ObjectId":29}},{"type":"Feature","id":30,"geometry":null,"properties":{"LAD25CD":"E07000130","LAD25NM":"Charnwood","RGN25CD":"E12000004","RGN25NM":"East Midlands","ObjectId":30}},{"type":"Feature","id":31,"geometry":null,"properties":{"LAD25CD":"E07000131","LAD25NM":"Harborough","RGN25CD":"E12000004","RGN25NM":"East Midlands","ObjectId":31}},{"type":"Feature","id":32,"geometry":null,"properties":{"LAD25CD":"E07000132","LAD25NM":"Hinckley and Bosworth","RGN25CD":"E12000004","RGN25NM":"East Midlands","ObjectId":32}},{"type":"Feature","id":33,"geometry":null,"properties":{"LAD25CD":"E07000133","LAD25NM":"Melton","RGN25CD":"E12000004","RGN25NM":"East Midlands","ObjectId":33}},{"type":"Feature","id":34,"geometry":null,"properties":{"LAD25CD":"E07000134","LAD25NM":"North West Leicestershire","RGN25CD":"E12000004","RGN25NM":"East Midlands","ObjectId":34}},{"type":"Feature","id":35,"geometry":null,"properties":{"LAD25CD":"E07000135","LAD25NM":"Oadby and Wigston","RGN25CD":"E12000004","RGN25NM":"East Midlands","ObjectId":35}},{"type":"Feature","id":36,"geometry":null,"properties":{"LAD25CD":"E07000136","LAD25NM":"Boston","RGN25CD":"E12000004","RGN25NM":"East Midlands","ObjectId":36}},{"type":"Feature","id":37,"geometry":null,"properties":{"LAD25CD":"E07000137","LAD25NM":"East Lindsey","RGN25CD":"E12000004","RGN25NM":"East Midlands","ObjectId":37}},{"type":"Feature","id":38,"geometry":null,"properties":{"LAD25CD":"E07000138","LAD25NM":"Lincoln","RGN25CD":"E12000004","RGN25NM":"East Midlands","ObjectId":38}},{"type":"Feature","id":39,"geometry":null,"properties":{"LAD25CD":"E07000139","LAD25NM":"North Kesteven","RGN25CD":"E12000004","RGN25NM":"East Midlands","ObjectId":39}},{"type":"Feature","id":40,"geometry":null,"properties":{"LAD25CD":"E07000140","LAD25NM":"South Holland","RGN25CD":"E12000004","RGN25NM":"East Midlands","ObjectId":40}},{"type":"Feature","id":41,"geometry":null,"properties":{"LAD25CD":"E07000141","LAD25NM":"South Kesteven","RGN25CD":"E12000004","RGN25NM":"East Midlands","ObjectId":41}},{"type":"Feature","id":42,"geometry":null,"properties":{"LAD25CD":"E07000142","LAD25NM":"West Lindsey","RGN25CD":"E12000004","RGN25NM":"East Midlands","ObjectId":42}},{"type":"Feature","id":43,"geometry":null,"properties":{"LAD25CD":"E07000143","LAD25NM":"Breckland","RGN25CD":"E12000006","RGN25NM":"East of England","ObjectId":43}},{"type":"Feature","id":44,"geometry":null,"properties":{"LAD25CD":"E07000144","LAD25NM":"Broadland","RGN25CD":"E12000006","RGN25NM":"East of England","ObjectId":44}},{"type":"Feature","id":45,"geometry":null,"properties":{"LAD25CD":"E07000145","LAD25NM":"Great Yarmouth","RGN25CD":"E12000006","RGN25NM":"East of England","ObjectId":45}},{"type":"Feature","id":46,"geometry":null,"properties":{"LAD25CD":"E07000146","LAD25NM":"King's Lynn and West Norfolk","RGN25CD":"E12000006","RGN25NM":"East of England","ObjectId":46}},{"type":"Feature","id":47,"geometry":null,"properties":{"LAD25CD":"E07000147","LAD25NM":"North Norfolk","RGN25CD":"E12000006","RGN25NM":"East of England","ObjectId":47}},{"type":"Feature","id":48,"geometry":null,"properties":{"LAD25CD":"E07000148","LAD25NM":"Norwich","RGN25CD":"E12000006","RGN25NM":"East of England","ObjectId":48}},{"type":"Feature","id":49,"geometry":null,"properties":{"LAD25CD":"E07000149","LAD25NM":"South Norfolk","RGN25CD":"E12000006","RGN25NM":"East of England","ObjectId":49}},{"type":"Feature","id":50,"geometry":null,"properties":{"LAD25CD":"E07000170","LAD25NM":"Ashfield","RGN25CD":"E12000004","RGN25NM":"East Midlands","ObjectId":50}},{"type":"Feature","id":51,"geometry":null,"properties":{"LAD25CD":"E07000171","LAD25NM":"Bassetlaw","RGN25CD":"E12000004","RGN25NM":"East Midlands","ObjectId":51}},{"type":"Feature","id":52,"geometry":null,"properties":{"LAD25CD":"E07000172","LAD25NM":"Broxtowe","RGN25CD":"E12000004","RGN25NM":"East Midlands","ObjectId":52}},{"type":"Feature","id":53,"geometry":null,"properties":{"LAD25CD":"E07000173","LAD25NM":"Gedling","RGN25CD":"E12000004","RGN25NM":"East Midlands","ObjectId":53}},{"type":"Feature","id":54,"geometry":null,"properties":{"LAD25CD":"E07000174","LAD25NM":"Mansfield","RGN25CD":"E12000004","RGN25NM":"East Midlands","ObjectId":54}},{"type":"Feature","id":55,"geometry":null,"properties":{"LAD25CD":"E07000175","LAD25NM":"Newark and Sherwood","RGN25CD":"E12000004","RGN25NM":"East Midlands","ObjectId":55}},{"type":"Feature","id":56,"geometry":null,"properties":{"LAD25CD":"E07000176","LAD25NM":"Rushcliffe","RGN25CD":"E12000004","RGN25NM":"East Midlands","ObjectId":56}},{"type":"Feature","id":57,"geometry":null,"properties":{"LAD25CD":"E07000177","LAD25NM":"Cherwell","RGN25CD":"E12000008","RGN25NM":"South East","ObjectId":57}},{"type":"Feature","id":58,"geometry":null,"properties":{"LAD25CD":"E07000178","LAD25NM":"Oxford","RGN25CD":"E12000008","RGN25NM":"South East","ObjectId":58}},{"type":"Feature","id":59,"geometry":null,"properties":{"LAD25CD":"E07000179","LAD25NM":"South Oxfordshire","RGN25CD":"E12000008","RGN25NM":"South East","ObjectId":59}},{"type":"Feature","id":60,"geometry":null,"properties":{"LAD25CD":"E07000180","LAD25NM":"Vale of White Horse","RGN25CD":"E12000008","RGN25NM":"South East","ObjectId":60}},{"type":"Feature","id":61,"geometry":null,"properties":{"LAD25CD":"E06000064","LAD25NM":"Westmorland and Furness","RGN25CD":"E12000002","RGN25NM":"North West","ObjectId":61}},{"type":"Feature","id":62,"geometry":null,"properties":{"LAD25CD":"E06000065","LAD25NM":"North Yorkshire","RGN25CD":"E12000003","RGN25NM":"Yorkshire and The Humber","ObjectId":62}},{"type":"Feature","id":63,"geometry":null,"properties":{"LAD25CD":"E06000066","LAD25NM":"Somerset","RGN25CD":"E12000009","RGN25NM":"South West","ObjectId":63}},{"type":"Feature","id":64,"geometry":null,"properties":{"LAD25CD":"E07000008","LAD25NM":"Cambridge","RGN25CD":"E12000006","RGN25NM":"East of England","ObjectId":64}},{"type":"Feature","id":65,"geometry":null,"properties":{"LAD25CD":"E07000009","LAD25NM":"East Cambridgeshire","RGN25CD":"E12000006","RGN25NM":"East of England","ObjectId":65}},{"type":"Feature","id":66,"geometry":null,"properties":{"LAD25CD":"E07000010","LAD25NM":"Fenland","RGN25CD":"E12000006","RGN25NM":"East of England","ObjectId":66}},{"type":"Feature","id":67,"geometry":null,"properties":{"LAD25CD":"E07000011","LAD25NM":"Huntingdonshire","RGN25CD":"E12000006","RGN25NM":"East of England","ObjectId":67}},{"type":"Feature","id":68,"geometry":null,"properties":{"LAD25CD":"E07000012","LAD25NM":"South Cambridgeshire","RGN25CD":"E12000006","RGN25NM":"East of England","ObjectId":68}},{"type":"Feature","id":69,"geometry":null,"properties":{"LAD25CD":"E07000032","LAD25NM":"Amber Valley","RGN25CD":"E12000004","RGN25NM":"East Midlands","ObjectId":69}},{"type":"Feature","id":70,"geometry":null,"properties":{"LAD25CD":"E07000033","LAD25NM":"Bolsover","RGN25CD":"E12000004","RGN25NM":"East Midlands","ObjectId":70}},{"type":"Feature","id":71,"geometry":null,"properties":{"LAD25CD":"E07000034","LAD25NM":"Chesterfield","RGN25CD":"E12000004","RGN25NM":"East Midlands","ObjectId":71}},{"type":"Feature","id":72,"geometry":null,"properties":{"LAD25CD":"E07000035","LAD25NM":"Derbyshire Dales","RGN25CD":"E12000004","RGN25NM":"East Midlands","ObjectId":72}},{"type":"Feature","id":73,"geometry":null,"properties":{"LAD25CD":"E07000036","LAD25NM":"Erewash","RGN25CD":"E12000004","RGN25NM":"East Midlands","ObjectId":73}},{"type":"Feature","id":74,"geometry":null,"properties":{"LAD25CD":"E07000037","LAD25NM":"High Peak","RGN25CD":"E12000004","RGN25NM":"East Midlands","ObjectId":74}},{"type":"Feature","id":75,"geometry":null,"properties":{"LAD25CD":"E07000038","LAD25NM":"North East Derbyshire","RGN25CD":"E12000004","RGN25NM":"East Midlands","ObjectId":75}},{"type":"Feature","id":76,"geometry":null,"properties":{"LAD25CD":"E07000039","LAD25NM":"South Derbyshire","RGN25CD":"E12000004","RGN25NM":"East Midlands","ObjectId":76}},{"type":"Feature","id":77,"geometry":null,"properties":{"LAD25CD":"E07000040","LAD25NM":"East Devon","RGN25CD":"E12000009","RGN25NM":"South West","ObjectId":77}},{"type":"Feature","id":78,"geometry":null,"properties":{"LAD25CD":"E07000041","LAD25NM":"Exeter","RGN25CD":"E12000009","RGN25NM":"South West","ObjectId":78}},{"type":"Feature","id":79,"geometry":null,"properties":{"LAD25CD":"E07000042","LAD25NM":"Mid Devon","RGN25CD":"E12000009","RGN25NM":"South West","ObjectId":79}},{"type":"Feature","id":80,"geometry":null,"properties":{"LAD25CD":"E07000043","LAD25NM":"North Devon","RGN25CD":"E12000009","RGN25NM":"South West","ObjectId":80}},{"type":"Feature","id":81,"geometry":null,"properties":{"LAD25CD":"E07000044","LAD25NM":"South Hams","RGN25CD":"E12000009","RGN25NM":"South West","ObjectId":81}},{"type":"Feature","id":82,"geometry":null,"properties":{"LAD25CD":"E07000045","LAD25NM":"Teignbridge","RGN25CD":"E12000009","RGN25NM":"South West","ObjectId":82}},{"type":"Feature","id":83,"geometry":null,"properties":{"LAD25CD":"E07000046","LAD25NM":"Torridge","RGN25CD":"E12000009","RGN25NM":"South West","ObjectId":83}},{"type":"Feature","id":84,"geometry":null,"properties":{"LAD25CD":"E07000047","LAD25NM":"West Devon","RGN25CD":"E12000009","RGN25NM":"South West","ObjectId":84}},{"type":"Feature","id":85,"geometry":null,"properties":{"LAD25CD":"E07000061","LAD25NM":"Eastbourne","RGN25CD":"E12000008","RGN25NM":"South East","ObjectId":85}},{"type":"Feature","id":86,"geometry":null,"properties":{"LAD25CD":"E07000062","LAD25NM":"Hastings","RGN25CD":"E12000008","RGN25NM":"South East","ObjectId":86}},{"type":"Feature","id":87,"geometry":null,"properties":{"LAD25CD":"E07000063","LAD25NM":"Lewes","RGN25CD":"E12000008","RGN25NM":"South East","ObjectId":87}},{"type":"Feature","id":88,"geometry":null,"properties":{"LAD25CD":"E07000064","LAD25NM":"Rother","RGN25CD":"E12000008","RGN25NM":"South East","ObjectId":88}},{"type":"Feature","id":89,"geometry":null,"properties":{"LAD25CD":"E07000065","LAD25NM":"Wealden","RGN25CD":"E12000008","RGN25NM":"South East","ObjectId":89}},{"type":"Feature","id":90,"geometry":null,"properties":{"LAD25CD":"E07000066","LAD25NM":"Basildon","RGN25CD":"E12000006","RGN25NM":"East of England","ObjectId":90}},{"type":"Feature","id":91,"geometry":null,"properties":{"LAD25CD":"E07000067","LAD25NM":"Braintree","RGN25CD":"E12000006","RGN25NM":"East of England","ObjectId":91}},{"type":"Feature","id":92,"geometry":null,"properties":{"LAD25CD":"E07000068","LAD25NM":"Brentwood","RGN25CD":"E12000006","RGN25NM":"East of England","ObjectId":92}},{"type":"Feature","id":93,"geometry":null,"properties":{"LAD25CD":"E07000069","LAD25NM":"Castle Point","RGN25CD":"E12000006","RGN25NM":"East of England","ObjectId":93}},{"type":"Feature","id":94,"geometry":null,"properties":{"LAD25CD":"E07000070","LAD25NM":"Chelmsford","RGN25CD":"E12000006","RGN25NM":"East of England","ObjectId":94}},{"type":"Feature","id":95,"geometry":null,"properties":{"LAD25CD":"E07000071","LAD25NM":"Colchester","RGN25CD":"E12000006","RGN25NM":"East of England","ObjectId":95}},{"type":"Feature","id":96,"geometry":null,"properties":{"LAD25CD":"E07000072","LAD25NM":"Epping Forest","RGN25CD":"E12000006","RGN25NM":"East of England","ObjectId":96}},{"type":"Feature","id":97,"geometry":null,"properties":{"LAD25CD":"E07000073","LAD25NM":"Harlow","RGN25CD":"E12000006","RGN25NM":"East of England","ObjectId":97}},{"type":"Feature","id":98,"geometry":null,"properties":{"LAD25CD":"E07000074","LAD25NM":"Maldon","RGN25CD":"E12000006","RGN25NM":"East of England","ObjectId":98}},{"type":"Feature","id":99,"geometry":null,"properties":{"LAD25CD":"E07000075","LAD25NM":"Rochford","RGN25CD":"E12000006","RGN25NM":"East of England","ObjectId":99}},{"type":"Feature","id":100,"geometry":null,"properties":{"LAD25CD":"E07000076","LAD25NM":"Tendring","RGN25CD":"E12000006","RGN25NM":"East of England","ObjectId":100}},{"type":"Feature","id":101,"geometry":null,"properties":{"LAD25CD":"E07000077","LAD25NM":"Uttlesford","RGN25CD":"E12000006","RGN25NM":"East of England","ObjectId":101}},{"type":"Feature","id":102,"geometry":null,"properties":{"LAD25CD":"E07000078","LAD25NM":"Cheltenham","RGN25CD":"E12000009","RGN25NM":"South West","ObjectId":102}},{"type":"Feature","id":103,"geometry":null,"properties":{"LAD25CD":"E07000079","LAD25NM":"Cotswold","RGN25CD":"E12000009","RGN25NM":"South West","ObjectId":103}},{"type":"Feature","id":104,"geometry":null,"properties":{"LAD25CD":"E07000080","LAD25NM":"Forest of Dean","RGN25CD":"E12000009","RGN25NM":"South West","ObjectId":104}},{"type":"Feature","id":105,"geometry":null,"properties":{"LAD25CD":"E07000081","LAD25NM":"Gloucester","RGN25CD":"E12000009","RGN25NM":"South West","ObjectId":105}},{"type":"Feature","id":106,"geometry":null,"properties":{"LAD25CD":"E07000082","LAD25NM":"Stroud","RGN25CD":"E12000009","RGN25NM":"South West","ObjectId":106}},{"type":"Feature","id":107,"geometry":null,"properties":{"LAD25CD":"E07000083","LAD25NM":"Tewkesbury","RGN25CD":"E12000009","RGN25NM":"South West","ObjectId":107}},{"type":"Feature","id":108,"geometry":null,"properties":{"LAD25CD":"E07000084","LAD25NM":"Basingstoke and Deane","RGN25CD":"E12000008","RGN25NM":"South East","ObjectId":108}},{"type":"Feature","id":109,"geometry":null,"properties":{"LAD25CD":"E07000085","LAD25NM":"East Hampshire","RGN25CD":"E12000008","RGN25NM":"South East","ObjectId":109}},{"type":"Feature","id":110,"geometry":null,"properties":{"LAD25CD":"E07000086","LAD25NM":"Eastleigh","RGN25CD":"E12000008","RGN25NM":"South East","ObjectId":110}},{"type":"Feature","id":111,"geometry":null,"properties":{"LAD25CD":"E07000087","LAD25NM":"Fareham","RGN25CD":"E12000008","RGN25NM":"South East","ObjectId":111}},{"type":"Feature","id":112,"geometry":null,"properties":{"LAD25CD":"E07000088","LAD25NM":"Gosport","RGN25CD":"E12000008","RGN25NM":"South East","ObjectId":112}},{"type":"Feature","id":113,"geometry":null,"properties":{"LAD25CD":"E07000089","LAD25NM":"Hart","RGN25CD":"E12000008","RGN25NM":"South East","ObjectId":113}},{"type":"Feature","id":114,"geometry":null,"properties":{"LAD25CD":"E07000090","LAD25NM":"Havant","RGN25CD":"E12000008","RGN25NM":"South East","ObjectId":114}},{"type":"Feature","id":115,"geometry":null,"properties":{"LAD25CD":"E07000091","LAD25NM":"New Forest","RGN25CD":"E12000008","RGN25NM":"South East","ObjectId":115}},{"type":"Feature","id":116,"geometry":null,"properties":{"LAD25CD":"E07000092","LAD25NM":"Rushmoor","RGN25CD":"E12000008","RGN25NM":"South East","ObjectId":116}},{"type":"Feature","id":117,"geometry":null,"properties":{"LAD25CD":"E07000093","LAD25NM":"Test Valley","RGN25CD":"E12000008","RGN25NM":"South East","ObjectId":117}},{"type":"Feature","id":118,"geometry":null,"properties":{"LAD25CD":"E07000094","LAD25NM":"Winchester","RGN25CD":"E12000008","RGN25NM":"South East","ObjectId":118}},{"type":"Feature","id":119,"geometry":null,"properties":{"LAD25CD":"E07000095","LAD25NM":"Broxbourne","RGN25CD":"E12000006","RGN25NM":"East of England","ObjectId":119}},{"type":"Feature","id":120,"geometry":null,"properties":{"LAD25CD":"E07000096","LAD25NM":"Dacorum","RGN25CD":"E12000006","RGN25NM":"East of England","ObjectId":120}},{"type":"Feature","id":121,"geometry":null,"properties":{"LAD25CD":"E07000181","LAD25NM":"West Oxfordshire","RGN25CD":"E12000008","RGN25NM":"South East","ObjectId":121}},{"type":"Feature","id":122,"geometry":null,"properties":{"LAD25CD":"E07000192","LAD25NM":"Cannock Chase","RGN25CD":"E12000005","RGN25NM":"West Midlands","ObjectId":122}},{"type":"Feature","id":123,"geometry":null,"properties":{"LAD25CD":"E07000193","LAD25NM":"East Staffordshire","RGN25CD":"E12000005","RGN25NM":"West Midlands","ObjectId":123}},{"type":"Feature","id":124,"geometry":null,"properties":{"LAD25CD":"E07000194","LAD25NM":"Lichfield","RGN25CD":"E12000005","RGN25NM":"West Midlands","ObjectId":124}},{"type":"Feature","id":125,"geometry":null,"properties":{"LAD25CD":"E07000195","LAD25NM":"Newcastle-under-Lyme","RGN25CD":"E12000005","RGN25NM":"West Midlands","ObjectId":125}},{"type":"Feature","id":126,"geometry":null,"properties":{"LAD25CD":"E07000196","LAD25NM":"South Staffordshire","RGN25CD":"E12000005","RGN25NM":"West Midlands","ObjectId":126}},{"type":"Feature","id":127,"geometry":null,"properties":{"LAD25CD":"E07000197","LAD25NM":"Stafford","RGN25CD":"E12000005","RGN25NM":"West Midlands","ObjectId":127}},{"type":"Feature","id":128,"geometry":null,"properties":{"LAD25CD":"E07000198","LAD25NM":"Staffordshire Moorlands","RGN25CD":"E12000005","RGN25NM":"West Midlands","ObjectId":128}},{"type":"Feature","id":129,"geometry":null,"properties":{"LAD25CD":"E07000199","LAD25NM":"Tamworth","RGN25CD":"E12000005","RGN25NM":"West Midlands","ObjectId":129}},{"type":"Feature","id":130,"geometry":null,"properties":{"LAD25CD":"E07000200","LAD25NM":"Babergh","RGN25CD":"E12000006","RGN25NM":"East of England","ObjectId":130}},{"type":"Feature","id":131,"geometry":null,"properties":{"LAD25CD":"E07000202","LAD25NM":"Ipswich","RGN25CD":"E12000006","RGN25NM":"East of England","ObjectId":131}},{"type":"Feature","id":132,"geometry":null,"properties":{"LAD25CD":"E07000203","LAD25NM":"Mid Suffolk","RGN25CD":"E12000006","RGN25NM":"East of England","ObjectId":132}},{"type":"Feature","id":133,"geometry":null,"properties":{"LAD25CD":"E07000207","LAD25NM":"Elmbridge","RGN25CD":"E12000008","RGN25NM":"South East","ObjectId":133}},{"type":"Feature","id":134,"geometry":null,"properties":{"LAD25CD":"E07000208","LAD25NM":"Epsom and Ewell","RGN25CD":"E12000008","RGN25NM":"South East","ObjectId":134}},{"type":"Feature","id":135,"geometry":null,"properties":{"LAD25CD":"E07000209","LAD25NM":"Guildford","RGN25CD":"E12000008","RGN25NM":"South East","ObjectId":135}},{"type":"Feature","id":136,"geometry":null,"properties":{"LAD25CD":"E07000210","LAD25NM":"Mole Valley","RGN25CD":"E12000008","RGN25NM":"South East","ObjectId":136}},{"type":"Feature","id":137,"geometry":null,"properties":{"LAD25CD":"E07000211","LAD25NM":"Reigate and Banstead","RGN25CD":"E12000008","RGN25NM":"South East","ObjectId":137}},{"type":"Feature","id":138,"geometry":null,"properties":{"LAD25CD":"E07000212","LAD25NM":"Runnymede","RGN25CD":"E12000008","RGN25NM":"South East","ObjectId":138}},{"type":"Feature","id":139,"geometry":null,"properties":{"LAD25CD":"E07000213","LAD25NM":"Spelthorne","RGN25CD":"E12000008","RGN25NM":"South East","ObjectId":139}},{"type":"Feature","id":140,"geometry":null,"properties":{"LAD25CD":"E07000214","LAD25NM":"Surrey Heath","RGN25CD":"E12000008","RGN25NM":"South East","ObjectId":140}},{"type":"Feature","id":141,"geometry":null,"properties":{"LAD25CD":"E07000215","LAD25NM":"Tandridge","RGN25CD":"E12000008","RGN25NM":"South East","ObjectId":141}},{"type":"Feature","id":142,"geometry":null,"properties":{"LAD25CD":"E07000216","LAD25NM":"Waverley","RGN25CD":"E12000008","RGN25NM":"South East","ObjectId":142}},{"type":"Feature","id":143,"geometry":null,"properties":{"LAD25CD":"E07000217","LAD25NM":"Woking","RGN25CD":"E12000008","RGN25NM":"South East","ObjectId":143}},{"type":"Feature","id":144,"geometry":null,"properties":{"LAD25CD":"E07000218","LAD25NM":"North Warwickshire","RGN25CD":"E12000005","RGN25NM":"West Midlands","ObjectId":144}},{"type":"Feature","id":145,"geometry":null,"properties":{"LAD25CD":"E07000219","LAD25NM":"Nuneaton and Bedworth","RGN25CD":"E12000005","RGN25NM":"West Midlands","ObjectId":145}},{"type":"Feature","id":146,"geometry":null,"properties":{"LAD25CD":"E07000220","LAD25NM":"Rugby","RGN25CD":"E12000005","RGN25NM":"West Midlands","ObjectId":146}},{"type":"Feature","id":147,"geometry":null,"properties":{"LAD25CD":"E07000221","LAD25NM":"Stratford-on-Avon","RGN25CD":"E12000005","RGN25NM":"West Midlands","ObjectId":147}},{"type":"Feature","id":148,"geometry":null,"properties":{"LAD25CD":"E07000222","LAD25NM":"Warwick","RGN25CD":"E12000005","RGN25NM":"West Midlands","ObjectId":148}},{"type":"Feature","id":149,"geometry":null,"properties":{"LAD25CD":"E07000223","LAD25NM":"Adur","RGN25CD":"E12000008","RGN25NM":"South East","ObjectId":149}},{"type":"Feature","id":150,"geometry":null,"properties":{"LAD25CD":"E07000224","LAD25NM":"Arun","RGN25CD":"E12000008","RGN25NM":"South East","ObjectId":150}},{"type":"Feature","id":151,"geometry":null,"properties":{"LAD25CD":"E07000225","LAD25NM":"Chichester","RGN25CD":"E12000008","RGN25NM":"South East","ObjectId":151}},{"type":"Feature","id":152,"geometry":null,"properties":{"LAD25CD":"E07000226","LAD25NM":"Crawley","RGN25CD":"E12000008","RGN25NM":"South East","ObjectId":152}},{"type":"Feature","id":153,"geometry":null,"properties":{"LAD25CD":"E07000227","LAD25NM":"Horsham","RGN25CD":"E12000008","RGN25NM":"South East","ObjectId":153}},{"type":"Feature","id":154,"geometry":null,"properties":{"LAD25CD":"E07000228","LAD25NM":"Mid Sussex","RGN25CD":"E12000008","RGN25NM":"South East","ObjectId":154}},{"type":"Feature","id":155,"geometry":null,"properties":{"LAD25CD":"E07000229","LAD25NM":"Worthing","RGN25CD":"E12000008","RGN25NM":"South East","ObjectId":155}},{"type":"Feature","id":156,"geometry":null,"properties":{"LAD25CD":"E07000234","LAD25NM":"Bromsgrove","RGN25CD":"E12000005","RGN25NM":"West Midlands","ObjectId":156}},{"type":"Feature","id":157,"geometry":null,"properties":{"LAD25CD":"E07000235","LAD25NM":"Malvern Hills","RGN25CD":"E12000005","RGN25NM":"West Midlands","ObjectId":157}},{"type":"Feature","id":158,"geometry":null,"properties":{"LAD25CD":"E07000236","LAD25NM":"Redditch","RGN25CD":"E12000005","RGN25NM":"West Midlands","ObjectId":158}},{"type":"Feature","id":159,"geometry":null,"properties":{"LAD25CD":"E07000237","LAD25NM":"Worcester","RGN25CD":"E12000005","RGN25NM":"West Midlands","ObjectId":159}},{"type":"Feature","id":160,"geometry":null,"properties":{"LAD25CD":"E07000238","LAD25NM":"Wychavon","RGN25CD":"E12000005","RGN25NM":"West Midlands","ObjectId":160}},{"type":"Feature","id":161,"geometry":null,"properties":{"LAD25CD":"E07000239","LAD25NM":"Wyre Forest","RGN25CD":"E12000005","RGN25NM":"West Midlands","ObjectId":161}},{"type":"Feature","id":162,"geometry":null,"properties":{"LAD25CD":"E07000240","LAD25NM":"St Albans","RGN25CD":"E12000006","RGN25NM":"East of England","ObjectId":162}},{"type":"Feature","id":163,"geometry":null,"properties":{"LAD25CD":"E07000241","LAD25NM":"Welwyn Hatfield","RGN25CD":"E12000006","RGN25NM":"East of England","ObjectId":163}},{"type":"Feature","id":164,"geometry":null,"properties":{"LAD25CD":"E07000242","LAD25NM":"East Hertfordshire","RGN25CD":"E12000006","RGN25NM":"East of England","ObjectId":164}},{"type":"Feature","id":165,"geometry":null,"properties":{"LAD25CD":"E07000243","LAD25NM":"Stevenage","RGN25CD":"E12000006","RGN25NM":"East of England","ObjectId":165}},{"type":"Feature","id":166,"geometry":null,"properties":{"LAD25CD":"E07000244","LAD25NM":"East Suffolk","RGN25CD":"E12000006","RGN25NM":"East of England","ObjectId":166}},{"type":"Feature","id":167,"geometry":null,"properties":{"LAD25CD":"E07000245","LAD25NM":"West Suffolk","RGN25CD":"E12000006","RGN25NM":"East of England","ObjectId":167}},{"type":"Feature","id":168,"geometry":null,"properties":{"LAD25CD":"E08000001","LAD25NM":"Bolton","RGN25CD":"E12000002","RGN25NM":"North West","ObjectId":168}},{"type":"Feature","id":169,"geometry":null,"properties":{"LAD25CD":"E08000002","LAD25NM":"Bury","RGN25CD":"E12000002","RGN25NM":"North West","ObjectId":169}},{"type":"Feature","id":170,"geometry":null,"properties":{"LAD25CD":"E08000003","LAD25NM":"Manchester","RGN25CD":"E12000002","RGN25NM":"North West","ObjectId":170}},{"type":"Feature","id":171,"geometry":null,"properties":{"LAD25CD":"E08000004","LAD25NM":"Oldham","RGN25CD":"E12000002","RGN25NM":"North West","ObjectId":171}},{"type":"Feature","id":172,"geometry":null,"properties":{"LAD25CD":"E08000005","LAD25NM":"Rochdale","RGN25CD":"E12000002","RGN25NM":"North West","ObjectId":172}},{"type":"Feature","id":173,"geometry":null,"properties":{"LAD25CD":"E08000006","LAD25NM":"Salford","RGN25CD":"E12000002","RGN25NM":"North West","ObjectId":173}},{"type":"Feature","id":174,"geometry":null,"properties":{"LAD25CD":"E08000007","LAD25NM":"Stockport","RGN25CD":"E12000002","RGN25NM":"North West","ObjectId":174}},{"type":"Feature","id":175,"geometry":null,"properties":{"LAD25CD":"E08000008","LAD25NM":"Tameside","RGN25CD":"E12000002","RGN25NM":"North West","ObjectId":175}},{"type":"Feature","id":176,"geometry":null,"properties":{"LAD25CD":"E08000009","LAD25NM":"Trafford","RGN25CD":"E12000002","RGN25NM":"North West","ObjectId":176}},{"type":"Feature","id":177,"geometry":null,"properties":{"LAD25CD":"E08000010","LAD25NM":"Wigan","RGN25CD":"E12000002","RGN25NM":"North West","ObjectId":177}},{"type":"Feature","id":178,"geometry":null,"properties":{"LAD25CD":"E08000011","LAD25NM":"Knowsley","RGN25CD":"E12000002","RGN25NM":"North West","ObjectId":178}},{"type":"Feature","id":179,"geometry":null,"properties":{"LAD25CD":"E08000012","LAD25NM":"Liverpool","RGN25CD":"E12000002","RGN25NM":"North West","ObjectId":179}},{"type":"Feature","id":180,"geometry":null,"properties":{"LAD25CD":"E08000013","LAD25NM":"St. Helens","RGN25CD":"E12000002","RGN25NM":"North West","ObjectId":180}},{"type":"Feature","id":181,"geometry":null,"properties":{"LAD25CD":"E08000014","LAD25NM":"Sefton","RGN25CD":"E12000002","RGN25NM":"North West","ObjectId":181}},{"type":"Feature","id":182,"geometry":null,"properties":{"LAD25CD":"E08000015","LAD25NM":"Wirral","RGN25CD":"E12000002","RGN25NM":"North West","ObjectId":182}},{"type":"Feature","id":183,"geometry":null,"properties":{"LAD25CD":"E08000017","LAD25NM":"Doncaster","RGN25CD":"E12000003","RGN25NM":"Yorkshire and The Humber","ObjectId":183}},{"type":"Feature","id":184,"geometry":null,"properties":{"LAD25CD":"E08000018","LAD25NM":"Rotherham","RGN25CD":"E12000003","RGN25NM":"Yorkshire and The Humber","ObjectId":184}},{"type":"Feature","id":185,"geometry":null,"properties":{"LAD25CD":"E08000021","LAD25NM":"Newcastle upon Tyne","RGN25CD":"E12000001","RGN25NM":"North East","ObjectId":185}},{"type":"Feature","id":186,"geometry":null,"properties":{"LAD25CD":"E08000022","LAD25NM":"North Tyneside","RGN25CD":"E12000001","RGN25NM":"North East","ObjectId":186}},{"type":"Feature","id":187,"geometry":null,"properties":{"LAD25CD":"E08000023","LAD25NM":"South Tyneside","RGN25CD":"E12000001","RGN25NM":"North East","ObjectId":187}},{"type":"Feature","id":188,"geometry":null,"properties":{"LAD25CD":"E08000024","LAD25NM":"Sunderland","RGN25CD":"E12000001","RGN25NM":"North East","ObjectId":188}},{"type":"Feature","id":189,"geometry":null,"properties":{"LAD25CD":"E08000025","LAD25NM":"Birmingham","RGN25CD":"E12000005","RGN25NM":"West Midlands","ObjectId":189}},{"type":"Feature","id":190,"geometry":null,"properties":{"LAD25CD":"E08000026","LAD25NM":"Coventry","RGN25CD":"E12000005","RGN25NM":"West Midlands","ObjectId":190}},{"type":"Feature","id":191,"geometry":null,"properties":{"LAD25CD":"E08000027","LAD25NM":"Dudley","RGN25CD":"E12000005","RGN25NM":"West Midlands","ObjectId":191}},{"type":"Feature","id":192,"geometry":null,"properties":{"LAD25CD":"E08000028","LAD25NM":"Sandwell","RGN25CD":"E12000005","RGN25NM":"West Midlands","ObjectId":192}},{"type":"Feature","id":193,"geometry":null,"properties":{"LAD25CD":"E08000029","LAD25NM":"Solihull","RGN25CD":"E12000005","RGN25NM":"West Midlands","ObjectId":193}},{"type":"Feature","id":194,"geometry":null,"properties":{"LAD25CD":"E08000030","LAD25NM":"Walsall","RGN25CD":"E12000005","RGN25NM":"West Midlands","ObjectId":194}},{"type":"Feature","id":195,"geometry":null,"properties":{"LAD25CD":"E08000031","LAD25NM":"Wolverhampton","RGN25CD":"E12000005","RGN25NM":"West Midlands","ObjectId":195}},{"type":"Feature","id":196,"geometry":null,"properties":{"LAD25CD":"E08000032","LAD25NM":"Bradford","RGN25CD":"E12000003","RGN25NM":"Yorkshire and The Humber","ObjectId":196}},{"type":"Feature","id":197,"geometry":null,"properties":{"LAD25CD":"E08000033","LAD25NM":"Calderdale","RGN25CD":"E12000003","RGN25NM":"Yorkshire and The Humber","ObjectId":197}},{"type":"Feature","id":198,"geometry":null,"properties":{"LAD25CD":"E08000034","LAD25NM":"Kirklees","RGN25CD":"E12000003","RGN25NM":"Yorkshire and The Humber","ObjectId":198}},{"type":"Feature","id":199,"geometry":null,"properties":{"LAD25CD":"E08000035","LAD25NM":"Leeds","RGN25CD":"E12000003","RGN25NM":"Yorkshire and The Humber","ObjectId":199}},{"type":"Feature","id":200,"geometry":null,"properties":{"LAD25CD":"E08000036","LAD25NM":"Wakefield","RGN25CD":"E12000003","RGN25NM":"Yorkshire and The Humber","ObjectId":200}},{"type":"Feature","id":201,"geometry":null,"properties":{"LAD25CD":"E08000037","LAD25NM":"Gateshead","RGN25CD":"E12000001","RGN25NM":"North East","ObjectId":201}},{"type":"Feature","id":202,"geometry":null,"properties":{"LAD25CD":"E08000038","LAD25NM":"Barnsley","RGN25CD":"E12000003","RGN25NM":"Yorkshire and The Humber","ObjectId":202}},{"type":"Feature","id":203,"geometry":null,"properties":{"LAD25CD":"E08000039","LAD25NM":"Sheffield","RGN25CD":"E12000003","RGN25NM":"Yorkshire and The Humber","ObjectId":203}},{"type":"Feature","id":204,"geometry":null,"properties":{"LAD25CD":"E09000001","LAD25NM":"City of London","RGN25CD":"E12000007","RGN25NM":"London","ObjectId":204}},{"type":"Feature","id":205,"geometry":null,"properties":{"LAD25CD":"E09000002","LAD25NM":"Barking and Dagenham","RGN25CD":"E12000007","RGN25NM":"London","ObjectId":205}},{"type":"Feature","id":206,"geometry":null,"properties":{"LAD25CD":"E09000003","LAD25NM":"Barnet","RGN25CD":"E12000007","RGN25NM":"London","ObjectId":206}},{"type":"Feature","id":207,"geometry":null,"properties":{"LAD25CD":"E09000004","LAD25NM":"Bexley","RGN25CD":"E12000007","RGN25NM":"London","ObjectId":207}},{"type":"Feature","id":208,"geometry":null,"properties":{"LAD25CD":"E09000005","LAD25NM":"Brent","RGN25CD":"E12000007","RGN25NM":"London","ObjectId":208}},{"type":"Feature","id":209,"geometry":null,"properties":{"LAD25CD":"E09000006","LAD25NM":"Bromley","RGN25CD":"E12000007","RGN25NM":"London","ObjectId":209}},{"type":"Feature","id":210,"geometry":null,"properties":{"LAD25CD":"E09000007","LAD25NM":"Camden","RGN25CD":"E12000007","RGN25NM":"London","ObjectId":210}},{"type":"Feature","id":211,"geometry":null,"properties":{"LAD25CD":"E09000008","LAD25NM":"Croydon","RGN25CD":"E12000007","RGN25NM":"London","ObjectId":211}},{"type":"Feature","id":212,"geometry":null,"properties":{"LAD25CD":"E09000009","LAD25NM":"Ealing","RGN25CD":"E12000007","RGN25NM":"London","ObjectId":212}},{"type":"Feature","id":213,"geometry":null,"properties":{"LAD25CD":"E09000010","LAD25NM":"Enfield","RGN25CD":"E12000007","RGN25NM":"London","ObjectId":213}},{"type":"Feature","id":214,"geometry":null,"properties":{"LAD25CD":"E09000011","LAD25NM":"Greenwich","RGN25CD":"E12000007","RGN25NM":"London","ObjectId":214}},{"type":"Feature","id":215,"geometry":null,"properties":{"LAD25CD":"E09000012","LAD25NM":"Hackney","RGN25CD":"E12000007","RGN25NM":"London","ObjectId":215}},{"type":"Feature","id":216,"geometry":null,"properties":{"LAD25CD":"E09000013","LAD25NM":"Hammersmith and Fulham","RGN25CD":"E12000007","RGN25NM":"London","ObjectId":216}},{"type":"Feature","id":217,"geometry":null,"properties":{"LAD25CD":"E09000014","LAD25NM":"Haringey","RGN25CD":"E12000007","RGN25NM":"London","ObjectId":217}},{"type":"Feature","id":218,"geometry":null,"properties":{"LAD25CD":"E09000015","LAD25NM":"Harrow","RGN25CD":"E12000007","RGN25NM":"London","ObjectId":218}},{"type":"Feature","id":219,"geometry":null,"properties":{"LAD25CD":"E09000016","LAD25NM":"Havering","RGN25CD":"E12000007","RGN25NM":"London","ObjectId":219}},{"type":"Feature","id":220,"geometry":null,"properties":{"LAD25CD":"E09000017","LAD25NM":"Hillingdon","RGN25CD":"E12000007","RGN25NM":"London","ObjectId":220}},{"type":"Feature","id":221,"geometry":null,"properties":{"LAD25CD":"E09000018","LAD25NM":"Hounslow","RGN25CD":"E12000007","RGN25NM":"London","ObjectId":221}},{"type":"Feature","id":222,"geometry":null,"properties":{"LAD25CD":"E09000019","LAD25NM":"Islington","RGN25CD":"E12000007","RGN25NM":"London","ObjectId":222}},{"type":"Feature","id":223,"geometry":null,"properties":{"LAD25CD":"E09000020","LAD25NM":"Kensington and Chelsea","RGN25CD":"E12000007","RGN25NM":"London","ObjectId":223}},{"type":"Feature","id":224,"geometry":null,"properties":{"LAD25CD":"E09000021","LAD25NM":"Kingston upon Thames","RGN25CD":"E12000007","RGN25NM":"London","ObjectId":224}},{"type":"Feature","id":225,"geometry":null,"properties":{"LAD25CD":"E09000022","LAD25NM":"Lambeth","RGN25CD":"E12000007","RGN25NM":"London","ObjectId":225}},{"type":"Feature","id":226,"geometry":null,"properties":{"LAD25CD":"E09000023","LAD25NM":"Lewisham","RGN25CD":"E12000007","RGN25NM":"London","ObjectId":226}},{"type":"Feature","id":227,"geometry":null,"properties":{"LAD25CD":"E09000024","LAD25NM":"Merton","RGN25CD":"E12000007","RGN25NM":"London","ObjectId":227}},{"type":"Feature","id":228,"geometry":null,"properties":{"LAD25CD":"E09000025","LAD25NM":"Newham","RGN25CD":"E12000007","RGN25NM":"London","ObjectId":228}},{"type":"Feature","id":229,"geometry":null,"properties":{"LAD25CD":"E09000026","LAD25NM":"Redbridge","RGN25CD":"E12000007","RGN25NM":"London","ObjectId":229}},{"type":"Feature","id":230,"geometry":null,"properties":{"LAD25CD":"E09000027","LAD25NM":"Richmond upon Thames","RGN25CD":"E12000007","RGN25NM":"London","ObjectId":230}},{"type":"Feature","id":231,"geometry":null,"properties":{"LAD25CD":"E09000028","LAD25NM":"Southwark","RGN25CD":"E12000007","RGN25NM":"London","ObjectId":231}},{"type":"Feature","id":232,"geometry":null,"properties":{"LAD25CD":"E09000029","LAD25NM":"Sutton","RGN25CD":"E12000007","RGN25NM":"London","ObjectId":232}},{"type":"Feature","id":233,"geometry":null,"properties":{"LAD25CD":"E09000030","LAD25NM":"Tower Hamlets","RGN25CD":"E12000007","RGN25NM":"London","ObjectId":233}},{"type":"Feature","id":234,"geometry":null,"properties":{"LAD25CD":"E09000031","LAD25NM":"Waltham Forest","RGN25CD":"E12000007","RGN25NM":"London","ObjectId":234}},{"type":"Feature","id":235,"geometry":null,"properties":{"LAD25CD":"E09000032","LAD25NM":"Wandsworth","RGN25CD":"E12000007","RGN25NM":"London","ObjectId":235}},{"type":"Feature","id":236,"geometry":null,"properties":{"LAD25CD":"E09000033","LAD25NM":"Westminster","RGN25CD":"E12000007","RGN25NM":"London","ObjectId":236}},{"type":"Feature","id":237,"geometry":null,"properties":{"LAD25CD":"E06000001","LAD25NM":"Hartlepool","RGN25CD":"E12000001","RGN25NM":"North East","ObjectId":237}},{"type":"Feature","id":238,"geometry":null,"properties":{"LAD25CD":"E06000002","LAD25NM":"Middlesbrough","RGN25CD":"E12000001","RGN25NM":"North East","ObjectId":238}},{"type":"Feature","id":239,"geometry":null,"properties":{"LAD25CD":"E06000003","LAD25NM":"Redcar and Cleveland","RGN25CD":"E12000001","RGN25NM":"North East","ObjectId":239}},{"type":"Feature","id":240,"geometry":null,"properties":{"LAD25CD":"E06000004","LAD25NM":"Stockton-on-Tees","RGN25CD":"E12000001","RGN25NM":"North East","ObjectId":240}},{"type":"Feature","id":241,"geometry":null,"properties":{"LAD25CD":"E06000005","LAD25NM":"Darlington","RGN25CD":"E12000001","RGN25NM":"North East","ObjectId":241}},{"type":"Feature","id":242,"geometry":null,"properties":{"LAD25CD":"E06000006","LAD25NM":"Halton","RGN25CD":"E12000002","RGN25NM":"North West","ObjectId":242}},{"type":"Feature","id":243,"geometry":null,"properties":{"LAD25CD":"E06000007","LAD25NM":"Warrington","RGN25CD":"E12000002","RGN25NM":"North West","ObjectId":243}},{"type":"Feature","id":244,"geometry":null,"properties":{"LAD25CD":"E06000008","LAD25NM":"Blackburn with Darwen","RGN25CD":"E12000002","RGN25NM":"North West","ObjectId":244}},{"type":"Feature","id":245,"geometry":null,"properties":{"LAD25CD":"E06000009","LAD25NM":"Blackpool","RGN25CD":"E12000002","RGN25NM":"North West","ObjectId":245}},{"type":"Feature","id":246,"geometry":null,"properties":{"LAD25CD":"E06000010","LAD25NM":"Kingston upon Hull, City of","RGN25CD":"E12000003","RGN25NM":"Yorkshire and The Humber","ObjectId":246}},{"type":"Feature","id":247,"geometry":null,"properties":{"LAD25CD":"E06000011","LAD25NM":"East Riding of Yorkshire","RGN25CD":"E12000003","RGN25NM":"Yorkshire and The Humber","ObjectId":247}},{"type":"Feature","id":248,"geometry":null,"properties":{"LAD25CD":"E06000012","LAD25NM":"North East Lincolnshire","RGN25CD":"E12000003","RGN25NM":"Yorkshire and The Humber","ObjectId":248}},{"type":"Feature","id":249,"geometry":null,"properties":{"LAD25CD":"E06000013","LAD25NM":"North Lincolnshire","RGN25CD":"E12000003","RGN25NM":"Yorkshire and The Humber","ObjectId":249}},{"type":"Feature","id":250,"geometry":null,"properties":{"LAD25CD":"E06000014","LAD25NM":"York","RGN25CD":"E12000003","RGN25NM":"Yorkshire and The Humber","ObjectId":250}},{"type":"Feature","id":251,"geometry":null,"properties":{"LAD25CD":"E06000015","LAD25NM":"Derby","RGN25CD":"E12000004","RGN25NM":"East Midlands","ObjectId":251}},{"type":"Feature","id":252,"geometry":null,"properties":{"LAD25CD":"E06000016","LAD25NM":"Leicester","RGN25CD":"E12000004","RGN25NM":"East Midlands","ObjectId":252}},{"type":"Feature","id":253,"geometry":null,"properties":{"LAD25CD":"E06000017","LAD25NM":"Rutland","RGN25CD":"E12000004","RGN25NM":"East Midlands","ObjectId":253}},{"type":"Feature","id":254,"geometry":null,"properties":{"LAD25CD":"E06000018","LAD25NM":"Nottingham","RGN25CD":"E12000004","RGN25NM":"East Midlands","ObjectId":254}},{"type":"Feature","id":255,"geometry":null,"properties":{"LAD25CD":"E06000019","LAD25NM":"Herefordshire, County of","RGN25CD":"E12000005","RGN25NM":"West Midlands","ObjectId":255}},{"type":"Feature","id":256,"geometry":null,"properties":{"LAD25CD":"E06000020","LAD25NM":"Telford and Wrekin","RGN25CD":"E12000005","RGN25NM":"West Midlands","ObjectId":256}},{"type":"Feature","id":257,"geometry":null,"properties":{"LAD25CD":"E06000021","LAD25NM":"Stoke-on-Trent","RGN25CD":"E12000005","RGN25NM":"West Midlands","ObjectId":257}},{"type":"Feature","id":258,"geometry":null,"properties":{"LAD25CD":"E06000022","LAD25NM":"Bath and North East Somerset","RGN25CD":"E12000009","RGN25NM":"South West","ObjectId":258}},{"type":"Feature","id":259,"geometry":null,"properties":{"LAD25CD":"E06000023","LAD25NM":"Bristol, City of","RGN25CD":"E12000009","RGN25NM":"South West","ObjectId":259}},{"type":"Feature","id":260,"geometry":null,"properties":{"LAD25CD":"E06000024","LAD25NM":"North Somerset","RGN25CD":"E12000009","RGN25NM":"South West","ObjectId":260}},{"type":"Feature","id":261,"geometry":null,"properties":{"LAD25CD":"E06000025","LAD25NM":"South Gloucestershire","RGN25CD":"E12000009","RGN25NM":"South West","ObjectId":261}},{"type":"Feature","id":262,"geometry":null,"properties":{"LAD25CD":"E06000026","LAD25NM":"Plymouth","RGN25CD":"E12000009","RGN25NM":"South West","ObjectId":262}},{"type":"Feature","id":263,"geometry":null,"properties":{"LAD25CD":"E06000027","LAD25NM":"Torbay","RGN25CD":"E12000009","RGN25NM":"South West","ObjectId":263}},{"type":"Feature","id":264,"geometry":null,"properties":{"LAD25CD":"E06000030","LAD25NM":"Swindon","RGN25CD":"E12000009","RGN25NM":"South West","ObjectId":264}},{"type":"Feature","id":265,"geometry":null,"properties":{"LAD25CD":"E06000031","LAD25NM":"Peterborough","RGN25CD":"E12000006","RGN25NM":"East of England","ObjectId":265}},{"type":"Feature","id":266,"geometry":null,"properties":{"LAD25CD":"E06000032","LAD25NM":"Luton","RGN25CD":"E12000006","RGN25NM":"East of England","ObjectId":266}},{"type":"Feature","id":267,"geometry":null,"properties":{"LAD25CD":"E06000033","LAD25NM":"Southend-on-Sea","RGN25CD":"E12000006","RGN25NM":"East of England","ObjectId":267}},{"type":"Feature","id":268,"geometry":null,"properties":{"LAD25CD":"E06000034","LAD25NM":"Thurrock","RGN25CD":"E12000006","RGN25NM":"East of England","ObjectId":268}},{"type":"Feature","id":269,"geometry":null,"properties":{"LAD25CD":"E06000035","LAD25NM":"Medway","RGN25CD":"E12000008","RGN25NM":"South East","ObjectId":269}},{"type":"Feature","id":270,"geometry":null,"properties":{"LAD25CD":"E06000036","LAD25NM":"Bracknell Forest","RGN25CD":"E12000008","RGN25NM":"South East","ObjectId":270}},{"type":"Feature","id":271,"geometry":null,"properties":{"LAD25CD":"E06000037","LAD25NM":"West Berkshire","RGN25CD":"E12000008","RGN25NM":"South East","ObjectId":271}},{"type":"Feature","id":272,"geometry":null,"properties":{"LAD25CD":"E06000038","LAD25NM":"Reading","RGN25CD":"E12000008","RGN25NM":"South East","ObjectId":272}},{"type":"Feature","id":273,"geometry":null,"properties":{"LAD25CD":"E06000039","LAD25NM":"Slough","RGN25CD":"E12000008","RGN25NM":"South East","ObjectId":273}},{"type":"Feature","id":274,"geometry":null,"properties":{"LAD25CD":"E06000040","LAD25NM":"Windsor and Maidenhead","RGN25CD":"E12000008","RGN25NM":"South East","ObjectId":274}},{"type":"Feature","id":275,"geometry":null,"properties":{"LAD25CD":"E06000041","LAD25NM":"Wokingham","RGN25CD":"E12000008","RGN25NM":"South East","ObjectId":275}},{"type":"Feature","id":276,"geometry":null,"properties":{"LAD25CD":"E06000042","LAD25NM":"Milton Keynes","RGN25CD":"E12000008","RGN25NM":"South East","ObjectId":276}},{"type":"Feature","id":277,"geometry":null,"properties":{"LAD25CD":"E06000043","LAD25NM":"Brighton and Hove","RGN25CD":"E12000008","RGN25NM":"South East","ObjectId":277}},{"type":"Feature","id":278,"geometry":null,"properties":{"LAD25CD":"E06000044","LAD25NM":"Portsmouth","RGN25CD":"E12000008","RGN25NM":"South East","ObjectId":278}},{"type":"Feature","id":279,"geometry":null,"properties":{"LAD25CD":"E06000045","LAD25NM":"Southampton","RGN25CD":"E12000008","RGN25NM":"South East","ObjectId":279}},{"type":"Feature","id":280,"geometry":null,"properties":{"LAD25CD":"E06000046","LAD25NM":"Isle of Wight","RGN25CD":"E12000008","RGN25NM":"South East","ObjectId":280}},{"type":"Feature","id":281,"geometry":null,"properties":{"LAD25CD":"E06000047","LAD25NM":"County Durham","RGN25CD":"E12000001","RGN25NM":"North East","ObjectId":281}},{"type":"Feature","id":282,"geometry":null,"properties":{"LAD25CD":"E06000049","LAD25NM":"Cheshire East","RGN25CD":"E12000002","RGN25NM":"North West","ObjectId":282}},{"type":"Feature","id":283,"geometry":null,"properties":{"LAD25CD":"E06000050","LAD25NM":"Cheshire West and Chester","RGN25CD":"E12000002","RGN25NM":"North West","ObjectId":283}},{"type":"Feature","id":284,"geometry":null,"properties":{"LAD25CD":"E06000051","LAD25NM":"Shropshire","RGN25CD":"E12000005","RGN25NM":"West Midlands","ObjectId":284}},{"type":"Feature","id":285,"geometry":null,"properties":{"LAD25CD":"E06000052","LAD25NM":"Cornwall","RGN25CD":"E12000009","RGN25NM":"South West","ObjectId":285}},{"type":"Feature","id":286,"geometry":null,"properties":{"LAD25CD":"E06000053","LAD25NM":"Isles of Scilly","RGN25CD":"E12000009","RGN25NM":"South West","ObjectId":286}},{"type":"Feature","id":287,"geometry":null,"properties":{"LAD25CD":"E06000054","LAD25NM":"Wiltshire","RGN25CD":"E12000009","RGN25NM":"South West","ObjectId":287}},{"type":"Feature","id":288,"geometry":null,"properties":{"LAD25CD":"E06000055","LAD25NM":"Bedford","RGN25CD":"E12000006","RGN25NM":"East of England","ObjectId":288}},{"type":"Feature","id":289,"geometry":null,"properties":{"LAD25CD":"E06000056","LAD25NM":"Central Bedfordshire","RGN25CD":"E12000006","RGN25NM":"East of England","ObjectId":289}},{"type":"Feature","id":290,"geometry":null,"properties":{"LAD25CD":"E06000057","LAD25NM":"Northumberland","RGN25CD":"E12000001","RGN25NM":"North East","ObjectId":290}},{"type":"Feature","id":291,"geometry":null,"properties":{"LAD25CD":"E06000058","LAD25NM":"Bournemouth, Christchurch and Poole","RGN25CD":"E12000009","RGN25NM":"South West","ObjectId":291}},{"type":"Feature","id":292,"geometry":null,"properties":{"LAD25CD":"E06000059","LAD25NM":"Dorset","RGN25CD":"E12000009","RGN25NM":"South West","ObjectId":292}},{"type":"Feature","id":293,"geometry":null,"properties":{"LAD25CD":"E06000060","LAD25NM":"Buckinghamshire","RGN25CD":"E12000008","RGN25NM":"South East","ObjectId":293}},{"type":"Feature","id":294,"geometry":null,"properties":{"LAD25CD":"E06000061","LAD25NM":"North Northamptonshire","RGN25CD":"E12000004","RGN25NM":"East Midlands","ObjectId":294}},{"type":"Feature","id":295,"geometry":null,"properties":{"LAD25CD":"E06000062","LAD25NM":"West Northamptonshire","RGN25CD":"E12000004","RGN25NM":"East Midlands","ObjectId":295}},{"type":"Feature","id":296,"geometry":null,"properties":{"LAD25CD":"E06000063","LAD25NM":"Cumberland","RGN25CD":"E12000002","RGN25NM":"North West","ObjectId":296}}]}